bbl,x,y,bin,GEOCODE_DISPOSITION,ADDR,ZIP
,,,,ADDRESS NUMBER OUT OF RANGE BY MORE THAN 4,4200 54TH AVE,11378
,,,,ADDRESS NUMBER OUT OF RANGE BY MORE THAN 4,2900 92ND ST,11369
,,,,ADDRESS NUMBER OUT OF RANGE BY MORE THAN 4,5542 69TH PL,11378
,,,,ADDRESS NUMBER OUT OF RANGE BY MORE THAN 4,300 J ST,11201
,,,,SPELLCHECKED WITH NO CHANGE - CENTRALTERMINALAREA,3 CENTRAL TERMINAL AREA,11430
,,,,STREET(S) NOT FOUND; NOT ELIGIBLE FOR SPELLCHECK,8 CENTRAL TERMINAL AREA # B8,11430
,,,,STREET(S) NOT FOUND; NOT ELIGIBLE FOR SPELLCHECK,10106 67TH DR # LA,11375
,,,,ADDRESS NUMBER OUT OF RANGE BY MORE THAN 4,115 BEACH CHANNEL DR,11694
,,,,NO STREETNAME,,11201
,,,,STREET(S) NOT FOUND; NOT ELIGIBLE FOR SPELLCHECK,36 01A COLLEGE POINT BLVD,11354
,,,,ADDRESS NUMBER OUT OF RANGE BY MORE THAN 4,3125 COLLEGE POINT BLVD,11354
,,,,NO STREETNAME,,11201
,,,,ADDRESS NUMBER OUT OF RANGE BY MORE THAN 4,1473 MYRTLE AV,11385
,,,,NO HOUSE NUMBER,PO BOX 60307,11206
,,,,NO HOUSE NUMBER,PO BOX 90246,11209
,,,,ADDRESS NUMBER OUT OF RANGE BY MORE THAN 4,111 VAN WYCK EXPY,11430
,,,,NO HOUSE NUMBER,BUSH TERMINAL MARKET,11232
,,,,ADDRESS NUMBER OUT OF RANGE BY MORE THAN 4,1 CROSS ISLAND PLZ # 128,11422
,,,,ADDRESS NUMBER OUT OF RANGE BY MORE THAN 4,157 26TH AVE # 24,11354
,,,,ADDRESS NUMBER OUT OF RANGE BY MORE THAN 4,220 INGRAHAM ST,11237
,,,,NO STREETNAME,,11101
,,,,ADDRESS NUMBER OUT OF RANGE BY MORE THAN 4,2320 7TH AVE,11232
,,,,ADDRESS NUMBER OUT OF RANGE BY MORE THAN 4,11 -20 26 RD,11101
,,,,ADDRESS NUMBER OUT OF RANGE BY MORE THAN 4,98 ROOSEVELT CT,11232
,,,,ADDRESS NUMBER OUT OF RANGE BY MORE THAN 4,2100 27TH RD,11102
,,,,ADDRESS NUMBER OUT OF RANGE BY MORE THAN 4,1450 ROCKAWAY BEACH BLVD,11694
,,,,NO HOUSE NUMBER,PO BOX 140250,11214
,,,,ADDRESS NUMBER OUT OF RANGE BY MORE THAN 4,333 SENECA AVE,11385
,,,,NO STREETNAME,,11101
,,,,ADDRESS NUMBER OUT OF RANGE BY MORE THAN 4,151 S SERVICE RD # M100,11430
,,,,ADDRESS NUMBER OUT OF RANGE BY MORE THAN 4,5502 48TH ST,11378
,,,,STREET(S) NOT FOUND; NOT ELIGIBLE FOR SPELLCHECK,4249 ROUTE 9 N,11235
,,,,ADDRESS NUMBER OUT OF RANGE BY MORE THAN 4,25301 ROCKAWAY BLVD # 2,11422
,,,,ADDRESS NUMBER OUT OF RANGE BY MORE THAN 4,5725 SHORE FRONT PKWY,11692
,,,,ADDRESS NUMBER OUT OF RANGE BY MORE THAN 4,642 WESTCHESTER AVE,11355
,,,,NO HOUSE NUMBER,PO BOX 750250,11375
,,,,ADDRESS NUMBER OUT OF RANGE BY MORE THAN 4,14 AVENUE W,11223
,,,,NO STREETNAME,,11201
,,,,NO STREETNAME,,11101
,,,,NO STREETNAME,,11215
,,,,NO STREETNAME,,11214
,,,,NO STREETNAME,,11236
,,,,NO HOUSE NUMBER,PO BOX 570074,11357
,,,,NO STREETNAME,84 FRONT ST,11201
,,,,ADDRESS NUMBER OUT OF RANGE BY MORE THAN 4,2650 W 35TH ST,11224
,,,,NO STREETNAME,,11209
,,,,SPELLCHECKED WITH NO CHANGE - INTERNATIONALAIRPORTCE,23059 INTERNATIONAL AIRPORT CE,11413
,,,,ADDRESS NUMBER OUT OF RANGE BY MORE THAN 4,1113 NEPTUNE AVE,11224
,,,,SPELLCHECKED WITH NO CHANGE - BROOKLYNTERMINALMARKET,29 BROOKLYN TERMINAL MARKET,11236
,,,,ADDRESS NUMBER OUT OF RANGE BY MORE THAN 4,114 JERICHO TPKE,11214
,,,,SPELLCHECKED WITH NO CHANGE - JFKINTLAIRPORT,53 JFK INTL AIRPORT # 3,11430
,,,,ADDRESS NUMBER OUT OF RANGE BY MORE THAN 4,2449 VETERANS AVE,11234
,,,,ADDRESS NUMBER OUT OF RANGE BY MORE THAN 4,1118 26TH RD,11102
,,,,SPELLCHECKED WITH NO CHANGE - FRANKLINAVENUE,14220 FRANKLIN AVE # LA,11355
,,,,ADDRESS NUMBER OUT OF RANGE BY MORE THAN 4,1245 AVENUE R # 42,11229
,,,,ADDRESS NUMBER OUT OF RANGE BY MORE THAN 4,37 3 21 AVE,11101
,,,,NO STREETNAME,,11201
,,,,NO STREETNAME,,11354
,,,,ADDRESS NUMBER OUT OF RANGE BY MORE THAN 4,224 W 35TH ST # 16,11224
,,,,ADDRESS NUMBER OUT OF RANGE BY MORE THAN 4,6103 STRICKLAND AVE,11234
,,,,NO STREETNAME,,11436
,,,,NO STREETNAME,,11201
,,,,NO STREETNAME,,11236
,,,,NO STREETNAME,,11414
,,,,ADDRESS NUMBER OUT OF RANGE BY MORE THAN 4,156 NORTHERN BLVD,11354
,,,,NO STREETNAME,,11354
,,,,ADDRESS NUMBER OUT OF RANGE BY MORE THAN 4,57 UNION AVE,11206
,,,,ADDRESS NUMBER OUT OF RANGE BY MORE THAN 4,5700 STRICKLAND AVE,11234
,,,,NO HOUSE NUMBER,JFK INTERNATIONAL AIRPORT,11430
,,,,NO STREETNAME,,11206
,,,,ADDRESS NUMBER OUT OF RANGE BY MORE THAN 4,6321 FLUSHING AVE,11378
,,,,ADDRESS NUMBER OUT OF RANGE BY MORE THAN 4,99 SENATOR ST,11220
,,,,ADDRESS NUMBER OUT OF RANGE BY MORE THAN 4,8052 PRESTON CT,11236
,,,,STREET(S) NOT FOUND; NOT ELIGIBLE FOR SPELLCHECK,107 19071 AVE,11375
,,,,NO STREETNAME,,11201
,,,,ADDRESS NUMBER OUT OF RANGE BY MORE THAN 4,285 POST AVE,11220
,,,,NO HOUSE NUMBER,BROOKLYN NAVY YARD,11201
,,,,SPELLCHECKED WITH NO CHANGE - BROOKLYNTERMINALMARKET,14 BROOKLYN TERMINAL MARKET,11236
,,,,ADDRESS NUMBER OUT OF RANGE BY MORE THAN 4,4001 DITMARS BLVD,11105
,,,,ADDRESS NUMBER OUT OF RANGE BY MORE THAN 4,4001 DITMARS BLVD,11105
,,,,ADDRESS NUMBER OUT OF RANGE BY MORE THAN 4,30 WEST DR,11363
,,,,NO STREETNAME,,11361
,,,,NO STREETNAME,,11201
,,,,ADDRESS NUMBER OUT OF RANGE BY MORE THAN 4,36 19 B'WAY,11102
,,,,NO STREETNAME,,11101
,,,,ADDRESS NUMBER OUT OF RANGE BY MORE THAN 4,8021 PRESTON CT,11236
,,,,ADDRESS NUMBER OUT OF RANGE BY MORE THAN 4,35 WILLIAMSBURG ST E,11211
,,,,ADDRESS NUMBER OUT OF RANGE BY MORE THAN 4,8021 PRESTON CT,11236
,,,,NO STREETNAME,,11694
,,,,ADDRESS NUMBER OUT OF RANGE BY MORE THAN 4,1729 HAMILTON WALK,11209
,,,,NO STREETNAME,,11237
,,,,NO STREETNAME,,11101
,,,,ADDRESS NUMBER OUT OF RANGE BY MORE THAN 4,7851 NARROWS AVE,11209
,,,,NO STREETNAME,,11434
,,,,SPELLCHECK MANJEN--> MANSON;ADDRESS NUMBER OUT OF RANGE BY MORE THAN 4,306 MANJEN ST,11206
,,,,ADDRESS NUMBER OUT OF RANGE BY MORE THAN 4,333 TEN EYCK ST,11206
,,,,NO HOUSE NUMBER,PO BOX 750366,11375
,,,,ADDRESS NUMBER OUT OF RANGE BY MORE THAN 4,449 IRVING AVE,11385
,,,,NO HOUSE NUMBER,PO BOX 570661,11357
,,,,NO STREETNAME,,11369
,,,,ADDRESS NUMBER OUT OF RANGE BY MORE THAN 4,20316 NORTHERN BLVD,11361
,,,,NO STREETNAME,,11215
,,,,ADDRESS NUMBER OUT OF RANGE BY MORE THAN 4,1145 1ST AVE,11101
,,,,ADDRESS NUMBER OUT OF RANGE BY MORE THAN 4,20900 CROSS ISLAND PKWY,11360
,,,,STREET(S) NOT FOUND; NOT ELIGIBLE FOR SPELLCHECK,11 3A 154,11357
,,,,ADDRESS NUMBER OUT OF RANGE BY MORE THAN 4,144 DOUGLASS ST,11217
,,,,ADDRESS NUMBER OUT OF RANGE BY MORE THAN 4,9071 PITKIN AVE,11417
,,,,NO STREETNAME,,11215
,,,,ADDRESS NUMBER OUT OF RANGE BY MORE THAN 4,81 HIGHLAND AVE,11201
,,,,NO HOUSE NUMBER,JFK INTERNATIONAL AIRPORT,11430
,,,,NO HOUSE NUMBER,JFK INTERNATIONAL AIRPORT,11430
,,,,NO HOUSE NUMBER,BROOKLYN NAVY YARD,11201
,,,,ADDRESS NUMBER OUT OF RANGE BY MORE THAN 4,1271 RALPH AVE,11363
,,,,ADDRESS NUMBER OUT OF RANGE BY MORE THAN 4,1 CROSS ISLAND PLZ # 109,11422
,,,,NO STREETNAME,,11362
,,,,NO STREETNAME,,11201
,,,,SPELLCHECKED WITH NO CHANGE - SECAUCUS,278 SECAUCUS RD,11224
,,,,SPELLCHECKED WITH NO CHANGE - SECAUCUS,278 SECAUCUS RD,11220
,,,,NO STREETNAME,,11201
,,,,ADDRESS NUMBER OUT OF RANGE BY MORE THAN 4,29 REVIEW AVE,11101
,,,,NO HOUSE NUMBER,JFK INTERNATIONAL AIRPORT,11430
,,,,SPELLCHECKED WITH NO CHANGE - OYSTERBAY,400 S OYSTER BAY RD,11201
,,,,NO STREETNAME,,11209
,,,,NO STREETNAME,,11236
,,,,ADDRESS NUMBER OUT OF RANGE BY MORE THAN 4,409 STOCKHOLM ST,11385
,,,,NO STREETNAME,,11207
,,,,ADDRESS NUMBER OUT OF RANGE BY MORE THAN 4,1028 LONG ISLAND AVE,11201
,,,,STREET(S) NOT FOUND; NOT ELIGIBLE FOR SPELLCHECK,9 JFK INTL AIRPORT # M14,11430
,,,,ADDRESS NUMBER OUT OF RANGE BY MORE THAN 4,13338 32ND AVE,11354
,,,,NO STREETNAME,,11357
,,,,ADDRESS NUMBER OUT OF RANGE BY MORE THAN 4,5202 GRAND AVE # 2R,11378
,,,,ADDRESS NUMBER OUT OF RANGE BY MORE THAN 4,5202 GRAND AVE # 16,11378
,,,,NO HOUSE NUMBER,PO BOX 170640,11417
,,,,NO HOUSE NUMBER,PIER 8 FOOT OF CONGRESS ST,11201
,,,,SPELLCHECKED WITH NO CHANGE - INTERNATLAIRPORTCENTER,23059 INTERNATL AIRPORT CTR BL,11413
,,,,ADDRESS NUMBER OUT OF RANGE BY MORE THAN 4,400 JERICHO TPKE,11207
,,,,ADDRESS NUMBER OUT OF RANGE BY MORE THAN 4,1194 80TH ST,11228
,,,,SPELLCHECKED WITH NO CHANGE - MARINEAVENUE,149 MARINE AVE # LA,11209
,,,,NO HOUSE NUMBER,PO BOX 630309,11363
,,,,NO STREETNAME,,11102
,,,,NO STREETNAME,,11201
,,,,ADDRESS NUMBER OUT OF RANGE BY MORE THAN 4,50 AMITY ST,11201
,,,,ADDRESS NUMBER OUT OF RANGE BY MORE THAN 4,5808 48TH ST,11378
,,,,ADDRESS NUMBER OUT OF RANGE BY MORE THAN 4,1 CROSS ISLAND PLZ # 202,11422
,,,,NO STREETNAME,,11234
,,,,ADDRESS NUMBER OUT OF RANGE BY MORE THAN 4,84 FORD ST,11229
,,,,ADDRESS NUMBER OUT OF RANGE BY MORE THAN 4,3642 169TH ST,11222
,,,,ADDRESS NUMBER OUT OF RANGE BY MORE THAN 4,45 DEGRAW ST,11231
,,,,ADDRESS NUMBER OUT OF RANGE BY MORE THAN 4,3550 COLLEGE POINT BLVD,11354
,,,,ADDRESS NUMBER OUT OF RANGE BY MORE THAN 4,14720 181ST ST,11413
,,,,ADDRESS NUMBER OUT OF RANGE BY MORE THAN 4,266 BROADWAY,11357
,,,,NO HOUSE NUMBER,BRIDGE ST,11201
,,,,ADDRESS NUMBER OUT OF RANGE BY MORE THAN 4,1666 E 67TH ST,11234
,,,,NO STREETNAME,,11414
,,,,ADDRESS NUMBER OUT OF RANGE BY MORE THAN 4,1 CROSS ISLAND PLZ # 211,11422
,,,,SPELLCHECKED WITH NO CHANGE - JFKINTLAIRPORT,7 JFK INTL AIRPORT,11430
,,,,NO HOUSE NUMBER,JFK INTERNATIONAL AIRPORT,11430
,,,,SPELLCHECK CARGO--> CORSO;ADDRESS NUMBER OUT OF RANGE BY MORE THAN 4,86 CARGO PLZ,11430
,,,,ADDRESS NUMBER OUT OF RANGE BY MORE THAN 4,151 S SERVICE RD # B,11430
,,,,NO HOUSE NUMBER,JFK INTERNATIONAL AIRPORT,11430
,,,,NO HOUSE NUMBER,JFK INTERNATIONAL AIRPORT,11430
,,,,SPELLCHECKED WITH NO CHANGE - CENTRALTERMINALAREA,1 CENTRAL TERMINAL AREA,11430
,,,,NO STREETNAME,,11417
,,,,NO HOUSE NUMBER,JFK INTERNATIONAL AIRPORT,11430
,,,,NO STREETNAME,,11434
,,,,NO HOUSE NUMBER,PO BOX 341170,11434
,,,,ADDRESS NUMBER OUT OF RANGE BY MORE THAN 4,24 STEINWAY ST # 12,11235
,,,,ADDRESS NUMBER OUT OF RANGE BY MORE THAN 4,311 W 25TH ST,11224
,,,,NO STREETNAME,,11201
,,,,SPELLCHECKED WITH NO CHANGE - INTERNATLARPRT,23059 INTERNATL ARPRT CTR #235,11413
,,,,ADDRESS NUMBER OUT OF RANGE BY MORE THAN 4,1465 UTICA AVE,11234
,,,,NO STREETNAME,,11354
,,,,ADDRESS NUMBER OUT OF RANGE BY MORE THAN 4,13847 HORACE HARDING EXPY # 2,11355
,,,,NO STREETNAME,111 FRONT ST,11201
,,,,SPELLCHECKED WITH NO CHANGE - CENTRALTERMINALAREA,8 CENTRAL TERMINAL AREA,11430
,,,,NO HOUSE NUMBER,JFK INTERNATIONAL AIRPORT,11430
,,,,ADDRESS NUMBER OUT OF RANGE BY MORE THAN 4,260 N BOUNDARY RD # D,11430
,,,,ADDRESS NUMBER OUT OF RANGE BY MORE THAN 4,1 CROSS ISLAND PLZ # 124,11422
,,,,ADDRESS NUMBER OUT OF RANGE BY MORE THAN 4,314 W 39TH ST,11385
,,,,ADDRESS NUMBER OUT OF RANGE BY MORE THAN 4,16801 ROCKAWAY BLVD # 1,11434
,,,,SPELLCHECKED WITH NO CHANGE - INTERNATLAIRPORTCENTER,23059 INTERNATL AIRPORT CTR BL,11413
,,,,SPELLCHECK CARGO--> CORSO;ADDRESS NUMBER OUT OF RANGE BY MORE THAN 4,87 CARGO PLZ # 1,11430
,,,,NO HOUSE NUMBER,JFK INTERNATIONAL AIRPORT,11430
,,,,NO STREETNAME,,11434
,,,,SPELLCHECK CARGO--> CORSO;ADDRESS NUMBER OUT OF RANGE BY MORE THAN 4,87 CARGO PLZ # 3,11430
,,,,ADDRESS NUMBER OUT OF RANGE BY MORE THAN 4,23 N SERVICE RD,11430
,,,,ADDRESS NUMBER OUT OF RANGE BY MORE THAN 4,5670 58TH PL,11378
,,,,SPELLCHECKED WITH NO CHANGE - HANGAR,3 N HANGAR RD,11430
,,,,ADDRESS NUMBER OUT OF RANGE BY MORE THAN 4,77 N BOUNDARY RD,11430
,,,,NO HOUSE NUMBER,JFK INTERNATIONAL AIRPORT,11430
,,,,ADDRESS NUMBER OUT OF RANGE BY MORE THAN 4,79 N BOUNDARY RD # 209,11430
,,,,NO HOUSE NUMBER,JFK INTERNATIONAL AIRPORT,11430
,,,,SPELLCHECKED WITH NO CHANGE - CENTRALTERMINALAREA,4 CENTRAL TERMINAL AREA,11430
,,,,NO HOUSE NUMBER,JFK INTERNATIONAL AIRPORT,11430
,,,,ADDRESS NUMBER OUT OF RANGE BY MORE THAN 4,15159 7TH AVE,11357
,,,,ADDRESS NUMBER OUT OF RANGE BY MORE THAN 4,1 CROSS ISLAND PLZ,11422
,,,,ADDRESS NUMBER OUT OF RANGE BY MORE THAN 4,16725 ROCKAWAY BLVD,11434
,,,,SPELLCHECKED WITH NO CHANGE - CENTRALTERMINALAREA,1 CENTRAL TERMINAL AREA,11430
,,,,ADDRESS NUMBER OUT OF RANGE BY MORE THAN 4,141 FEDERAL CIR # 1,11430
,,,,ADDRESS NUMBER OUT OF RANGE BY MORE THAN 4,15344 S CONDUIT AVE,11434
,,,,ADDRESS NUMBER OUT OF RANGE BY MORE THAN 4,15167 N CONDUIT AVE,11434
,,,,ADDRESS NUMBER OUT OF RANGE BY MORE THAN 4,141 FEDERAL CIR,11430
,,,,ADDRESS NUMBER OUT OF RANGE BY MORE THAN 4,16 N SERVICE RD,11430
,,,,SPELLCHECKED WITH NO CHANGE - CENTRALTERMINALAREA,8 CENTRAL TERMINAL AREA # 12,11430
,,,,NO HOUSE NUMBER,JFK INTERNATIONAL AIRPORT,11430
,,,,NO STREETNAME,,11236
,,,,NO STREETNAME,,11234
,,,,ADDRESS NUMBER OUT OF RANGE BY MORE THAN 4,9420 103RD AVE,11417
,,,,NO STREETNAME,,11201
,,,,NO STREETNAME,,11385
,,,,NO STREETNAME,,11209
,,,,NO STREETNAME,,11385
,,,,ADDRESS NUMBER OUT OF RANGE BY MORE THAN 4,15030 132ND AVE # 208,11434
,,,,ADDRESS NUMBER OUT OF RANGE BY MORE THAN 4,136 CAROLYN AVE,11234
,,,,STREET(S) NOT FOUND; NOT ELIGIBLE FOR SPELLCHECK,2531 NW 106TH AVE,11354
,,,,ADDRESS NUMBER OUT OF RANGE BY MORE THAN 4,4107 46TH ST,11104
,,,,ADDRESS NUMBER OUT OF RANGE BY MORE THAN 4,1 CROSS ISLAND PLZ # 203G,11422
,,,,ADDRESS NUMBER OUT OF RANGE BY MORE THAN 4,6020 59TH PL # 1,11378
,,,,NO STREETNAME,,11413
,,,,ADDRESS NUMBER OUT OF RANGE BY MORE THAN 4,1440 RALPH AVE,11236
,,,,ADDRESS NUMBER OUT OF RANGE BY MORE THAN 4,69 CENTRAL AVE,11385
,,,,ADDRESS NUMBER OUT OF RANGE BY MORE THAN 4,31 48 AVE,11101
,,,,ADDRESS NUMBER OUT OF RANGE BY MORE THAN 4,24829 BROOKVILLE BLVD # 2,11422
,,,,ADDRESS NUMBER OUT OF RANGE BY MORE THAN 4,83 KING ST,11231
,,,,NO STREETNAME,,11223
,,,,NO STREETNAME,,11414
,,,,NO STREETNAME,,11378
,,,,NO STREETNAME,,11235
,,,,NO HOUSE NUMBER,PO BOX 560031,11356
,,,,NO STREETNAME,,11234
,,,,NO STREETNAME,,11357
,,,,ADDRESS NUMBER OUT OF RANGE BY MORE THAN 4,5401 35TH ST,11101
,,,,NO STREETNAME,,11361
,,,,NO STREETNAME,,11223
,,,,ADDRESS NUMBER OUT OF RANGE BY MORE THAN 4,6850 CALDWELL AVE,11378
,,,,ADDRESS NUMBER OUT OF RANGE BY MORE THAN 4,7301 EDSALL AVE,11385
,,,,NO STREETNAME,,11201
,,,,NO STREETNAME,,11235
,,,,ADDRESS NUMBER OUT OF RANGE BY MORE THAN 4,14935 177TH ST # 103,11434
,,,,ADDRESS NUMBER OUT OF RANGE BY MORE THAN 4,261 N BOUNDARY RD # 308,11430
,,,,ADDRESS NUMBER OUT OF RANGE BY MORE THAN 4,15040 183RD ST # 220,11413
,,,,ADDRESS NUMBER OUT OF RANGE BY MORE THAN 4,15615 146TH AVE,11434
,,,,NO STREETNAME,,11362
,,,,ADDRESS NUMBER OUT OF RANGE BY MORE THAN 4,1111 NEPTUNE AVE,11224
,,,,NO STREETNAME,,11101
,,,,NO HOUSE NUMBER,PO BOX 340316,11434
,,,,ADDRESS NUMBER OUT OF RANGE BY MORE THAN 4,23201 NORTHERN BLVD,11362
,,,,ADDRESS NUMBER OUT OF RANGE BY MORE THAN 4,23B N SERVICE RD,11430
,,,,NO HOUSE NUMBER,JFK INTERNATIONAL AIRPORT,11430
,,,,NO STREETNAME,,11206
,,,,ADDRESS NUMBER OUT OF RANGE BY MORE THAN 4,90 S SERVICE RD,11430
,,,,ADDRESS NUMBER OUT OF RANGE BY MORE THAN 4,18 CLARK,11375
,,,,ADDRESS NUMBER OUT OF RANGE BY MORE THAN 4,2905 51ST ST,11385
,,,,SPELLCHECKED WITH NO CHANGE - LONGBEACH,1129 LONG BEACH RD,11223
,,,,STREET(S) NOT FOUND; NOT ELIGIBLE FOR SPELLCHECK,42 54 JUDG,11369
,,,,ADDRESS NUMBER OUT OF RANGE BY MORE THAN 4,4006 UNION ST,11354
,,,,ADDRESS NUMBER OUT OF RANGE BY MORE THAN 4,15030 132ND AVE # 303,11434
,,,,NO STREETNAME,,11105
,,,,SPELLCHECKED WITH NO CHANGE - CIRCLEDALE,5 CIRCLEDALE LN,11211
,,,,ADDRESS NUMBER OUT OF RANGE BY MORE THAN 4,15615 146TH AVE # 110,11434
,,,,SPELLCHECKED WITH NO CHANGE - INTERNATIONALARPRT,23059 INTERNATIONAL ARPRT CTR,11413
,,,,NO STREETNAME,,11201
,,,,NO STREETNAME,,11236
,,,,ADDRESS NUMBER OUT OF RANGE BY MORE THAN 4,2270 45TH ST,11105
,,,,NO HOUSE NUMBER,PO BOX 340100,11234
,,,,NO STREETNAME,,11375
,,,,ADDRESS NUMBER OUT OF RANGE BY MORE THAN 4,1465 UTICA AVE,11234
,,,,NO STREETNAME,,11201
,,,,NO HOUSE NUMBER,PO BOX 320151,11232
,,,,NO STREETNAME,,11691
,,,,ADDRESS NUMBER OUT OF RANGE BY MORE THAN 4,58 GRACE CT ALY,11201
,,,,STREET(S) NOT FOUND; NOT ELIGIBLE FOR SPELLCHECK,67-29 52 AU,11378
,,,,NO HOUSE NUMBER,JFK INTERNATIONAL AIRPORT,11430
,,,,NO HOUSE NUMBER,JFK INTERNATIONAL AIRPORT,11430
,,,,ADDRESS NUMBER OUT OF RANGE BY MORE THAN 4,2100 EMMONS AVE,11235
,,,,NO STREETNAME,,11378
,,,,ADDRESS NUMBER OUT OF RANGE BY MORE THAN 4,15615 146TH AVE,11434
,,,,SPELLCHECK CARGO--> CORSO;ADDRESS NUMBER OUT OF RANGE BY MORE THAN 4,86 CARGO PLZ # C,11430
,,,,ADDRESS NUMBER OUT OF RANGE BY MORE THAN 4,123 N SERVICE RD,11430
,,,,ADDRESS NUMBER OUT OF RANGE BY MORE THAN 4,10 N SERVICE RD # 104,11430
,,,,SPELLCHECKED WITH NO CHANGE - CENTRALTERMINALAREA,1 CENTRAL TERMINAL AREA,11430
,,,,ADDRESS NUMBER OUT OF RANGE BY MORE THAN 4,1 PIERREPONT PLZ # 1,11201
,,,,ADDRESS NUMBER OUT OF RANGE BY MORE THAN 4,3815 23RD AVE,11105
,,,,ADDRESS NUMBER OUT OF RANGE BY MORE THAN 4,6611 OTTO RD,11385
,,,,ADDRESS NUMBER OUT OF RANGE BY MORE THAN 4,20212 WILLETS POINT BLVD,11360
,,,,ADDRESS NUMBER OUT OF RANGE BY MORE THAN 4,20212 WILLETS POINT BLVD,11360
,,,,ADDRESS NUMBER OUT OF RANGE BY MORE THAN 4,2611 COLLEGE POINT BLVD,11354
,,,,ADDRESS NUMBER OUT OF RANGE BY MORE THAN 4,14955 177TH ST,11434
,,,,ADDRESS NUMBER OUT OF RANGE BY MORE THAN 4,389 MILTON ST,11222
,,,,NO STREETNAME,,11375
,,,,ADDRESS NUMBER OUT OF RANGE BY MORE THAN 4,45 DEGRAW ST,11231
,,,,ADDRESS NUMBER OUT OF RANGE BY MORE THAN 4,1144 ZEREGA AVE,11201
,,,,ADDRESS NUMBER OUT OF RANGE BY MORE THAN 4,250 N BOUNDARY RD,11430
,,,,ADDRESS NUMBER OUT OF RANGE BY MORE THAN 4,13136 20TH AVE,11356
,,,,ADDRESS NUMBER OUT OF RANGE BY MORE THAN 4,13136 20TH AVE,11356
,,,,NO STREETNAME,111 FRONT ST,11201
,,,,ADDRESS NUMBER OUT OF RANGE BY MORE THAN 4,14 S SERVICE RD,11430
,,,,SPELLCHECKED WITH NO CHANGE - CENTRALTERMINALAREA,1 CENTRAL TERMINAL AREA # 23,11430
,,,,STREET(S) NOT FOUND; NOT ELIGIBLE FOR SPELLCHECK,3524 AVENUE S # B,11234
,,,,ADDRESS NUMBER OUT OF RANGE BY MORE THAN 4,135 FRANKLIN,11101
,,,,NO STREETNAME,,11208
,,,,NO STREETNAME,,11201
,,,,NO STREETNAME,,11104
,,,,ADDRESS NUMBER OUT OF RANGE BY MORE THAN 4,1409 CENTRAL AVE,11691
,,,,NO STREETNAME,,11222
,,,,ADDRESS NUMBER OUT OF RANGE BY MORE THAN 4,5836 PRESTON CT,11234
,,,,ADDRESS NUMBER OUT OF RANGE BY MORE THAN 4,25473 HORACE HARDING EXPY,11362
,,,,NO STREETNAME,,11201
,,,,ADDRESS NUMBER OUT OF RANGE BY MORE THAN 4,247 NASSAU BLVD,11207
,,,,ADDRESS NUMBER OUT OF RANGE BY MORE THAN 4,5710 PRESTON CT,11234
,,,,NO STREETNAME,,11209
,,,,NO HOUSE NUMBER,JFK INTERNATIONAL AIRPORT,11430
,,,,NO STREETNAME,,11417
,,,,NO STREETNAME,,11201
,,,,NO HOUSE NUMBER,EAST 101 STREET,11236
,,,,ADDRESS NUMBER OUT OF RANGE BY MORE THAN 4,1 CROSS ISLAND PLZ # 113,11422
,,,,NO STREETNAME,,11211
,,,,NO HOUSE NUMBER,JFK INTERNATIONAL AIRPORT,11430
,,,,ADDRESS NUMBER OUT OF RANGE BY MORE THAN 4,991 FLUSHING AVE,11378
,,,,ADDRESS NUMBER OUT OF RANGE BY MORE THAN 4,25301 ROCKAWAY BLVD,11422
,,,,ADDRESS NUMBER OUT OF RANGE BY MORE THAN 4,37 CLINTON AVE,11378
,,,,ADDRESS NUMBER OUT OF RANGE BY MORE THAN 4,13338 32ND AVE,11354
,,,,ADDRESS NUMBER OUT OF RANGE BY MORE THAN 4,5633 3RD AVE,11220
,,,,ADDRESS NUMBER OUT OF RANGE BY MORE THAN 4,382 WILLIAM,11385
,,,,ADDRESS NUMBER OUT OF RANGE BY MORE THAN 4,5202 GRAND AVE,11378
,,,,NO STREETNAME,,11223
,990748,148876,,,W 8TH ST & SURF AVE,11224
,,,,ADDRESS NUMBER OUT OF RANGE BY MORE THAN 4,14716 181ST ST,11413
,,,,NO STREETNAME,,11201
,,,,ADDRESS NUMBER OUT OF RANGE BY MORE THAN 4,15615 146TH AVE # 208,11434
,,,,ADDRESS NUMBER OUT OF RANGE BY MORE THAN 4,1 CROSS ISLAND PLZ,11422
,,,,ADDRESS NUMBER OUT OF RANGE BY MORE THAN 4,1838 43RD ST,11105
,,,,ADDRESS NUMBER OUT OF RANGE BY MORE THAN 4,217 NORTHERN BLVD # 14,11361
,,,,ADDRESS NUMBER OUT OF RANGE BY MORE THAN 4,510 EAGLE AVE W,11209
,,,,ADDRESS NUMBER OUT OF RANGE BY MORE THAN 4,5570 47TH ST,11378
,,,,NO HOUSE NUMBER,PO BOX 150168,11215
,,,,SPELLCHECK BARSTOW--> BRISTOW;ADDRESS NUMBER OUT OF RANGE BY MORE THAN 4,17 BARSTOW RD,11201
,,,,NO STREETNAME,,11101
,,,,ADDRESS NUMBER OUT OF RANGE BY MORE THAN 4,5602 ARNOLD AVE,11378
,,,,NO STREETNAME,,11694
,,,,NO STREETNAME,,11209
,,,,ADDRESS NUMBER OUT OF RANGE BY MORE THAN 4,2900 WESTCHESTER AVE,11361
,,,,NO STREETNAME,,11201
,,,,NO HOUSE NUMBER,JFK INTERNATIONAL AIRPORT,11430
,,,,STREET(S) NOT FOUND; NOT ELIGIBLE FOR SPELLCHECK,150 55-B 14 AV,11357
,,,,SPELLCHECKED WITH NO CHANGE - LONGBEACH,2681 LONG BEACH RD,11222
,,,,NO HOUSE NUMBER,PO BOX 5954,11105
,,,,ADDRESS NUMBER OUT OF RANGE BY MORE THAN 4,5723 SHORE FRONT PKWY,11692
,,,,ADDRESS NUMBER OUT OF RANGE BY MORE THAN 4,22 31ST STREET,11105
,,,,NO STREETNAME,,11207
,,,,ADDRESS NUMBER OUT OF RANGE BY MORE THAN 4,1326 E 38TH ST,11234
,,,,ADDRESS NUMBER OUT OF RANGE BY MORE THAN 4,133 39 AV,11354
,,,,NO STREETNAME,,11354
,,,,NO STREETNAME,,11354
,,,,NO STREETNAME,,11201
,,,,NO STREETNAME,,11354
,,,,ADDRESS NUMBER OUT OF RANGE BY MORE THAN 4,156 NORTHERN BLVD,11354
,,,,SPELLCHECKED WITH NO CHANGE - CENTRALTERMAREA,4 CENTRAL TERM AREA # 272-140,11430
,,,,SPELLCHECKED WITH NO CHANGE - HANGAR,263 N HANGAR RD,11430
,,,,ADDRESS NUMBER OUT OF RANGE BY MORE THAN 4,2062 DAHILL RD,11223
,,,,ADDRESS NUMBER OUT OF RANGE BY MORE THAN 4,1 ASPEN PL,11201
,,,,ADDRESS NUMBER OUT OF RANGE BY MORE THAN 4,80 N BOUNDARY RD # 2,11430
,,,,SPELLCHECKED WITH NO CHANGE - INTERNATIONALAIRPORT,23059 INTERNATIONAL AIRPORT,11413
,,,,ADDRESS NUMBER OUT OF RANGE BY MORE THAN 4,3023 AVE J,11357
,,,,SPELLCHECKED WITH NO CHANGE - BROOKLYNTERMINALMARKET,27 BROOKLYN TERMINAL MARKET,11236
,,,,ADDRESS NUMBER OUT OF RANGE BY MORE THAN 4,3501 23RD AVE,11105
,,,,ADDRESS NUMBER OUT OF RANGE BY MORE THAN 4,2762 21ST ST,11102
,,,,ADDRESS NUMBER OUT OF RANGE BY MORE THAN 4,2549 43RD AVE,11101
,,,,STREETS DO NOT INTERSECT,STEINWAY ST & BROADWAY,11361
,,,,NO STREETNAME,,11101
,,,,SPELLCHECKED WITH NO CHANGE - TANNERS,63 TANNERS RD,11215
,,,,SPELLCHECKED WITH NO CHANGE - HANGAR,75 N HANGAR RD # 216,11430
,,,,ADDRESS NUMBER OUT OF RANGE BY MORE THAN 4,3060 REVIEW AVE # A,11101
,,,,ADDRESS NUMBER OUT OF RANGE BY MORE THAN 4,2923 34TH AVE,11106
,,,,NO STREETNAME,,11223
,,,,NO HOUSE NUMBER,PO BOX 50388,11205
,,,,ADDRESS NUMBER OUT OF RANGE BY MORE THAN 4,24829 BROOKVILLE BLVD # 1,11422
,,,,ADDRESS NUMBER OUT OF RANGE BY MORE THAN 4,528 FERRY ST,11220
,,,,SPELLCHECKED WITH NO CHANGE - ZMGMT,1237 AVENUE Z # MGMT,11235
,,,,ADDRESS NUMBER OUT OF RANGE BY MORE THAN 4,1 METROTECH CTR N # 3,11201
,,,,NO STREETNAME,,11106
,,,,NO STREETNAME,,11375
,,,,NO STREETNAME,,11385
,,,,SPELLCHECKED WITH NO CHANGE - CENTRALTERMINALAREA,1 CENTRAL TERMINAL AREA # 13,11430
,,,,ADDRESS NUMBER OUT OF RANGE BY MORE THAN 4,10101 GLENWOOD RD,11236
,,,,ADDRESS NUMBER OUT OF RANGE BY MORE THAN 4,20 J ST # M7,11201
,,,,NO HOUSE NUMBER,PO BOX 780186,11378
,,,,ADDRESS NUMBER OUT OF RANGE BY MORE THAN 4,141 FEDERAL CIR # 3,11430
,,,,ADDRESS NUMBER OUT OF RANGE BY MORE THAN 4,7017 AUSTIN ST # 3,11375
,,,,STREET(S) NOT FOUND; NOT ELIGIBLE FOR SPELLCHECK,135 LAND LN,11235
,,,,NO STREETNAME,206 FRONT ST,11201
,,,,ADDRESS NUMBER OUT OF RANGE BY MORE THAN 4,2603 STILLWELL AVE,11223
,,,,ADDRESS NUMBER OUT OF RANGE BY MORE THAN 4,824 63RD ST,11220
,,,,ADDRESS NUMBER OUT OF RANGE BY MORE THAN 4,3130 BERGEN PL,11220
,,,,ADDRESS NUMBER OUT OF RANGE BY MORE THAN 4,1485 AVENUE P,11229
,,,,NO STREETNAME,,11201
,,,,NO HOUSE NUMBER,JFK INTERNATIONAL AIRPORT,11430
,,,,NO HOUSE NUMBER,JFK INTERNATIONAL AIRPORT,11430
,,,,SPELLCHECKED WITH NO CHANGE - FLOYDBENNETTFLD,5 FLOYD BENNETT FLD,11234
,,,,ADDRESS NUMBER OUT OF RANGE BY MORE THAN 4,3159 FLATBUSH AVE,11234
,,,,NO STREETNAME,,11234
,,,,NO STREETNAME,,11234
,,,,NO STREETNAME,,11223
,,,,NO HOUSE NUMBER,PO BOX 280291,11228
,,,,ADDRESS NUMBER OUT OF RANGE BY MORE THAN 4,522 A CT,11201
,,,,ADDRESS NUMBER OUT OF RANGE BY MORE THAN 4,3260 FLATBUSH AVE,11234
,,,,ADDRESS NUMBER OUT OF RANGE BY MORE THAN 4,55 ONDERDONK AVE,11385
,,,,ADDRESS NUMBER OUT OF RANGE BY MORE THAN 4,37 1 CRES,11101
,,,,ADDRESS NUMBER OUT OF RANGE BY MORE THAN 4,8820 ASTORIA BLVD,11369
,,,,SPELLCHECKED WITH NO CHANGE - BROOKLYNTERMINALMARKET,22 BROOKLYN TERMINAL MARKET,11236
,,,,NO HOUSE NUMBER,JFK INTERNATIONAL AIRPORT,11430
,,,,NO STREETNAME,,11211
,,,,NO STREETNAME,,11362
,,,,NO STREETNAME,,11691
,,,,ADDRESS NUMBER OUT OF RANGE BY MORE THAN 4,1087 FLUSHING AV,11385
,,,,NO HOUSE NUMBER,BROOKLYN NY,11205
,,,,SPELLCHECKED WITH NO CHANGE - CENTRALTERMINALAREA,4 CENTRAL TERMINAL AREA # 263,11430
,,,,SPELLCHECKED WITH NO CHANGE - CENTRALTERMINALAREA,4 CENTRAL TERMINAL AREA,11430
,,,,SPELLCHECKED WITH NO CHANGE - JFKAIRPORT,1 J F K AIRPORT,11430
,,,,ADDRESS NUMBER OUT OF RANGE BY MORE THAN 4,1 CROSS ISLAND PLZ # 203,11422
,,,,NO STREETNAME,,11208
,,,,NO STREETNAME,,11201
,,,,NO STREETNAME,,11236
,,,,ADDRESS NUMBER OUT OF RANGE BY MORE THAN 4,12015 31ST AVE # D,11354
,,,,STREET(S) NOT FOUND; NOT ELIGIBLE FOR SPELLCHECK,149 N 24TH 44 AVE,11355
,,,,ADDRESS NUMBER OUT OF RANGE BY MORE THAN 4,10221 14TH AVE,11354
,,,,ADDRESS NUMBER OUT OF RANGE BY MORE THAN 4,78 CYPRESS CT,11208
,,,,ADDRESS NUMBER OUT OF RANGE BY MORE THAN 4,1412 JEROME AVE,11235
,,,,STREET(S) NOT FOUND; NOT ELIGIBLE FOR SPELLCHECK,135 26-A CROSS BAY BLVD,11417
,,,,NO HOUSE NUMBER,FULTON FERRY LNDG,11201
,,,,ADDRESS NUMBER OUT OF RANGE BY MORE THAN 4,235 35 149 DR,11422
,,,,ADDRESS NUMBER OUT OF RANGE BY MORE THAN 4,4310 39TH AVE,11104
,,,,ADDRESS NUMBER OUT OF RANGE BY MORE THAN 4,2085 130TH ST,11356
,,,,ADDRESS NUMBER OUT OF RANGE BY MORE THAN 4,2085 130TH ST,11356
,,,,SPELLCHECKED WITH NO CHANGE - BROOKLYNTERMINALMARKET,77 BROOKLYN TERMINAL MARKET,11236
,,,,NO STREETNAME,,11201
,,,,NO STREETNAME,,11214
,,,,NO HOUSE NUMBER,FORT TOTTEN,11357
,,,,NO STREETNAME,,11357
,,,,NO STREETNAME,,11232
,,,,NO STREETNAME,,11209
,,,,NO STREETNAME,,11201
,,,,ADDRESS NUMBER OUT OF RANGE BY MORE THAN 4,6515 65TH ST,11220
,,,,ADDRESS NUMBER OUT OF RANGE BY MORE THAN 4,21714 24TH AVE,11360
,,,,ADDRESS NUMBER OUT OF RANGE BY MORE THAN 4,1300 209TH ST,11360
,,,,ADDRESS NUMBER OUT OF RANGE BY MORE THAN 4,1334 ESTATES LN # 2,11360
,,,,ADDRESS NUMBER OUT OF RANGE BY MORE THAN 4,1334 ESTATES LN,11360
,,,,ADDRESS NUMBER OUT OF RANGE BY MORE THAN 4,5817 59TH DR,11378
,,,,ADDRESS NUMBER OUT OF RANGE BY MORE THAN 4,1334 ESTATES LN,11360
,,,,ADDRESS NUMBER OUT OF RANGE BY MORE THAN 4,1334 ESTATES LN,11360
,,,,ADDRESS NUMBER OUT OF RANGE BY MORE THAN 4,1334 ESTATES LN,11360
,,,,SPELLCHECKED WITH NO CHANGE - BROOKLYNTERMINALMARKET,51 BROOKLYN TERMINAL MARKET #1,11236
,,,,ADDRESS NUMBER OUT OF RANGE BY MORE THAN 4,83-35 PITKIN AVE,11417
,,,,ADDRESS NUMBER OUT OF RANGE BY MORE THAN 4,2805 CROSS ISLAND PKWY,11360
,,,,NO HOUSE NUMBER,PO BOX 320210,11232
,,,,SPELLCHECKED WITH NO CHANGE - BROOKLYNTERMINALMARKET,29 BROOKLYN TERMINAL MARKET,11236
,,,,ADDRESS NUMBER OUT OF RANGE BY MORE THAN 4,69 GRAND AVE # 6,11378
,,,,ADDRESS NUMBER OUT OF RANGE BY MORE THAN 4,10 20TH ST,11232
,,,,ADDRESS NUMBER OUT OF RANGE BY MORE THAN 4,3217 BEACH CHANNEL DR,11691
,,,,SPELLCHECKED WITH NO CHANGE - BROOKLYNTERMINALMARKET,55 BROOKLYN TERMINAL MARKET,11236
,,,,SPELLCHECKED WITH NO CHANGE - CHARLESLINDBERGH,50 CHARLES LINDBERGH BLVD # 20,11236
,,,,NO HOUSE NUMBER,PO BOX 140296,11414
,,,,STREET(S) NOT FOUND; NOT ELIGIBLE FOR SPELLCHECK,5009 AVENUE N # A,11234
,,,,ADDRESS NUMBER OUT OF RANGE BY MORE THAN 4,601 158TH ST,11357
,,,,ADDRESS NUMBER OUT OF RANGE BY MORE THAN 4,320 W 37TH,11354
,,,,ADDRESS NUMBER OUT OF RANGE BY MORE THAN 4,5817 59TH DR,11378
,,,,ADDRESS NUMBER OUT OF RANGE BY MORE THAN 4,2428 BELL BLVD,11360
,,,,ADDRESS NUMBER OUT OF RANGE BY MORE THAN 4,215 73 AV,11361
,,,,ADDRESS NUMBER OUT OF RANGE BY MORE THAN 4,1540 W ELIZABETH AVE,11215
,,,,ADDRESS NUMBER OUT OF RANGE BY MORE THAN 4,1934 SHORE PKWY,11214
,,,,ADDRESS NUMBER OUT OF RANGE BY MORE THAN 4,2303 BERGEN PL,11220
,,,,ADDRESS NUMBER OUT OF RANGE BY MORE THAN 4,2203 BERGEN PL,11220
,,,,NO HOUSE NUMBER,PO BOX 751056,11375
,,,,NO STREETNAME,,11215
,,,,STREET(S) NOT FOUND; NOT ELIGIBLE FOR SPELLCHECK,106 21-A 97,11417
,,,,ADDRESS NUMBER OUT OF RANGE BY MORE THAN 4,41 COLLEGE POINT BLVD,11355
,,,,ADDRESS NUMBER OUT OF RANGE BY MORE THAN 4,14935 177TH ST # 104,11434
,,,,ADDRESS NUMBER OUT OF RANGE BY MORE THAN 4,13210 11TH AVE,11356
,,,,ADDRESS NUMBER OUT OF RANGE BY MORE THAN 4,14620 NORTHERN BLVD,11354
,,,,NO STREETNAME,,11223
,,,,ADDRESS NUMBER OUT OF RANGE BY MORE THAN 4,8012 CYPRESS HILLS ST,11385
,,,,ADDRESS NUMBER OUT OF RANGE BY MORE THAN 4,10551 FLATLANDS AVE # 2,11236
,,,,STREET(S) NOT FOUND; NOT ELIGIBLE FOR SPELLCHECK,14 16-A CLINTONVILLE,11357
,,,,ADDRESS NUMBER OUT OF RANGE BY MORE THAN 4,2910 120TH ST,11354
,,,,STREETS DO NOT INTERSECT,LIVONIA & DUMONT ST,11215
,,,,NO STREETNAME,,11209
,,,,ADDRESS NUMBER OUT OF RANGE BY MORE THAN 4,70 HAMILTON AVE,11231
,,,,ADDRESS NUMBER OUT OF RANGE BY MORE THAN 4,7011 ASTORIA BLVD N,11370
,,,,NO HOUSE NUMBER,PO BOX 1528,11101
,,,,NO STREETNAME,,11375
,,,,NO HOUSE NUMBER,PO BOX 110407,11211
,,,,NO HOUSE NUMBER,PO BOX 630263,11363
,,,,ADDRESS NUMBER OUT OF RANGE BY MORE THAN 4,4729 6TH AVE,11220
,,,,NO STREETNAME,,11236
,,,,ADDRESS NUMBER OUT OF RANGE BY MORE THAN 4,1589 DALE AVE,11234
,,,,STREET(S) NOT FOUND; NOT ELIGIBLE FOR SPELLCHECK,150 -54B 14 AVE,11357
,,,,ADDRESS NUMBER OUT OF RANGE BY MORE THAN 4,15040 183RD ST # 225,11413
,,,,ADDRESS NUMBER OUT OF RANGE BY MORE THAN 4,3427 STEINWAY ST,11229
,,,,NO HOUSE NUMBER,PO BOX 750886,11375
,,,,SPELLCHECKED WITH NO CHANGE - BROOKLYNTERMINALMARKET,21 BROOKLYN TERMINAL MARKET,11236
,,,,ADDRESS NUMBER OUT OF RANGE BY MORE THAN 4,13 42ND ST # 3,11232
,,,,STREET(S) NOT FOUND; NOT ELIGIBLE FOR SPELLCHECK,70 34A AUSTIN,11375
,,,,ADDRESS NUMBER OUT OF RANGE BY MORE THAN 4,40 20TH ST # 1,11232
,,,,SPELLCHECKED WITH NO CHANGE - HANGAR,75 N HANGAR RD # 230,11430
,,,,NO STREETNAME,,11201
,,,,NO STREETNAME,,11201
,,,,ADDRESS NUMBER OUT OF RANGE BY MORE THAN 4,445 PARK AVE,11205
,,,,ADDRESS NUMBER OUT OF RANGE BY MORE THAN 4,10411 99TH ST,11417
,,,,ADDRESS NUMBER OUT OF RANGE BY MORE THAN 4,10419 99TH ST,11417
,,,,STREET(S) NOT FOUND; NOT ELIGIBLE FOR SPELLCHECK,53 39 198 FRESH MEADOWS,11361
,,,,NO STREETNAME,143 FRONT ST # A,11201
,,,,ADDRESS NUMBER OUT OF RANGE BY MORE THAN 4,13136 20TH AVE,11356
,,,,ADDRESS NUMBER OUT OF RANGE BY MORE THAN 4,42 FRANCIS LEWIS BLVD,11361
,,,,NO HOUSE NUMBER,PO BOX 110439,11211
,,,,SPELLCHECKED WITH NO CHANGE - SUNSHINE,1337 SUNSHINE DR,11691
,,,,NO HOUSE NUMBER,JFK INTERNATIONAL AIRPORT,11430
,,,,ADDRESS NUMBER OUT OF RANGE BY MORE THAN 4,1409 PROSPECT AVE,11354
,,,,NO STREETNAME,,11378
,,,,NO STREETNAME,,11362
,,,,NO HOUSE NUMBER,TERMINAL 8,11430
,,,,NO STREETNAME,,11201
,,,,ADDRESS NUMBER OUT OF RANGE BY MORE THAN 4,168 BROADWAY,11414
,,,,NO STREETNAME,79 FRONT ST,11201
,,,,NO STREETNAME,,11224
,,,,NO HOUSE NUMBER,JFK INTERNATIONAL AIRPORT,11430
,,,,SPELLCHECKED WITH NO CHANGE - BROOKLYNTERMINALMARKET,1 BROOKLYN TERMINAL MARKET,11236
,,,,NO HOUSE NUMBER,JFK INTERNATIONAL AIRPORT,11430
,,,,ADDRESS NUMBER OUT OF RANGE BY MORE THAN 4,146 SPENCER,11357
,,,,ADDRESS NUMBER OUT OF RANGE BY MORE THAN 4,10 J ST,11201
,,,,NO STREETNAME,275 FRONT ST,11201
,,,,ADDRESS NUMBER OUT OF RANGE BY MORE THAN 4,8400 72ND DR # 4,11385
,,,,NO STREETNAME,,11375
,,,,ADDRESS NUMBER OUT OF RANGE BY MORE THAN 4,16725 ROCKAWAY BLVD,11434
,,,,ADDRESS NUMBER OUT OF RANGE BY MORE THAN 4,221 221 MCKIBBEN ST,11385
,,,,ADDRESS NUMBER OUT OF RANGE BY MORE THAN 4,7211 AUSTIN ST,11375
,,,,ADDRESS NUMBER OUT OF RANGE BY MORE THAN 4,1 CROSS ISLAND PLZ # 109,11422
,,,,NO STREETNAME,,11355
,,,,NO STREETNAME,109 FRONT ST,11201
,,,,ADDRESS NUMBER OUT OF RANGE BY MORE THAN 4,329 MESEROLE,11385
,,,,ADDRESS NUMBER OUT OF RANGE BY MORE THAN 4,2791 W 5TH ST,11224
,,,,ADDRESS NUMBER OUT OF RANGE BY MORE THAN 4,30 BROADWAY # 11,11414
,,,,ADDRESS NUMBER OUT OF RANGE BY MORE THAN 4,4801 E 48TH ST,11234
,,,,NO STREETNAME,,11201
,,,,NO STREETNAME,,11201
,,,,NO STREETNAME,5 FRONT ST,11201
,,,,ADDRESS NUMBER OUT OF RANGE BY MORE THAN 4,145 B CT,11201
,,,,NO HOUSE NUMBER,JORALEMON ST,11201
,,,,NO STREETNAME,70 FRONT ST,11201
,,,,SPELLCHECK FORBEL--> FORBELL;ADDRESS NUMBER OUT OF RANGE BY MORE THAN 4,1485 FORBEL ST,11208
,,,,ADDRESS NUMBER OUT OF RANGE BY MORE THAN 4,8 N SERVICE RD,11430
,,,,NO STREETNAME,,11201
,,,,NO STREETNAME,,11201
,,,,ADDRESS NUMBER OUT OF RANGE BY MORE THAN 4,55 WASHINGTON ST,11101
,,,,SPELLCHECKED WITH NO CHANGE - BROOKLYNTERMINALMARKET,26 BROOKLYN TERMINAL MARKET,11236
,,,,NO STREETNAME,,11101
,,,,NO STREETNAME,,11236
,,,,NO STREETNAME,,11201
,,,,NO HOUSE NUMBER,PARK PL,11201
,,,,ADDRESS NUMBER OUT OF RANGE BY MORE THAN 4,342 ELDERT,11385
,,,,ADDRESS NUMBER OUT OF RANGE BY MORE THAN 4,1 CROSS ISLAND PLZ # LL3,11422
,,,,NO STREETNAME,,11375
,,,,NO STREETNAME,,11208
,,,,ADDRESS NUMBER OUT OF RANGE BY MORE THAN 4,7106 110TH ST,11375
,,,,ADDRESS NUMBER OUT OF RANGE BY MORE THAN 4,13212 11TH AVE,11356
,,,,NO HOUSE NUMBER,PO BOX 750515,11375
,,,,ADDRESS NUMBER OUT OF RANGE BY MORE THAN 4,3025 RAILROAD AVE,11101
,,,,ADDRESS NUMBER OUT OF RANGE BY MORE THAN 4,15040 183RD ST,11413
,,,,NO STREETNAME,,11201
,,,,NO HOUSE NUMBER,PO BOX 2008,11102
,,,,ADDRESS NUMBER OUT OF RANGE BY MORE THAN 4,1 CROSS ISLAND PLZ # 13333,11422
,,,,NO HOUSE NUMBER,PO BOX 130187,11413
,,,,NO STREETNAME,,11207
,,,,ADDRESS NUMBER OUT OF RANGE BY MORE THAN 4,24 IRVING AV,11385
,,,,ADDRESS NUMBER OUT OF RANGE BY MORE THAN 4,443 BUSHWICK AV,11385
,,,,ADDRESS NUMBER OUT OF RANGE BY MORE THAN 4,10819 ROCKAWAY BEACH BLVD,11694
,,,,SPELLCHECKED WITH NO CHANGE - CENTRALTERMINALAREA,4B CENTRAL TERMINAL AREA # 6,11430
,,,,ADDRESS NUMBER OUT OF RANGE BY MORE THAN 4,68 JOHNSON ST,11201
,,,,ADDRESS NUMBER OUT OF RANGE BY MORE THAN 4,743 SUTTER AVE,11207
,,,,NO STREETNAME,126 FRONT ST,11201
,,,,NO STREETNAME,,11214
,,,,ADDRESS NUMBER OUT OF RANGE BY MORE THAN 4,180 STEWART AVE,11385
,,,,SPELLCHECKED WITH NO CHANGE - MADISONRGWD,61 24 MADISON RGWD,11385
,,,,NO STREETNAME,,11354
,,,,ADDRESS NUMBER OUT OF RANGE BY MORE THAN 4,304 54TH RD,11378
,,,,ADDRESS NUMBER OUT OF RANGE BY MORE THAN 4,18216 149TH RD # 218,11413
,,,,ADDRESS NUMBER OUT OF RANGE BY MORE THAN 4,763 EASTERN PKWY,11378
,,,,ADDRESS NUMBER OUT OF RANGE BY MORE THAN 4,338 FARRINGTON ST # 3C,11354
,,,,ADDRESS NUMBER OUT OF RANGE BY MORE THAN 4,13338 32ND AVE,11354
,,,,ADDRESS NUMBER OUT OF RANGE BY MORE THAN 4,212 3 UNION TRNPK,11360
,,,,NO STREETNAME,,11101
,,,,NO STREETNAME,,11385
,,,,ADDRESS NUMBER OUT OF RANGE BY MORE THAN 4,23B N SERVICE RD # 123,11430
,,,,NO STREETNAME,,11102
,,,,NO STREETNAME,,11229
,,,,NO STREETNAME,,11201
,,,,SPELLCHECKED WITH NO CHANGE - CENTRALTERMINALAREA,49 CENTRAL TERMINAL AREA,11430
,,,,NO HOUSE NUMBER,JFK INTERNATIONAL AIRPORT,11430
,,,,ADDRESS NUMBER OUT OF RANGE BY MORE THAN 4,17575 ROCKAWAY BLVD,11434
,,,,ADDRESS NUMBER OUT OF RANGE BY MORE THAN 4,6020 59TH PL # 1,11378
,,,,ADDRESS NUMBER OUT OF RANGE BY MORE THAN 4,2249 141ST AVE,11413
,,,,NO HOUSE NUMBER,PO BOX 5173,11105
,,,,ADDRESS NUMBER OUT OF RANGE BY MORE THAN 4,382 20 AV,11105
,,,,NO HOUSE NUMBER,JFK INTERNATIONAL AIRPORT,11430
,,,,ADDRESS NUMBER OUT OF RANGE BY MORE THAN 4,1310 PAERDEGAT AVE N,11236
,,,,ADDRESS NUMBER OUT OF RANGE BY MORE THAN 4,1370 REMSEN AVE,11236
,,,,NO STREETNAME,,11375
,,,,SPELLCHECKED WITH NO CHANGE - ATTESTATION,1 ATTESTATION DR,11201
,,,,ADDRESS NUMBER OUT OF RANGE BY MORE THAN 4,58 58 PL,11378
,,,,NO STREETNAME,,11236
,,,,ADDRESS NUMBER OUT OF RANGE BY MORE THAN 4,7922 41ST ST,11209
,,,,ADDRESS NUMBER OUT OF RANGE BY MORE THAN 4,24818 S CONDUIT AVE,11422
,,,,ADDRESS NUMBER OUT OF RANGE BY MORE THAN 4,151 5TH ST,11215
,,,,ADDRESS NUMBER OUT OF RANGE BY MORE THAN 4,1 CROSS ISLAND PLZ # 125,11422
,,,,NO HOUSE NUMBER,JFK INTERNATIONAL AIRPORT,11430
,,,,ADDRESS NUMBER OUT OF RANGE BY MORE THAN 4,261 N BOUNDARY RD # 302,11430
,,,,ADDRESS NUMBER OUT OF RANGE BY MORE THAN 4,1 CROSS ISLAND PLZ # 125,11422
,,,,SPELLCHECKED WITH NO CHANGE - CARGOSERVICE,67 CARGO SERVICE RD # 3150,11430
,,,,SPELLCHECKED WITH NO CHANGE - INTERNATLARPRT,23059 INTERNATL ARPRT CTR #279,11413
,,,,ADDRESS NUMBER OUT OF RANGE BY MORE THAN 4,24829 BROOKVILLE BLVD # 1,11422
,,,,NO HOUSE NUMBER,JFK INTERNATIONAL AIRPORT,11430
,,,,ADDRESS NUMBER OUT OF RANGE BY MORE THAN 4,151 S SERVICE RD,11430
,,,,NO HOUSE NUMBER,JFK INTERNATIONAL AIRPORT,11430
,,,,NO HOUSE NUMBER,JFK INTERNATIONAL AIRPORT,11430
,,,,ADDRESS NUMBER OUT OF RANGE BY MORE THAN 4,18216 149TH RD # 4,11413
,,,,ADDRESS NUMBER OUT OF RANGE BY MORE THAN 4,151 S SERVICE RD # A,11430
,,,,SPELLCHECKED WITH NO CHANGE - BROOKLYNTERMINALMARKET,70 BROOKLYN TERMINAL MARKET,11236
,,,,ADDRESS NUMBER OUT OF RANGE BY MORE THAN 4,1 CROSS ISLAND PLZ # 224,11422
,,,,ADDRESS NUMBER OUT OF RANGE BY MORE THAN 4,935 BROADWAY,11385
,,,,NO STREETNAME,,11201
,,,,SPELLCHECK CONEY--> CANEY;ADDRESS NUMBER OUT OF RANGE BY MORE THAN 4,3094 CONEY AVE,11235
,,,,NO STREETNAME,,11354
,,,,ADDRESS NUMBER OUT OF RANGE BY MORE THAN 4,1 METROTECH CTR N # 1000,11201
,,,,NO STREETNAME,102 FRONT ST,11201
,,,,ADDRESS NUMBER OUT OF RANGE BY MORE THAN 4,66 LONG ISLAND EXP,11378
,,,,ADDRESS NUMBER OUT OF RANGE BY MORE THAN 4,3554 BEACH 72ND ST,11692
,,,,ADDRESS NUMBER OUT OF RANGE BY MORE THAN 4,16801 ROCKAWAY BLVD,11434
,,,,NO STREETNAME,231 FRONT ST,11201
,,,,ADDRESS NUMBER OUT OF RANGE BY MORE THAN 4,3990 43RD ST,11104
,,,,ADDRESS NUMBER OUT OF RANGE BY MORE THAN 4,810 BANK ST,11236
,,,,SPELLCHECKED WITH NO CHANGE - HANGAR,75 N HANGAR RD # M1,11430
,,,,NO STREETNAME,237 FRONT ST,11201
,,,,ADDRESS NUMBER OUT OF RANGE BY MORE THAN 4,36 9 MAIN,11354
,,,,ADDRESS NUMBER OUT OF RANGE BY MORE THAN 4,1 CROSS ISLAND PLZ # 111,11422
,,,,NO HOUSE NUMBER,CARROLL GARDENS,11231
,,,,ADDRESS NUMBER OUT OF RANGE BY MORE THAN 4,8312 S CONDUIT AVE,11414
,,,,ADDRESS NUMBER OUT OF RANGE BY MORE THAN 4,41 PIONEER ST,11231
,,,,ADDRESS NUMBER OUT OF RANGE BY MORE THAN 4,5202 GRAND AVE,11378
,,,,NO STREETNAME,,11201
,,,,NO HOUSE NUMBER,PO BOX 200279,11220
,,,,NO HOUSE NUMBER,JFK INTERNATIONAL AIRPORT,11430
,,,,ADDRESS NUMBER OUT OF RANGE BY MORE THAN 4,680 FAIRVIEW AVE,11237
,,,,ADDRESS NUMBER OUT OF RANGE BY MORE THAN 4,1012 36TH AVE,11106
,,,,ADDRESS NUMBER OUT OF RANGE BY MORE THAN 4,870 CENTRAL AVE,11691
,,,,ADDRESS NUMBER OUT OF RANGE BY MORE THAN 4,7620 LIBERTY AVE,11417
,,,,SPELLCHECKED WITH NO CHANGE - UNIONTURNPIK,222 16 UNION TURNPIK,11361
,,,,NO HOUSE NUMBER,PIER 12 # 112,11231
,,,,NO STREETNAME,,11214
,,,,STREET(S) NOT FOUND; NOT ELIGIBLE FOR SPELLCHECK,21420 CETC TEST 43 AVE,11361
,,,,ADDRESS NUMBER OUT OF RANGE BY MORE THAN 4,41 23RD ST,11101
,,,,SPELLCHECKED WITH NO CHANGE - BROOKLYNNAVALYARD,664 BROOKLYN NAVAL YARD,11201
,,,,NO STREETNAME,,11215
,,,,ADDRESS NUMBER OUT OF RANGE BY MORE THAN 4,1 CROSS ISLAND PLZ,11422
,,,,ADDRESS NUMBER OUT OF RANGE BY MORE THAN 4,9 MOTT AVE,11236
,,,,ADDRESS NUMBER OUT OF RANGE BY MORE THAN 4,4520 43RD AVE,11104
,,,,ADDRESS NUMBER OUT OF RANGE BY MORE THAN 4,3229 BEACH CHANNEL DR,11691
,,,,NO STREETNAME,,11201
,,,,NO STREETNAME,,11205
,,,,NO STREETNAME,,11101
,,,,NO STREETNAME,,11101
,,,,ADDRESS NUMBER OUT OF RANGE BY MORE THAN 4,1 CROSS ISLAND PLZ # 110,11422
,,,,ADDRESS NUMBER OUT OF RANGE BY MORE THAN 4,3118 STARR AVE,11101
,,,,ADDRESS NUMBER OUT OF RANGE BY MORE THAN 4,3844 13TH ST,11101
,,,,ADDRESS NUMBER OUT OF RANGE BY MORE THAN 4,215-1539 AVE,11361
,,,,ADDRESS NUMBER OUT OF RANGE BY MORE THAN 4,7211 AUSTIN ST,11375
,,,,ADDRESS NUMBER OUT OF RANGE BY MORE THAN 4,1 CROSS ISLAND PLZ # 16,11422
,,,,NO STREETNAME,,11201
,,,,ADDRESS NUMBER OUT OF RANGE BY MORE THAN 4,4311 MAIN ST,11355
,,,,ADDRESS NUMBER OUT OF RANGE BY MORE THAN 4,214 42 AVE,11361
,,,,ADDRESS NUMBER OUT OF RANGE BY MORE THAN 4,2849 FULTON,11385
,,,,NO HOUSE NUMBER,FR MEDO,11375
,,,,ADDRESS NUMBER OUT OF RANGE BY MORE THAN 4,1229 150TH ST,11357
,,,,SPELLCHECKED WITH NO CHANGE - FRELINGHUYSEN,429 FRELINGHUYSEN AVE,11101
,,,,NO STREETNAME,,11211
,,,,SPELLCHECKED WITH NO CHANGE - CENTRALTERMINALAREA,1 CENTRAL TERMINAL AREA # 3,11430
,,,,NO HOUSE NUMBER,JFK INTERNATIONAL AIRPORT,11430
,,,,ADDRESS NUMBER OUT OF RANGE BY MORE THAN 4,1 CROSS ISLAND PLZ,11422
,,,,SPELLCHECKED WITH NO CHANGE - CENTRALTERMINALAREA,1 CENTRAL TERMINAL AREA # 26,11430
,,,,SPELLCHECKED WITH NO CHANGE - HANGAR,75 N HANGAR RD # 212,11430
,,,,ADDRESS NUMBER OUT OF RANGE BY MORE THAN 4,135 THAMES,11385
,,,,STREET(S) NOT FOUND; NOT ELIGIBLE FOR SPELLCHECK,425 AVENUE U # A,11223
,,,,ADDRESS NUMBER OUT OF RANGE BY MORE THAN 4,17725 ROCKAWAY BLVD,11434
,,,,ADDRESS NUMBER OUT OF RANGE BY MORE THAN 4,12220 MERRILL ST,11434
,,,,NO STREETNAME,,11201
,,,,ADDRESS NUMBER OUT OF RANGE BY MORE THAN 4,2361 BELL BLVD,11360
,,,,ADDRESS NUMBER OUT OF RANGE BY MORE THAN 4,134 32 AVE,11354
,,,,ADDRESS NUMBER OUT OF RANGE BY MORE THAN 4,816 WYCKOFF AV,11385
,,,,STREET(S) NOT FOUND; NOT ELIGIBLE FOR SPELLCHECK,71 28 7128 FRESH POND RD,11385
,,,,ADDRESS NUMBER OUT OF RANGE BY MORE THAN 4,103-14 14 AV,11354
,,,,NO STREETNAME,,11235
,,,,NO STREETNAME,,11354
,,,,ADDRESS NUMBER OUT OF RANGE BY MORE THAN 4,4174 48TH ST,11104
,,,,NO STREETNAME,,11215
,,,,ADDRESS NUMBER OUT OF RANGE BY MORE THAN 4,15 S 8TH ST,11414
,,,,SPELLCHECKED WITH NO CHANGE - VOICE,100 VOICE RD,11354
,,,,NO STREETNAME,,11235
,,,,NO STREETNAME,,11354
,,,,NO STREETNAME,,11357
,,,,ADDRESS NUMBER OUT OF RANGE BY MORE THAN 4,14530 157TH ST # N,11434
,,,,STREET(S) NOT FOUND; NOT ELIGIBLE FOR SPELLCHECK,3524 AVENUE S # A,11234
,,,,NO STREETNAME,305 FRONT ST,11694
,,,,NO STREETNAME,23079 INT ARP CN BLVD # 255,11413
,,,,NO STREETNAME,,11105
,,,,ADDRESS NUMBER OUT OF RANGE BY MORE THAN 4,13214 11TH AVE,11356
,,,,ADDRESS NUMBER OUT OF RANGE BY MORE THAN 4,2134 COLONIAL RD,11220
,,,,NO STREETNAME,,11413
,,,,ADDRESS NUMBER OUT OF RANGE BY MORE THAN 4,127 22 AV,11356
,,,,NO STREETNAME,,11222
,,,,NO STREETNAME,,11201
,,,,ADDRESS NUMBER OUT OF RANGE BY MORE THAN 4,26 BORAGE PL # 12,11375
,,,,NO STREETNAME,,11201
,,,,NO STREETNAME,,11215
,,,,SPELLCHECKED WITH NO CHANGE - HANGAR,75 N HANGAR RD # 250,11430
,,,,ADDRESS NUMBER OUT OF RANGE BY MORE THAN 4,20212 WILLETS POINT BLVD,11360
,,,,ADDRESS NUMBER OUT OF RANGE BY MORE THAN 4,415 STATE RD 126,11694
,,,,ADDRESS NUMBER OUT OF RANGE BY MORE THAN 4,5626 MASPETH AVE,11378
,,,,NO HOUSE NUMBER,HUMBOLDT,11222
,,,,NO STREETNAME,,11201
,,,,ADDRESS NUMBER OUT OF RANGE BY MORE THAN 4,506 MAIN ST,11354
,,,,NO HOUSE NUMBER,BARTLETT PL,11229
,,,,NO HOUSE NUMBER,COURT,11201
,,,,ADDRESS NUMBER OUT OF RANGE BY MORE THAN 4,28 ULMER ST,11354
,,,,ADDRESS NUMBER OUT OF RANGE BY MORE THAN 4,20TH AVE,11356
,,,,NO STREETNAME,,11357
,,,,NO HOUSE NUMBER,JFK INTERNATIONAL AIRPORT,11430
,,,,NO STREETNAME,,11214
,,,,ADDRESS NUMBER OUT OF RANGE BY MORE THAN 4,1532 MYRTLE AVE,11385
,,,,NO HOUSE NUMBER,PIER 1 BROOKLYN ARMY BASE,11201
,,,,STREETS DO NOT INTERSECT,FLUSHING AVE & N ELLIOT ST,11201
,,,,NO STREETNAME,,11209
,,,,NO HOUSE NUMBER,BLDG49 JFK INTL AIRPORT,11430
,,,,ADDRESS NUMBER OUT OF RANGE BY MORE THAN 4,1 METROTECH CTR N # 11,11201
,,,,SPELLCHECKED WITH NO CHANGE - CENTRALTERMINALAREA,1 CENTRAL TERMINAL AREA # 9,11430
,,,,ADDRESS NUMBER OUT OF RANGE BY MORE THAN 4,439 MAIN ST,11208
,,,,NO HOUSE NUMBER,JFK INTERNATIONAL AIRPORT,11430
,,,,ADDRESS NUMBER OUT OF RANGE BY MORE THAN 4,1 CROSS ISLAND PLZ,11422
,,,,NO STREETNAME,,11228
,,,,ADDRESS NUMBER OUT OF RANGE BY MORE THAN 4,12415 31ST AVE,11354
,,,,NO HOUSE NUMBER,PO BOX 130206,11413
,,,,SPELLCHECKED WITH NO CHANGE - JFKAIRPORT,1 J F K AIRPORT,11430
,,,,NO STREETNAME,,11215
,,,,ADDRESS NUMBER OUT OF RANGE BY MORE THAN 4,15537 145TH AVE,11434
,,,,NO STREETNAME,,11201
,,,,NO STREETNAME,,11234
,,,,ADDRESS NUMBER OUT OF RANGE BY MORE THAN 4,250 JERICHO TPKE A,11201
,,,,NO HOUSE NUMBER,PO BOX 240229,11224
,,,,NO STREETNAME,,11201
,,,,ADDRESS NUMBER OUT OF RANGE BY MORE THAN 4,18217 150TH DR,11413
,,,,ADDRESS NUMBER OUT OF RANGE BY MORE THAN 4,14 S SERVICE RD # 15,11430
,,,,ADDRESS NUMBER OUT OF RANGE BY MORE THAN 4,1153 53RD,11357
,,,,NO STREETNAME,,11215
,,,,ADDRESS NUMBER OUT OF RANGE BY MORE THAN 4,15615 146TH AVE,11434
,,,,SPELLCHECKED WITH NO CHANGE - CENTRALTERMINALAREA,1 CENTRAL TERMINAL AREA,11430
,,,,ADDRESS NUMBER OUT OF RANGE BY MORE THAN 4,3060 REVIEW AVE,11101
,,,,NO STREETNAME,,11356
,,,,ADDRESS NUMBER OUT OF RANGE BY MORE THAN 4,1215 2ND AVE,11361
,,,,ADDRESS NUMBER OUT OF RANGE BY MORE THAN 4,7211 AUSTIN ST # 326,11375
,,,,ADDRESS NUMBER OUT OF RANGE BY MORE THAN 4,171-07 20 AV,11357
,,,,NO STREETNAME,,11235
,,,,STREET(S) NOT FOUND; NOT ELIGIBLE FOR SPELLCHECK,136 93 13693 ROOSEVELT AVE AVE,11354
,,,,ADDRESS NUMBER OUT OF RANGE BY MORE THAN 4,1 CROSS ISLAND PLZ # 203F,11422
,,,,NO STREETNAME,,11101
,,,,ADDRESS NUMBER OUT OF RANGE BY MORE THAN 4,7017 AUSTIN ST # 2,11375
,,,,ADDRESS NUMBER OUT OF RANGE BY MORE THAN 4,1066 CENTRAL AVE,11691
,,,,ADDRESS NUMBER OUT OF RANGE BY MORE THAN 4,35 HAMILTON AVE,11231
,,,,ADDRESS NUMBER OUT OF RANGE BY MORE THAN 4,901 DRIGGS AVE,11211
,,,,ADDRESS NUMBER OUT OF RANGE BY MORE THAN 4,445 PARK AVE,11205
,,,,NO HOUSE NUMBER,JFK INTERNATIONAL AIRPORT,11430
,,,,ADDRESS NUMBER OUT OF RANGE BY MORE THAN 4,1930 TROUTMAN ST,11385
,,,,NO STREETNAME,,11201
,,,,ADDRESS NUMBER OUT OF RANGE BY MORE THAN 4,7200 DOUGLASTON PKWY,11362
,,,,ADDRESS NUMBER OUT OF RANGE BY MORE THAN 4,220 WEST ST,11222
,,,,ADDRESS NUMBER OUT OF RANGE BY MORE THAN 4,1 METROTECH CTR N # 10T,11201
,,,,ADDRESS NUMBER OUT OF RANGE BY MORE THAN 4,7025 CYPRESS HILLS ST,11385
,,,,ADDRESS NUMBER OUT OF RANGE BY MORE THAN 4,12 PAERDEGAT AVE N,11236
,,,,ADDRESS NUMBER OUT OF RANGE BY MORE THAN 4,39 MAIN,11354
,,,,NO STREETNAME,,11201
,,,,ADDRESS NUMBER OUT OF RANGE BY MORE THAN 4,2127 NEPTUNE AVE,11224
,,,,ADDRESS NUMBER OUT OF RANGE BY MORE THAN 4,6851 68TH AVE,11385
,,,,ADDRESS NUMBER OUT OF RANGE BY MORE THAN 4,2122 BEEKMAN PL,11354
,,,,NO STREETNAME,,11201
,,,,ADDRESS NUMBER OUT OF RANGE BY MORE THAN 4,2115 38TH AVE,11101
,,,,STREET(S) NOT FOUND; NOT ELIGIBLE FOR SPELLCHECK,1213 AVENUE Z # F16,11235
,,,,ADDRESS NUMBER OUT OF RANGE BY MORE THAN 4,526 47TH ST,11101
,,,,ADDRESS NUMBER OUT OF RANGE BY MORE THAN 4,15017 CROSS ISLAND PKWY,11357
,,,,ADDRESS NUMBER OUT OF RANGE BY MORE THAN 4,1 CROSS ISLAND PLZ # 13333,11422
,,,,NO STREETNAME,,11234
,,,,ADDRESS NUMBER OUT OF RANGE BY MORE THAN 4,29 27 41 AVE,11222
,,,,NO HOUSE NUMBER,JFK INTERNATIONAL AIRPORT,11430
,,,,NO HOUSE NUMBER,PO BOX 541370,11354
,,,,NO STREETNAME,,11357
,,,,NO HOUSE NUMBER,PIER 12,11231
,,,,NO STREETNAME,,11205
,,,,NO STREETNAME,,11209
,,,,NO STREETNAME,,11354
,,,,ADDRESS NUMBER OUT OF RANGE BY MORE THAN 4,3110 WHITESTONE EXPY,11354
,,,,NO STREETNAME,,11385
,,,,STREET(S) NOT FOUND; NOT ELIGIBLE FOR SPELLCHECK,33 38 FARRINGTON FIR 3 APT 3C,11354
,,,,ADDRESS NUMBER OUT OF RANGE BY MORE THAN 4,1 CROSS ISLAND PLZ # 117,11422
,,,,ADDRESS NUMBER OUT OF RANGE BY MORE THAN 4,3706 36TH,11101
,,,,ADDRESS NUMBER OUT OF RANGE BY MORE THAN 4,1524 42ND,11357
,,,,NO STREETNAME,,11375
,,,,ADDRESS NUMBER OUT OF RANGE BY MORE THAN 4,18216 149TH RD,11413
,,,,ADDRESS NUMBER OUT OF RANGE BY MORE THAN 4,2115 38TH AVE,11101
,,,,STREET(S) NOT FOUND; NOT ELIGIBLE FOR SPELLCHECK,90 04-A 70 AV,11375
,,,,ADDRESS NUMBER OUT OF RANGE BY MORE THAN 4,10332 ROCKAWAY BEACH BLVD,11694
,,,,NO STREETNAME,,11224
,,,,ADDRESS NUMBER OUT OF RANGE BY MORE THAN 4,15781 95TH ST,11414
,,,,ADDRESS NUMBER OUT OF RANGE BY MORE THAN 4,16725 ROCKAWAY BLVD,11434
,,,,NO STREETNAME,,11378
,,,,ADDRESS NUMBER OUT OF RANGE BY MORE THAN 4,5400 GRAND AVE,11378
,,,,SPELLCHECK BRIDLE--> BRIELE;ADDRESS NUMBER OUT OF RANGE BY MORE THAN 4,63 BRIDLE LN,11361
,,,,ADDRESS NUMBER OUT OF RANGE BY MORE THAN 4,15615 146TH AVE # 206,11434
,,,,ADDRESS NUMBER OUT OF RANGE BY MORE THAN 4,1875 RALPH AVE,11234
,,,,ADDRESS NUMBER OUT OF RANGE BY MORE THAN 4,15030 132ND AVE # 307,11434
,,,,NO STREETNAME,,11385
,,,,ADDRESS NUMBER OUT OF RANGE BY MORE THAN 4,1 CROSS ISLAND PLZ # 111B,11422
,,,,NO STREETNAME,,11201
,,,,NO HOUSE NUMBER,JFK INTERNATIONAL AIRPORT,11430
,,,,ADDRESS NUMBER OUT OF RANGE BY MORE THAN 4,151 S SERVICE RD # 304,11430
,,,,NO STREETNAME,,11361
,,,,ADDRESS NUMBER OUT OF RANGE BY MORE THAN 4,3916 UNION ST,11354
,,,,ADDRESS NUMBER OUT OF RANGE BY MORE THAN 4,33 17 36 AV,11222
,,,,STREET(S) NOT FOUND; NOT ELIGIBLE FOR SPELLCHECK,42 24 4224 BELL BLVD BLVD,11361
,,,,ADDRESS NUMBER OUT OF RANGE BY MORE THAN 4,3615 VERNON BLVD,11106
,,,,STREET(S) NOT FOUND; NOT ELIGIBLE FOR SPELLCHECK,42 24 ORCH,11101
,,,,NO STREETNAME,,11354
,,,,ADDRESS NUMBER OUT OF RANGE BY MORE THAN 4,145 GUY R BREWER BLVD,11434
,,,,ADDRESS NUMBER OUT OF RANGE BY MORE THAN 4,230 INTL AIRPORT CTR BLVD #210,11413
,,,,NO HOUSE NUMBER,JFK INTERNATIONAL AIRPORT,11430
,,,,STREET(S) NOT FOUND; NOT ELIGIBLE FOR SPELLCHECK,71 51-A AUSTIN,11375
,1011449,162566,,,69TH ST & AVENUE Y,11234
,,,,ADDRESS NUMBER OUT OF RANGE BY MORE THAN 4,1113 NEPTUNE AVE,11224
,,,,ADDRESS NUMBER OUT OF RANGE BY MORE THAN 4,57 48TH ST,11232
,,,,ADDRESS NUMBER OUT OF RANGE BY MORE THAN 4,13915 FRANCIS LEWIS BLVD,11422
,,,,ADDRESS NUMBER OUT OF RANGE BY MORE THAN 4,1800 SEAGIRT BLVD,11691
,,,,NO STREETNAME,,11417
,,,,ADDRESS NUMBER OUT OF RANGE BY MORE THAN 4,6864 FRESH POND RD,11385
,,,,NO STREETNAME,,11223
,,,,SPELLCHECKED WITH NO CHANGE - TEANET,929 TEANET AV FAR R OCKAWAY,11691
,,,,ADDRESS NUMBER OUT OF RANGE BY MORE THAN 4,25469 HORACE HARDING EXPY,11362
,,,,NO STREETNAME,,11205
,,,,NO STREETNAME,,11201
,,,,ADDRESS NUMBER OUT OF RANGE BY MORE THAN 4,619 RAMSEY AVE,11201
,,,,ADDRESS NUMBER OUT OF RANGE BY MORE THAN 4,360 JERICHO TPKE,11692
,,,,ADDRESS NUMBER OUT OF RANGE BY MORE THAN 4,2569 MCDONALD AVE,11223
,,,,NO STREETNAME,,11434
,,,,ADDRESS NUMBER OUT OF RANGE BY MORE THAN 4,160 ASHLAND PL,11201
,,,,ADDRESS NUMBER OUT OF RANGE BY MORE THAN 4,1 CROSS ISLAND PLZ,11422
,,,,SPELLCHECK CARGO--> CORSO;ADDRESS NUMBER OUT OF RANGE BY MORE THAN 4,87 CARGO PLZ # 87,11430
,,,,ADDRESS NUMBER OUT OF RANGE BY MORE THAN 4,14401 SUTTER AVE,11436
,,,,ADDRESS NUMBER OUT OF RANGE BY MORE THAN 4,3570 43RD ST,11101
,,,,NO HOUSE NUMBER,JFK INTERNATIONAL AIRPORT,11430
,,,,ADDRESS NUMBER OUT OF RANGE BY MORE THAN 4,220 INGRAHAM ST # 6A,11237
,,,,SPELLCHECKED WITH NO CHANGE - CENTRALTERMINALAREA,1 CENTRAL TERMINAL AREA,11430
,,,,ADDRESS NUMBER OUT OF RANGE BY MORE THAN 4,570 W COLLEGE AVE,11101
,,,,ADDRESS NUMBER OUT OF RANGE BY MORE THAN 4,14 S SERVICE RD # 2,11430
,,,,STREET(S) NOT FOUND; NOT ELIGIBLE FOR SPELLCHECK,21 07 AV,11101
,,,,ADDRESS NUMBER OUT OF RANGE BY MORE THAN 4,13 42ND ST # 2,11232
,,,,ADDRESS NUMBER OUT OF RANGE BY MORE THAN 4,3500 48TH ST,11101
,,,,ADDRESS NUMBER OUT OF RANGE BY MORE THAN 4,80 WASHINGTON PARK,11205
,,,,NO STREETNAME,,11220
,,,,ADDRESS NUMBER OUT OF RANGE BY MORE THAN 4,70 HAMILTON AVE,11231
,,,,ADDRESS NUMBER OUT OF RANGE BY MORE THAN 4,1 CROSS ISLAND PLZ # 302,11422
,,,,NO STREETNAME,141 FRONT ST,11201
,,,,NO HOUSE NUMBER,JFK INTERNATIONAL AIRPORT,11430
,,,,ADDRESS NUMBER OUT OF RANGE BY MORE THAN 4,530 CONDUIT BLVD,11208
,,,,SPELLCHECKED WITH NO CHANGE - CENTRALTERMINALAREA,1 CENTRAL TERMINAL AREA # 89,11430
,,,,STREETS NOT LONG ENOUGH TO SPELLCHECK,FORT OF E 69TH ST & AVENUE Y,11234
,,,,ADDRESS NUMBER OUT OF RANGE BY MORE THAN 4,6020 59TH PL,11378
,,,,ADDRESS NUMBER OUT OF RANGE BY MORE THAN 4,62 W 47TH ST # 215,11375
,,,,NO STREETNAME,,11361
,,,,ADDRESS NUMBER OUT OF RANGE BY MORE THAN 4,6103 STRICKLAND AVE,11234
,,,,ADDRESS NUMBER OUT OF RANGE BY MORE THAN 4,1350 PAERDEGAT AVE N,11236
,,,,STREET(S) NOT FOUND; NOT ELIGIBLE FOR SPELLCHECK,70 31-A 108,11375
,,,,ADDRESS NUMBER OUT OF RANGE BY MORE THAN 4,543 ALABAMA AV,11354
,,,,ADDRESS NUMBER OUT OF RANGE BY MORE THAN 4,5602 MASPETH AVE,11378
,,,,ADDRESS NUMBER OUT OF RANGE BY MORE THAN 4,6105 PUTNAM AVE # 40,11385
,,,,NO STREETNAME,,11215
,,,,NO STREETNAME,,11105
,,,,ADDRESS NUMBER OUT OF RANGE BY MORE THAN 4,1 CROSS ISLAND PLZ # 126,11422
,,,,ADDRESS NUMBER OUT OF RANGE BY MORE THAN 4,5109 GRAND AVE,11378
,,,,NO STREETNAME,,11234
,,,,NO HOUSE NUMBER,ROCKAWAY BEACH BLVD,11694
,,,,ADDRESS NUMBER OUT OF RANGE BY MORE THAN 4,70 2 31 AVE,11369
,,,,NO STREETNAME,,11223
,,,,ADDRESS NUMBER OUT OF RANGE BY MORE THAN 4,7019 AUSTIN ST,11375
,,,,ADDRESS NUMBER OUT OF RANGE BY MORE THAN 4,14932 132ND ST,11430
,,,,NO STREETNAME,,11360
,,,,STREET(S) NOT FOUND; NOT ELIGIBLE FOR SPELLCHECK,9303 AVENUE L # A,11236
,,,,ADDRESS NUMBER OUT OF RANGE BY MORE THAN 4,33 FOUNTAIN AVE,11208
,,,,ADDRESS NUMBER OUT OF RANGE BY MORE THAN 4,2194 BATH AVE,11214
,,,,ADDRESS NUMBER OUT OF RANGE BY MORE THAN 4,2444 FRANCIS LEWIS BLVD,11357
,,,,STREET(S) NOT FOUND; NOT ELIGIBLE FOR SPELLCHECK,2928 AVENUE P # A,11229
,,,,ADDRESS NUMBER OUT OF RANGE BY MORE THAN 4,324 7TH,11215
,,,,ADDRESS NUMBER OUT OF RANGE BY MORE THAN 4,15020 132ND AVE,11434
,,,,SPELLCHECKED WITH NO CHANGE - DGLSTN,44-23 DGLSTN PKWY,11361
,,,,ADDRESS NUMBER OUT OF RANGE BY MORE THAN 4,88 SPRUCE AVE,11434
,,,,STREET(S) NOT FOUND; NOT ELIGIBLE FOR SPELLCHECK,66 AVENUE U # A,11223
,,,,ADDRESS NUMBER OUT OF RANGE BY MORE THAN 4,1801 130TH ST,11356
,,,,ADDRESS NUMBER OUT OF RANGE BY MORE THAN 4,6769 SCHERMERHORN ST,11201
,,,,ADDRESS NUMBER OUT OF RANGE BY MORE THAN 4,4350 FURMAN AVE,11235
,,,,NO HOUSE NUMBER,JFK INTERNATIONAL AIRPORT,11430
,,,,SPELLCHECKED WITH NO CHANGE - OCEANAVENUE,3060 OCEAN AVE # LA,11235
,,,,ADDRESS NUMBER OUT OF RANGE BY MORE THAN 4,1875 RALPH AVE,11234
,,,,ADDRESS NUMBER OUT OF RANGE BY MORE THAN 4,1875 RALPH AVE,11234
,,,,NO STREETNAME,,11237
,,,,ADDRESS NUMBER OUT OF RANGE BY MORE THAN 4,15344 S CONDUIT AVE,11434
,,,,ADDRESS NUMBER OUT OF RANGE BY MORE THAN 4,312 FEDERAL CIR,11430
,,,,SPELLCHECKED WITH NO CHANGE - BROOKLYNTERMINALMARKET,1 BROOKLYN TERMINAL MARKET,11236
,,,,NO STREETNAME,111 FRONT ST,11201
,,,,NO STREETNAME,115 FRONT ST,11201
,,,,NO STREETNAME,,11234
,,,,NO HOUSE NUMBER,BORO HALL SUBWAY STA,11201
,,,,NO HOUSE NUMBER,PO BOX 690542,11369
,,,,ADDRESS NUMBER OUT OF RANGE BY MORE THAN 4,2177 31ST AVE,11106
,,,,ADDRESS NUMBER OUT OF RANGE BY MORE THAN 4,2570 ULMER ST,11354
,,,,ADDRESS NUMBER OUT OF RANGE BY MORE THAN 4,5810 MAURICE AVE,11378
,,,,STREET(S) NOT FOUND; NOT ELIGIBLE FOR SPELLCHECK,4822 AVENUE N # A,11234
,,,,SPELLCHECKED WITH NO CHANGE - MINEOLA,4 W MINEOLA AVE,11385
,,,,ADDRESS NUMBER OUT OF RANGE BY MORE THAN 4,3241 36TH ST,11106
,,,,ADDRESS NUMBER OUT OF RANGE BY MORE THAN 4,15404 11TH AVE,11357
,,,,ADDRESS NUMBER OUT OF RANGE BY MORE THAN 4,1558 127TH ST # 3,11356
,,,,ADDRESS NUMBER OUT OF RANGE BY MORE THAN 4,1558 127TH ST,11356
,,,,ADDRESS NUMBER OUT OF RANGE BY MORE THAN 4,18445 147TH AVE,11413
,,,,ADDRESS NUMBER OUT OF RANGE BY MORE THAN 4,666 SAPPHIRE,11417
,,,,ADDRESS NUMBER OUT OF RANGE BY MORE THAN 4,40 BOWNE,11354
,,,,ADDRESS NUMBER OUT OF RANGE BY MORE THAN 4,4139 KISSENA BLVD,11355
,,,,NO STREETNAME,,11201
,,,,ADDRESS NUMBER OUT OF RANGE BY MORE THAN 4,1120 26TH RD,11102
,,,,STREET(S) NOT FOUND; NOT ELIGIBLE FOR SPELLCHECK,656 E 133 BRONX,11436
,,,,NO STREETNAME,,11357
,,,,ADDRESS NUMBER OUT OF RANGE BY MORE THAN 4,110 62 DR,11375
,,,,ADDRESS NUMBER OUT OF RANGE BY MORE THAN 4,2606 E 115,11209
,,,,NO HOUSE NUMBER,PO BOX 4338,11104
,,,,ADDRESS NUMBER OUT OF RANGE BY MORE THAN 4,1558 127TH ST,11356
,,,,ADDRESS NUMBER OUT OF RANGE BY MORE THAN 4,16560 BAISLEY BLVD,11434
,,,,ADDRESS NUMBER OUT OF RANGE BY MORE THAN 4,11309 OCEAN BLVD,11375
,,,,NO HOUSE NUMBER,PO BOX 610519,11361
,,,,ADDRESS NUMBER OUT OF RANGE BY MORE THAN 4,1800 HAZEN ST,11370
,,,,ADDRESS NUMBER OUT OF RANGE BY MORE THAN 4,1331 39TH AVE,11354
,,,,STREET(S) NOT FOUND; NOT ELIGIBLE FOR SPELLCHECK,35 22 UN,11354
,,,,ADDRESS NUMBER OUT OF RANGE BY MORE THAN 4,1 CROSS ISLAND PLZ # 111,11422
,,,,SPELLCHECKED WITH NO CHANGE - JFKINTLAIRPORT,53 JFK INTL AIRPORT,11430
,,,,SPELLCHECK JEFRY--> JEFFREY;ADDRESS NUMBER OUT OF RANGE BY MORE THAN 4,37 JEFRY LN,11378
,,,,NO HOUSE NUMBER,PO BOX 290708,11229
,,,,ADDRESS NUMBER OUT OF RANGE BY MORE THAN 4,2510 33RD ST,11102
,,,,ADDRESS NUMBER OUT OF RANGE BY MORE THAN 4,5202 GRAND AVE # 13,11378
,,,,NO STREETNAME,,11223
,,,,NO STREETNAME,,11201
,,,,ADDRESS NUMBER OUT OF RANGE BY MORE THAN 4,1 METROTECH CTR N,11201
,,,,STREET(S) NOT FOUND; NOT ELIGIBLE FOR SPELLCHECK,31 71 30 AST,11101
,,,,STREET(S) NOT FOUND; NOT ELIGIBLE FOR SPELLCHECK,6702 20 AV 14 ST,11215
,,,,ADDRESS NUMBER OUT OF RANGE BY MORE THAN 4,1 CROSS ISLAND PLZ # 215,11422
,,,,ADDRESS NUMBER OUT OF RANGE BY MORE THAN 4,15018 134TH ST,11430
,,,,ADDRESS NUMBER OUT OF RANGE BY MORE THAN 4,7200 DOUGLASTON PKWY,11362
,,,,ADDRESS NUMBER OUT OF RANGE BY MORE THAN 4,8967 162ND ST,11201
,,,,NO STREETNAME,,11201
,,,,ADDRESS NUMBER OUT OF RANGE BY MORE THAN 4,1113 NEPTUNE AVE,11224
,,,,ADDRESS NUMBER OUT OF RANGE BY MORE THAN 4,6465 MYRTLE AVE,11385
,,,,NO STREETNAME,,11223
,,,,ADDRESS NUMBER OUT OF RANGE BY MORE THAN 4,1406 E 64TH ST,11234
,,,,ADDRESS NUMBER OUT OF RANGE BY MORE THAN 4,50 STARR,11378
,,,,NO STREETNAME,,11357
,,,,NO STREETNAME,,11236
,,,,ADDRESS NUMBER OUT OF RANGE BY MORE THAN 4,1 CROSS ISLAND PLZ # 13333,11422
,,,,SPELLCHECKED WITH NO CHANGE - SHILLING,39 SHILLING RD,11236
,,,,STREET(S) NOT FOUND; NOT ELIGIBLE FOR SPELLCHECK,165 AVENUE U # A,11223
,,,,ADDRESS NUMBER OUT OF RANGE BY MORE THAN 4,74 08 ELIOT AV,11101
,,,,ADDRESS NUMBER OUT OF RANGE BY MORE THAN 4,95-17 248TH ST,11375
,,,,ADDRESS NUMBER OUT OF RANGE BY MORE THAN 4,166 DENTON AVE,11434
,,,,ADDRESS NUMBER OUT OF RANGE BY MORE THAN 4,123 9 18 AVE,11356
,,,,ADDRESS NUMBER OUT OF RANGE BY MORE THAN 4,5105 FLUSHING AVE # 2,11378
,,,,ADDRESS NUMBER OUT OF RANGE BY MORE THAN 4,7601 19TH RD,11102
,,,,ADDRESS NUMBER OUT OF RANGE BY MORE THAN 4,1152 ELTON ST,11239
,,,,ADDRESS NUMBER OUT OF RANGE BY MORE THAN 4,1 CROSS ISLAND PLZ # 229,11422
,,,,ADDRESS NUMBER OUT OF RANGE BY MORE THAN 4,21 44TH DR,11101
,,,,ADDRESS NUMBER OUT OF RANGE BY MORE THAN 4,1103 METROPOLITAN AVE,11375
,,,,NO STREETNAME,,11378
,,,,STREET(S) NOT FOUND; NOT ELIGIBLE FOR SPELLCHECK,72 01 7201 AUSTIN ST,11375
,,,,NO HOUSE NUMBER,OLD ROCKAWAY BLVD # 73,11430
,,,,STREET(S) NOT FOUND; NOT ELIGIBLE FOR SPELLCHECK,36 26-A UN,11354
,,,,ADDRESS NUMBER OUT OF RANGE BY MORE THAN 4,1050 COMMERCE AVE,11211
,,,,ADDRESS NUMBER OUT OF RANGE BY MORE THAN 4,16801 ROCKAWAY BLVD,11434
,,,,NO STREETNAME,,11209
,,,,ADDRESS NUMBER OUT OF RANGE BY MORE THAN 4,880 ALABAMA AVE,11207
,,,,ADDRESS NUMBER OUT OF RANGE BY MORE THAN 4,15429 WHITESTONE AVE,11357
,,,,ADDRESS NUMBER OUT OF RANGE BY MORE THAN 4,3140 COLLEGE POINT BLVD,11354
,,,,ADDRESS NUMBER OUT OF RANGE BY MORE THAN 4,3814 30TH ST # E,11101
,,,,ADDRESS NUMBER OUT OF RANGE BY MORE THAN 4,13105 23 AVE,11356
,,,,ADDRESS NUMBER OUT OF RANGE BY MORE THAN 4,1 CROSS ISLAND PLZ # 315,11422
,,,,NO STREETNAME,,11223
,,,,ADDRESS NUMBER OUT OF RANGE BY MORE THAN 4,457 26TH AVE,11102
,,,,ADDRESS NUMBER OUT OF RANGE BY MORE THAN 4,2518 9TH ST,11102
,,,,NO STREETNAME,,11209
,,,,ADDRESS NUMBER OUT OF RANGE BY MORE THAN 4,3201 31ST ST,11106
,,,,ADDRESS NUMBER OUT OF RANGE BY MORE THAN 4,5950 56TH RD,11378
,,,,NO STREETNAME,,11354
,,,,NO STREETNAME,,11224
,,,,ADDRESS NUMBER OUT OF RANGE BY MORE THAN 4,30 W 8TH ST # 81,11370
,,,,NO HOUSE NUMBER,PO BOX 604684,11360
,,,,NO STREETNAME,,11235
,,,,STREET(S) NOT FOUND; NOT ELIGIBLE FOR SPELLCHECK,198 AVENUE U # A,11223
,,,,ADDRESS NUMBER OUT OF RANGE BY MORE THAN 4,7211 AUSTIN ST # 281,11375
,,,,ADDRESS NUMBER OUT OF RANGE BY MORE THAN 4,344 MAUJER,11385
,,,,ADDRESS NUMBER OUT OF RANGE BY MORE THAN 4,1609 REDFERN AVE,11691
,,,,SPELLCHECKED WITH NO CHANGE - JFKINTLAIRPORT,9 JFK INTL AIRPORT # 250,11430
,,,,NO HOUSE NUMBER,BROADWAY,11206
,,,,SPELLCHECKED WITH NO CHANGE - HANGAR,75 N HANGAR RD # 232,11430
,,,,NO STREETNAME,,11201
,,,,ADDRESS NUMBER OUT OF RANGE BY MORE THAN 4,1 CROSS ISLAND PLZ # 304,11422
,,,,STREET(S) NOT FOUND; NOT ELIGIBLE FOR SPELLCHECK,41 1 A 48,11104
,,,,ADDRESS NUMBER OUT OF RANGE BY MORE THAN 4,5105 FLUSHING AVE # 2,11378
,,,,ADDRESS NUMBER OUT OF RANGE BY MORE THAN 4,7200 DOUGLASTON PKWY,11362
,,,,ADDRESS NUMBER OUT OF RANGE BY MORE THAN 4,14467 NORTHERN BLVD,11354
,,,,SPELLCHECKED WITH NO CHANGE - INTERNATLAIRPORTCENTER,23079 INTERNATL AIRPORT CTR BL,11413
,,,,SPELLCHECKED WITH NO CHANGE - HANGAR,75 N HANGAR RD # 230,11430
,,,,ADDRESS NUMBER OUT OF RANGE BY MORE THAN 4,5674 58TH PL,11378
,,,,ADDRESS NUMBER OUT OF RANGE BY MORE THAN 4,14A 20TH ST,11232
,,,,NO STREETNAME,,11201
,,,,NO HOUSE NUMBER,TERMINAL 8,11430
,,,,NO HOUSE NUMBER,PO BOX 90343,11209
,,,,ADDRESS NUMBER OUT OF RANGE BY MORE THAN 4,260 N BOUNDARY RD,11430
,,,,ADDRESS NUMBER OUT OF RANGE BY MORE THAN 4,151 S SERVICE RD # 1,11430
,,,,ADDRESS NUMBER OUT OF RANGE BY MORE THAN 4,25 KNICKERBOCKER AV,11385
,,,,ADDRESS NUMBER OUT OF RANGE BY MORE THAN 4,7015 AUSTIN ST # 2,11375
,,,,ADDRESS NUMBER OUT OF RANGE BY MORE THAN 4,16801 ROCKAWAY BLVD # 203,11434
,,,,ADDRESS NUMBER OUT OF RANGE BY MORE THAN 4,3064 REVIEW AVE,11101
,,,,ADDRESS NUMBER OUT OF RANGE BY MORE THAN 4,151 S SERVICE RD # 377,11430
,,,,SPELLCHECKED WITH NO CHANGE - CENTRALTERMINALAREA,4 CENTRAL TERMINAL AREA,11430
,,,,ADDRESS NUMBER OUT OF RANGE BY MORE THAN 4,61 186TH,11357
,,,,NO STREETNAME,,11362
,,,,NO STREETNAME,,11101
,,,,SPELLCHECKED WITH NO CHANGE - EISENHOWER,5 EISENHOWER AVE,11215
,,,,ADDRESS NUMBER OUT OF RANGE BY MORE THAN 4,1 CROSS ISLAND PLZ # 317,11422
,,,,NO STREETNAME,,11201
,,,,ADDRESS NUMBER OUT OF RANGE BY MORE THAN 4,15167 N CONDUIT AVE,11434
,,,,ADDRESS NUMBER OUT OF RANGE BY MORE THAN 4,2342 W 7TH ST,11223
,,,,SPELLCHECKED WITH NO CHANGE - INTERNATLAIRPORTCENTER,23039 INTERNATL AIRPORT CTR BL,11413
,,,,ADDRESS NUMBER OUT OF RANGE BY MORE THAN 4,17725 ROCKAWAY BLVD,11434
,,,,ADDRESS NUMBER OUT OF RANGE BY MORE THAN 4,5750 FLUSHING AVE,11378
,,,,NO STREETNAME,,11361
,,,,ADDRESS NUMBER OUT OF RANGE BY MORE THAN 4,14720 184TH ST,11413
,,,,ADDRESS NUMBER OUT OF RANGE BY MORE THAN 4,423 AVENUE X,11223
,,,,ADDRESS NUMBER OUT OF RANGE BY MORE THAN 4,18216 149TH RD,11413
,,,,NO STREETNAME,84 FRONT ST,11201
,,,,STREETS NOT LONG ENOUGH TO SPELLCHECK,5903 1/2 AVENUE N,11234
,,,,ADDRESS NUMBER OUT OF RANGE BY MORE THAN 4,20 J ST # 1002,11201
,,,,ADDRESS NUMBER OUT OF RANGE BY MORE THAN 4,151 S SERVICE RD # 336,11430
,,,,SPELLCHECKED WITH NO CHANGE - BROOKLYNTERMINALMARKET,9 BROOKLYN TERMINAL MARKET,11236
,,,,ADDRESS NUMBER OUT OF RANGE BY MORE THAN 4,86 155TH AVE # 29,11414
,,,,NO HOUSE NUMBER,JFK INTERNATIONAL AIRPORT,11430
,,,,SPELLCHECKED WITH NO CHANGE - CENTRALTERMINALAREA,1 CENTRAL TERMINAL AREA,11430
,,,,NO HOUSE NUMBER,JFK INTERNATIONAL AIRPORT,11430
,,,,ADDRESS NUMBER OUT OF RANGE BY MORE THAN 4,23 WATERS EDGE DR # 50,11360
,,,,ADDRESS NUMBER OUT OF RANGE BY MORE THAN 4,58 256TH ST,11362
,,,,SPELLCHECKED WITH NO CHANGE - QUEENANNE,1415 QUEEN ANNE RD,11375
,,,,ADDRESS NUMBER OUT OF RANGE BY MORE THAN 4,15040 183RD ST # 107,11413
,,,,ADDRESS NUMBER OUT OF RANGE BY MORE THAN 4,113 20 41 AVE,11354
,,,,ADDRESS NUMBER OUT OF RANGE BY MORE THAN 4,16868 9TH AVE,11357
,,,,ADDRESS NUMBER OUT OF RANGE BY MORE THAN 4,214 20 AVE,11361
,,,,ADDRESS NUMBER OUT OF RANGE BY MORE THAN 4,1416 CORNAGA AVE,11691
,,,,NO STREETNAME,,11201
,,,,NO STREETNAME,,11101
,,,,NO HOUSE NUMBER,PO BOX 604637,11360
,,,,ADDRESS NUMBER OUT OF RANGE BY MORE THAN 4,1465 UTICA AVE,11234
,,,,NO HOUSE NUMBER,JFK INTERNATIONAL AIRPORT,11430
,,,,ADDRESS NUMBER OUT OF RANGE BY MORE THAN 4,159 ROCKAWAY BLVD,11430
,,,,ADDRESS NUMBER OUT OF RANGE BY MORE THAN 4,1 PIERREPONT PLZ # 16,11201
,,,,ADDRESS NUMBER OUT OF RANGE BY MORE THAN 4,51 20TH ST,11232
,,,,ADDRESS NUMBER OUT OF RANGE BY MORE THAN 4,8311 S CONDUIT AVE,11414
,,,,NO STREETNAME,,11356
,,,,ADDRESS NUMBER OUT OF RANGE BY MORE THAN 4,1485 MYRTLE AVE,11385
,,,,ADDRESS NUMBER OUT OF RANGE BY MORE THAN 4,330 N HENRY ST,11101
,,,,NO STREETNAME,,11215
,,,,NO STREETNAME,,11223
,,,,ADDRESS NUMBER OUT OF RANGE BY MORE THAN 4,5300 KINGS HWY,11234
,,,,NO STREETNAME,,11229
,,,,NO HOUSE NUMBER,JFK INTERNATIONAL AIRPORT,11430
,,,,ADDRESS NUMBER OUT OF RANGE BY MORE THAN 4,1047 AVA RD,11201
,,,,NO STREETNAME,,11215
,,,,ADDRESS NUMBER OUT OF RANGE BY MORE THAN 4,136 38TH RD,11363
,,,,STREET(S) NOT FOUND; NOT ELIGIBLE FOR SPELLCHECK,112 ROUTE 109,11201
,,,,NO STREETNAME,,11231
,,,,NO STREETNAME,,11201
,,,,ADDRESS NUMBER OUT OF RANGE BY MORE THAN 4,125 DENTON AVE,11211
,,,,ADDRESS NUMBER OUT OF RANGE BY MORE THAN 4,132-47 133RD AVE,11355
,,,,STREET(S) NOT FOUND; NOT ELIGIBLE FOR SPELLCHECK,370 AVENUE U # C,11223
,,,,ADDRESS NUMBER OUT OF RANGE BY MORE THAN 4,18220 150TH RD,11413
,,,,SPELLCHECKED WITH NO CHANGE - KISSENABOULEVARD,4332 KISSENA BLVD # LA,11355
,,,,ADDRESS NUMBER OUT OF RANGE BY MORE THAN 4,2876 NEPTUNE AVE,11224
,,,,ADDRESS NUMBER OUT OF RANGE BY MORE THAN 4,18221 150TH DR,11413
,,,,NO HOUSE NUMBER,JFK INTERNATIONAL AIRPORT,11430
,,,,SPELLCHECKED WITH NO CHANGE - SAWMILLRIVER,1291 SAW MILL RIVER RD,11414
,,,,NO STREETNAME,77 FRONT ST,11201
,,,,STREET(S) NOT FOUND; NOT ELIGIBLE FOR SPELLCHECK,1311 AVENUE U # D,11229
,,,,ADDRESS NUMBER OUT OF RANGE BY MORE THAN 4,25301 ROCKAWAY BLVD,11422
,,,,ADDRESS NUMBER OUT OF RANGE BY MORE THAN 4,3 AVE A,11211
,,,,NO STREETNAME,,11234
,,,,STREET(S) NOT FOUND; NOT ELIGIBLE FOR SPELLCHECK,35 20 UN,11354
,,,,NO HOUSE NUMBER,PO BOX 350201,11235
,,,,NO STREETNAME,,11101
,,,,ADDRESS NUMBER OUT OF RANGE BY MORE THAN 4,1111 44TH AVE # 1,11101
,,,,ADDRESS NUMBER OUT OF RANGE BY MORE THAN 4,952 FLUSHING AVE,11385
,,,,ADDRESS NUMBER OUT OF RANGE BY MORE THAN 4,13662 39TH AVE,11354
,,,,ADDRESS NUMBER OUT OF RANGE BY MORE THAN 4,12015 31ST AVE,11354
,,,,ADDRESS NUMBER OUT OF RANGE BY MORE THAN 4,7211 AUSTIN ST,11375
,,,,ADDRESS NUMBER OUT OF RANGE BY MORE THAN 4,34 COLLEGE POINT BLVD,11354
,,,,ADDRESS NUMBER OUT OF RANGE BY MORE THAN 4,21 PROVOST ST,11101
,,,,SPELLCHECKED WITH NO CHANGE - OLDCOUNTRY,550 OLD COUNTRY RD,11201
,,,,ADDRESS NUMBER OUT OF RANGE BY MORE THAN 4,485 47TH RD,11101
,,,,STREET(S) NOT FOUND; NOT ELIGIBLE FOR SPELLCHECK,9202 AVENUE L # A,11236
,,,,ADDRESS NUMBER OUT OF RANGE BY MORE THAN 4,25301 ROCKAWAY BLVD,11422
,,,,ADDRESS NUMBER OUT OF RANGE BY MORE THAN 4,17725 ROCKAWAY BLVD # 212,11434
,,,,ADDRESS NUMBER OUT OF RANGE BY MORE THAN 4,7402 FOREST AVE,11385
,,,,ADDRESS NUMBER OUT OF RANGE BY MORE THAN 4,1 PIERREPONT PLZ # 1F,11201
,,,,NO HOUSE NUMBER,PO BOX 751123,11375
,,,,ADDRESS NUMBER OUT OF RANGE BY MORE THAN 4,6708 INGRAM ST,11375
,,,,ADDRESS NUMBER OUT OF RANGE BY MORE THAN 4,7211 AUSTIN ST,11375
,,,,ADDRESS NUMBER OUT OF RANGE BY MORE THAN 4,5602 MASPETH AVE,11378
,,,,NO STREETNAME,,11209
,,,,ADDRESS NUMBER OUT OF RANGE BY MORE THAN 4,5502 48TH ST,11378
,,,,SPELLCHECKED WITH NO CHANGE - INTERNATLARPRT,23059 INTERNATL ARPRT CTR #190,11413
,,,,SPELLCHECKED WITH NO CHANGE - UMGMT,6910 AVENUE U # MGMT,11234
,,,,ADDRESS NUMBER OUT OF RANGE BY MORE THAN 4,25 30 39 AV,11101
,,,,STREET(S) NOT FOUND; NOT ELIGIBLE FOR SPELLCHECK,33 25-A PRINCE,11354
,,,,ADDRESS NUMBER OUT OF RANGE BY MORE THAN 4,420 LAKE AVE,11361
,,,,ADDRESS NUMBER OUT OF RANGE BY MORE THAN 4,16801 ROCKAWAY BLVD # 201,11434
,,,,ADDRESS NUMBER OUT OF RANGE BY MORE THAN 4,923 KINGS HWY,11223
,,,,NO STREETNAME,,11357
,,,,ADDRESS NUMBER OUT OF RANGE BY MORE THAN 4,3527 7TH AVE,11232
,,,,ADDRESS NUMBER OUT OF RANGE BY MORE THAN 4,8400 72ND DR # 3,11385
,,,,ADDRESS NUMBER OUT OF RANGE BY MORE THAN 4,24 ROCK,11385
,,,,NO STREETNAME,,11375
,,,,ADDRESS NUMBER OUT OF RANGE BY MORE THAN 4,15615 146TH AVE,11434
,,,,ADDRESS NUMBER OUT OF RANGE BY MORE THAN 4,96 MERRICK RD,11231
,,,,ADDRESS NUMBER OUT OF RANGE BY MORE THAN 4,11 46 RD,11101
,,,,ADDRESS NUMBER OUT OF RANGE BY MORE THAN 4,469 E 156,11235
,,,,NO STREETNAME,,11201
,,,,STREET(S) NOT FOUND; NOT ELIGIBLE FOR SPELLCHECK,150 47B 14 AVE,11414
,,,,ADDRESS NUMBER OUT OF RANGE BY MORE THAN 4,15030 132ND AVE # 228,11434
,,,,ADDRESS NUMBER OUT OF RANGE BY MORE THAN 4,15615 146TH AVE # 206,11434
,,,,SPELLCHECKED WITH NO CHANGE - INTERNATLARPRT,23059 INTERNATL ARPRT CTR #101,11413
,,,,STREET(S) NOT FOUND; NOT ELIGIBLE FOR SPELLCHECK,815 W KERR,11222
,,,,NO HOUSE NUMBER,PO BOX 750650,11375
,,,,ADDRESS NUMBER OUT OF RANGE BY MORE THAN 4,3215 BEACH CHANNEL DR,11691
,,,,ADDRESS NUMBER OUT OF RANGE BY MORE THAN 4,40 38TH RD,11363
,,,,STREET(S) NOT FOUND; NOT ELIGIBLE FOR SPELLCHECK,12 44A CLINTONVILLE,11357
,,,,ADDRESS NUMBER OUT OF RANGE BY MORE THAN 4,40 E 4TH ST,11370
,,,,NO STREETNAME,,11375
,,,,ADDRESS NUMBER OUT OF RANGE BY MORE THAN 4,160 WALLABOUT,11354
,,,,ADDRESS NUMBER OUT OF RANGE BY MORE THAN 4,34-7-34-19 CORPORAL KENNEDY ST,11361
,,,,NO STREETNAME,,11201
,,,,NO STREETNAME,,11434
,,,,STREET(S) NOT FOUND; NOT ELIGIBLE FOR SPELLCHECK,1368 E89 STREET,11236
,,,,NO HOUSE NUMBER,PROSPECT PARK,11215
,,,,NO STREETNAME,,11214
,,,,NO STREETNAME,66 FRONT ST,11201
,,,,NO STREETNAME,80 FRONT ST,11201
,,,,ADDRESS NUMBER OUT OF RANGE BY MORE THAN 4,9941 FORT HAMILTON PKWY,11209
,,,,ADDRESS NUMBER OUT OF RANGE BY MORE THAN 4,7 KNICKERBOCKER AVE,11385
,,,,NO STREETNAME,,11211
,,,,ADDRESS NUMBER OUT OF RANGE BY MORE THAN 4,18 20TH ST,11232
,,,,NO STREETNAME,,11201
,,,,ADDRESS NUMBER OUT OF RANGE BY MORE THAN 4,6020 59TH PL,11378
,,,,NO STREETNAME,,11101
,,,,ADDRESS NUMBER OUT OF RANGE BY MORE THAN 4,147 W 21ST,11201
,,,,NO STREETNAME,,11211
,,,,ADDRESS NUMBER OUT OF RANGE BY MORE THAN 4,2806 OCEAN AV,11363
,,,,NO STREETNAME,,11228
,,,,NO STREETNAME,,11235
,,,,NO HOUSE NUMBER,PO BOX 90732,11209
,,,,NO HOUSE NUMBER,PO BOX 5669,11105
,,,,SPELLCHECKED WITH NO CHANGE - CENTRALTERMINALAREA,1 CENTRAL TERMINAL AREA,11430
,,,,ADDRESS NUMBER OUT OF RANGE BY MORE THAN 4,236 TROUTMAN ST,11378
,,,,ADDRESS NUMBER OUT OF RANGE BY MORE THAN 4,136 41 AVE,11355
,,,,ADDRESS NUMBER OUT OF RANGE BY MORE THAN 4,3 SEWARD DR,11222
,,,,NO STREETNAME,,11201
,,,,ADDRESS NUMBER OUT OF RANGE BY MORE THAN 4,13761 NORTHERN BLVD,11354
,,,,NO STREETNAME,,11430
,,,,ADDRESS NUMBER OUT OF RANGE BY MORE THAN 4,8400 72ND DR # 1,11385
,,,,ADDRESS NUMBER OUT OF RANGE BY MORE THAN 4,280 BLEECKER,11385
,,,,STREET(S) NOT FOUND; NOT ELIGIBLE FOR SPELLCHECK,370 AVENUE U # B,11223
,,,,ADDRESS NUMBER OUT OF RANGE BY MORE THAN 4,10 TENNIS PL,11375
,,,,NO HOUSE NUMBER,PO BOX 230515,11223
,,,,STREETS DO NOT INTERSECT,FLATBUSH AVE & FULTON AVE,11201
,,,,ADDRESS NUMBER OUT OF RANGE BY MORE THAN 4,5200 2ND ST,11101
,,,,ADDRESS NUMBER OUT OF RANGE BY MORE THAN 4,3601 QUIN RD,11234
,,,,NO STREETNAME,,11375
,,,,STREETS NOT LONG ENOUGH TO SPELLCHECK,49TH AVE & EAST RIV,11101
,,,,ADDRESS NUMBER OUT OF RANGE BY MORE THAN 4,409 47TH RD,11101
,,,,ADDRESS NUMBER OUT OF RANGE BY MORE THAN 4,13 42ND ST # 7,11232
,,,,NO STREETNAME,,11355
,,,,NO HOUSE NUMBER,FRANCIS LEWIS BLVD,11362
,,,,STREET(S) NOT FOUND; NOT ELIGIBLE FOR SPELLCHECK,66 1B 110,11375
,,,,ADDRESS NUMBER OUT OF RANGE BY MORE THAN 4,6212 60TH PL,11385
,,,,STREET(S) NOT FOUND; NOT ELIGIBLE FOR SPELLCHECK,1407 AVE Z TMB 535,11235
,,,,ADDRESS NUMBER OUT OF RANGE BY MORE THAN 4,5436 FLUSHING AVE,11378
,,,,ADDRESS NUMBER OUT OF RANGE BY MORE THAN 4,2711 4TH AVE,11232
,,,,ADDRESS NUMBER OUT OF RANGE BY MORE THAN 4,1815 45TH ST # 112,11105
,,,,ADDRESS NUMBER OUT OF RANGE BY MORE THAN 4,1815 45TH ST,11105
,,,,ADDRESS NUMBER OUT OF RANGE BY MORE THAN 4,4115 AVENUE M,11234
,,,,ADDRESS NUMBER OUT OF RANGE BY MORE THAN 4,3260 FLATBUSH AVE,11234
,,,,NO HOUSE NUMBER,BLDG 1 FORT TILDEN,11691
,,,,NO STREETNAME,,11691
,,,,SPELLCHECKED WITH NO CHANGE - INTERNATIONALAIRPORT,230 79 INTERNATIONAL AIRPORT,11413
,,,,NO STREETNAME,,11354
,,,,NO HOUSE NUMBER,PO BOX 750852,11375
,,,,ADDRESS NUMBER OUT OF RANGE BY MORE THAN 4,140-03 140TH AVE,11434
,,,,NO STREETNAME,,11208
,,,,ADDRESS NUMBER OUT OF RANGE BY MORE THAN 4,14467 NORTHERN BLVD,11354
,,,,ADDRESS NUMBER OUT OF RANGE BY MORE THAN 4,54 THAMES,11385
,,,,ADDRESS NUMBER OUT OF RANGE BY MORE THAN 4,5606 PRESTON CT,11234
,,,,NO STREETNAME,,11211
,,,,ADDRESS NUMBER OUT OF RANGE BY MORE THAN 4,7015 AUSTIN ST # 3,11375
,,,,NO HOUSE NUMBER,PO BOX 60069,11206
,,,,ADDRESS NUMBER OUT OF RANGE BY MORE THAN 4,1135 HARRIS AVE,11691
,,,,ADDRESS NUMBER OUT OF RANGE BY MORE THAN 4,421 VAN BUREN ST,11231
,,,,NO STREETNAME,,11434
,,,,ADDRESS NUMBER OUT OF RANGE BY MORE THAN 4,5542 69TH PL,11378
,,,,ADDRESS NUMBER OUT OF RANGE BY MORE THAN 4,29 9 DITMARS BLVD,11105
,,,,ADDRESS NUMBER OUT OF RANGE BY MORE THAN 4,1 CONTINENTAL AVE,11375
,,,,ADDRESS NUMBER OUT OF RANGE BY MORE THAN 4,11 44 DR,11101
,,,,NO STREETNAME,,11101
,,,,SPELLCHECKED WITH NO CHANGE - CUTTERMILL,98 CUTTERMILL RD,11211
,,,,NO STREETNAME,,11357
,,,,NO STREETNAME,75 FRONT ST,11201
,,,,NO STREETNAME,77 FRONT ST # 2,11201
,,,,ADDRESS NUMBER OUT OF RANGE BY MORE THAN 4,8813 76TH AVE,11385
,,,,NO STREETNAME,,11385
,,,,ADDRESS NUMBER OUT OF RANGE BY MORE THAN 4,7945 77TH AVE,11385
,,,,ADDRESS NUMBER OUT OF RANGE BY MORE THAN 4,1 CROSS ISLAND PLZ # 209,11422
,,,,NO STREETNAME,,11209
,,,,ADDRESS NUMBER OUT OF RANGE BY MORE THAN 4,18216 149TH RD # 238,11413
,,,,NO STREETNAME,,11206
,,,,NO HOUSE NUMBER,JFK INTERNATIONAL AIRPORT,11430
,,,,SPELLCHECKED WITH NO CHANGE - BROOKLYNTERMINALMARKET,93 BROOKLYN TERMINAL MARKET,11236
,,,,ADDRESS NUMBER OUT OF RANGE BY MORE THAN 4,261 N BOUNDARY RD # 213,11430
,,,,SPELLCHECKED WITH NO CHANGE - JFKAIRPORT,1 J F K AIRPORT,11430
,,,,NO HOUSE NUMBER,JFK INTERNATIONAL AIRPORT,11430
,,,,NO STREETNAME,,11201
,,,,ADDRESS NUMBER OUT OF RANGE BY MORE THAN 4,2910 120TH ST,11354
,,,,ADDRESS NUMBER OUT OF RANGE BY MORE THAN 4,4640 METROPOLITAN AVE,11385
,,,,NO STREETNAME,,11215
,,,,ADDRESS NUMBER OUT OF RANGE BY MORE THAN 4,243 JERICHO TPKE,11223
,,,,ADDRESS NUMBER OUT OF RANGE BY MORE THAN 4,445 PARK AVE,11205
,,,,NO STREETNAME,,11375
,,,,NO STREETNAME,,11207
,,,,ADDRESS NUMBER OUT OF RANGE BY MORE THAN 4,53309 COLLEGE POINT BLVD,11355
,,,,STREET(S) NOT FOUND; NOT ELIGIBLE FOR SPELLCHECK,155 ROUTE 210,11208
,,,,NO STREETNAME,149 FRONT ST,11201
,,,,ADDRESS NUMBER OUT OF RANGE BY MORE THAN 4,5202 GRAND AVE # 2,11378
,,,,ADDRESS NUMBER OUT OF RANGE BY MORE THAN 4,595 BEDFORD AVE,11211
,,,,STREET(S) NOT FOUND; NOT ELIGIBLE FOR SPELLCHECK,41 10-A MAIN,11354
,,,,STREETS NOT LONG ENOUGH TO SPELLCHECK,FT OF 48 & 1 AV,11215
,,,,STREET(S) NOT FOUND; NOT ELIGIBLE FOR SPELLCHECK,56 36 5636 59TH ST,11378
,,,,ADDRESS NUMBER OUT OF RANGE BY MORE THAN 4,5601 PRESTON CT,11234
,,,,NO STREETNAME,,11220
,,,,NO STREETNAME,,11354
,,,,NO STREETNAME,,11201
,,,,NO STREETNAME,,11101
,,,,ADDRESS NUMBER OUT OF RANGE BY MORE THAN 4,1412 AVE J,11363
,,,,ADDRESS NUMBER OUT OF RANGE BY MORE THAN 4,345 PARK AVE,11205
,,,,NO STREETNAME,,11215
,,,,ADDRESS NUMBER OUT OF RANGE BY MORE THAN 4,37 1 CRES,11101
,,,,NO STREETNAME,57 FRONT ST # 2,11201
,,,,ADDRESS NUMBER OUT OF RANGE BY MORE THAN 4,32 ADAMS ST,11201
,,,,NO STREETNAME,75 FRONT ST,11201
,,,,ADDRESS NUMBER OUT OF RANGE BY MORE THAN 4,11050 HORACE HARDING EXPY,11375
,,,,ADDRESS NUMBER OUT OF RANGE BY MORE THAN 4,10702 GRAND CENTRAL PKWY,11369
,,,,ADDRESS NUMBER OUT OF RANGE BY MORE THAN 4,10801 GRAND CENTRAL PKWY,11369
,,,,SPELLCHECKED WITH NO CHANGE - KISSENABOULEVARD,4344 KISSENA BLVD # LA,11355
,,,,ADDRESS NUMBER OUT OF RANGE BY MORE THAN 4,5715 GRAND AVE,11378
,,,,ADDRESS NUMBER OUT OF RANGE BY MORE THAN 4,5202 GRAND AVE,11378
,,,,ADDRESS NUMBER OUT OF RANGE BY MORE THAN 4,2650 MCDONALD AV,11224
,,,,NO STREETNAME,,11201
,,,,ADDRESS NUMBER OUT OF RANGE BY MORE THAN 4,21 -15 BRIDGE PLAZA N,11101
,,,,ADDRESS NUMBER OUT OF RANGE BY MORE THAN 4,2115 QUEENS PLZ N,11101
,,,,NO STREETNAME,,11235
,,,,NO STREETNAME,218 FRONT ST,11201
,,,,NO STREETNAME,,11236
,,,,ADDRESS NUMBER OUT OF RANGE BY MORE THAN 4,22216 S CONDUIT AVE,11413
,,,,STREETS NOT LONG ENOUGH TO SPELLCHECK,117 1/2 CALYER ST,11222
,,,,ADDRESS NUMBER OUT OF RANGE BY MORE THAN 4,5830 MAURICE AVE,11378
,,,,ADDRESS NUMBER OUT OF RANGE BY MORE THAN 4,22216 S CONDUIT AVE,11413
,,,,NO STREETNAME,,11236
,,,,ADDRESS NUMBER OUT OF RANGE BY MORE THAN 4,15074 6TH AVE,11357
,,,,ADDRESS NUMBER OUT OF RANGE BY MORE THAN 4,2180 CRESCENT ST,11105
,,,,ADDRESS NUMBER OUT OF RANGE BY MORE THAN 4,3507 23RD AVE,11105
,,,,SPELLCHECKED WITH NO CHANGE - ACRESMALL,1069 GREEN ACRES MALL,11201
,,,,ADDRESS NUMBER OUT OF RANGE BY MORE THAN 4,449 KINGS HWY # E,11223
,,,,NO STREETNAME,,11355
,,,,NO STREETNAME,,11375
,,,,NO STREETNAME,,11354
,,,,NO STREETNAME,,11354
,,,,ADDRESS NUMBER OUT OF RANGE BY MORE THAN 4,2126 E 69,11385
,,,,STREET(S) NOT FOUND; NOT ELIGIBLE FOR SPELLCHECK,181 N I1TH,11201
,,,,ADDRESS NUMBER OUT OF RANGE BY MORE THAN 4,5415 35TH ST,11101
,,,,STREETS DO NOT INTERSECT,5 AV & 25,11215
,,,,NO STREETNAME,,11215
,,,,ADDRESS NUMBER OUT OF RANGE BY MORE THAN 4,146 BEACH WAY,11692
,,,,ADDRESS NUMBER OUT OF RANGE BY MORE THAN 4,1 CROSS ISLAND PLZ # 203C,11422
,,,,SPELLCHECKED WITH NO CHANGE - BECHSTEIN,5 BECHSTEIN DR,11211
,,,,NO STREETNAME,,11209
,,,,NO HOUSE NUMBER,JFK INTERNATIONAL AIRPORT,11430
,,,,ADDRESS NUMBER OUT OF RANGE BY MORE THAN 4,110 JERICHO TRNPK,11223
,,,,NO HOUSE NUMBER,PO BOX 170491,11417
,,,,NO STREETNAME,,11201
,,,,NO STREETNAME,147 FRONT ST,11201
,,,,STREET(S) NOT FOUND; NOT ELIGIBLE FOR SPELLCHECK,2301 AVENUE U # A,11229
,,,,ADDRESS NUMBER OUT OF RANGE BY MORE THAN 4,5202 GRAND AVE,11378
,,,,ADDRESS NUMBER OUT OF RANGE BY MORE THAN 4,1 GALASSO PL,11378
,,,,NO STREETNAME,,11234
,,,,NO STREETNAME,,11234
,,,,ADDRESS NUMBER OUT OF RANGE BY MORE THAN 4,1 CROSS ISLAND PLZ # 119,11422
,,,,ADDRESS NUMBER OUT OF RANGE BY MORE THAN 4,13320 WHITESTONE EXPY,11354
,,,,NO STREETNAME,,11385
,,,,NO STREETNAME,,11106
,,,,ADDRESS NUMBER OUT OF RANGE BY MORE THAN 4,4201 FORT HAMILTON PKWY,11354
,985259,183919,,,HAMILTON & 12,11215
,,,,ADDRESS NUMBER OUT OF RANGE BY MORE THAN 4,16801 ROCKAWAY BLVD,11434
,,,,ADDRESS NUMBER OUT OF RANGE BY MORE THAN 4,24 WYCKOFF AVE,11385
,,,,ADDRESS NUMBER OUT OF RANGE BY MORE THAN 4,2940 HOYT AVE S,11102
,,,,ADDRESS NUMBER OUT OF RANGE BY MORE THAN 4,1 CROSS ISLAND PLZ # 214,11422
,,,,ADDRESS NUMBER OUT OF RANGE BY MORE THAN 4,4540 37TH AVE,11101
,,,,NO STREETNAME,,11211
,,,,NO HOUSE NUMBER,JFK INTERNATIONAL AIRPORT,11430
,,,,NO STREETNAME,23019 INT ARP CN BLVD # 1000,11413
,,,,SPELLCHECKED WITH NO CHANGE - INTERNATIONALAIRPORTCE,23019 INTERNATIONAL AIRPORT CE,11413
,,,,STREET(S) NOT FOUND; NOT ELIGIBLE FOR SPELLCHECK,36 12 UN,11354
,,,,ADDRESS NUMBER OUT OF RANGE BY MORE THAN 4,179 144 AVE,11434
,,,,NO STREETNAME,,11201
,,,,NO HOUSE NUMBER,JFK INTERNATIONAL AIRPORT,11430
,,,,NO STREETNAME,,11239
,,,,SPELLCHECKED WITH NO CHANGE - TWELVETH,7209 TWELVETH AVE,11228
,,,,ADDRESS NUMBER OUT OF RANGE BY MORE THAN 4,8380 S 8TH ST,11211
,,,,NO STREETNAME,,11211
,,,,ADDRESS NUMBER OUT OF RANGE BY MORE THAN 4,5590 47TH ST,11378
,,,,ADDRESS NUMBER OUT OF RANGE BY MORE THAN 4,2065 130TH ST,11356
,,,,SPELLCHECKED WITH NO CHANGE - INTERNATIONALAIRPORTCE,23079 INTERNATIONAL AIRPORT CE,11413
,,,,NO STREETNAME,,11201
,,,,ADDRESS NUMBER OUT OF RANGE BY MORE THAN 4,4 48TH AVE,11101
,,,,NO STREETNAME,,11201
,,,,STREETS NOT LONG ENOUGH TO SPELLCHECK,149 1/2 DIVISION AVE,11211
,,,,SPELLCHECKED WITH NO CHANGE - CENTRALTERMINALAREA,3 CENTRAL TERMINAL AREA,11430
,,,,NO STREETNAME,,11434
,,,,ADDRESS NUMBER OUT OF RANGE BY MORE THAN 4,393 RIDGEWOOD AVE,11208
,,,,SPELLCHECKED WITH NO CHANGE - OLDSCHOOLHOUSE,5 OLD SCHOOLHOUSE RD,11430
,,,,NO HOUSE NUMBER,PO BOX 140182,11414
,,,,STREETS NOT LONG ENOUGH TO SPELLCHECK,115 1/2 REMSEN ST,11201
,,,,ADDRESS NUMBER OUT OF RANGE BY MORE THAN 4,11134 209TH ST,11201
,,,,ADDRESS NUMBER OUT OF RANGE BY MORE THAN 4,2340 120TH ST,11356
,,,,ADDRESS NUMBER OUT OF RANGE BY MORE THAN 4,2935 AVE S,11357
,,,,ADDRESS NUMBER OUT OF RANGE BY MORE THAN 4,2620 124TH ST,11354
,,,,ADDRESS NUMBER OUT OF RANGE BY MORE THAN 4,379 BAY 44TH ST,11214
,,,,ADDRESS NUMBER OUT OF RANGE BY MORE THAN 4,1259 FLUSHING AVE,11385
,,,,ADDRESS NUMBER OUT OF RANGE BY MORE THAN 4,4 48TH AVE,11101
,,,,ADDRESS NUMBER OUT OF RANGE BY MORE THAN 4,4238 N HENRY ST,11222
,,,,ADDRESS NUMBER OUT OF RANGE BY MORE THAN 4,13640 36TH AVE # 3-304,11354
,,,,ADDRESS NUMBER OUT OF RANGE BY MORE THAN 4,2402 37TH AVE,11101
,,,,ADDRESS NUMBER OUT OF RANGE BY MORE THAN 4,39 PAERDEGAT AVE N # 2,11236
,,,,NO STREETNAME,,11354
,,,,ADDRESS NUMBER OUT OF RANGE BY MORE THAN 4,261 BORDEN AVE,11101
,,,,NO HOUSE NUMBER,JFK INTERNATIONAL AIRPORT,11430
,,,,NO HOUSE NUMBER,BEACH 32ND ST,11691
,,,,ADDRESS NUMBER OUT OF RANGE BY MORE THAN 4,5815 49TH PL,11378
,,,,ADDRESS NUMBER OUT OF RANGE BY MORE THAN 4,5920 56TH AVE,11378
,,,,SPELLCHECKED WITH NO CHANGE - VILLAGENORTH,28 VILLAGE N RD,11214
,,,,ADDRESS NUMBER OUT OF RANGE BY MORE THAN 4,1 PIERREPONT PLZ # 8,11201
,,,,SPELLCHECKED WITH NO CHANGE - CENTRALTERMINALAREA,3 CENTRAL TERMINAL AREA # 8,11430
,,,,SPELLCHECKED WITH NO CHANGE - CENTRALTERMINALAREA,3 CENTRAL TERMINAL AREA # 8,11430
,,,,NO HOUSE NUMBER,JFK INTERNATIONAL AIRPORT,11430
,,,,SPELLCHECK HESTON--> HOUSTON;ADDRESS NUMBER OUT OF RANGE BY MORE THAN 4,7337 HESTON ST,11375
,,,,ADDRESS NUMBER OUT OF RANGE BY MORE THAN 4,4742 BELL BLVD,11361
,,,,ADDRESS NUMBER OUT OF RANGE BY MORE THAN 4,2228 MERRICK BLVD,11413
,,,,ADDRESS NUMBER OUT OF RANGE BY MORE THAN 4,445 PARK AVE,11205
,,,,ADDRESS NUMBER OUT OF RANGE BY MORE THAN 4,5350 KINGS HWY,11357
,,,,NO STREETNAME,,11361
,,,,NO STREETNAME,,11201
,,,,ADDRESS NUMBER OUT OF RANGE BY MORE THAN 4,13188 AVERY AVE # H,11355
,,,,NO STREETNAME,,11201
,,,,ADDRESS NUMBER OUT OF RANGE BY MORE THAN 4,5672 49TH PL,11378
,,,,ADDRESS NUMBER OUT OF RANGE BY MORE THAN 4,400 WEAVER AVE,11359
,,,,NO STREETNAME,,11375
,,,,ADDRESS NUMBER OUT OF RANGE BY MORE THAN 4,12243 ROYCE ST,11234
,,,,NO HOUSE NUMBER,JFK INTERNATIONAL AIRPORT,11430
,,,,ADDRESS NUMBER OUT OF RANGE BY MORE THAN 4,287 HOLLYWOOD AVE,11363
,,,,NO STREETNAME,,11355
,,,,ADDRESS NUMBER OUT OF RANGE BY MORE THAN 4,243 72ND AVE # 45,11362
,,,,NO HOUSE NUMBER,JFK INTERNATIONAL AIRPORT,11430
,,,,NO HOUSE NUMBER,JFK INTERNATIONAL AIRPORT,11430
,,,,ADDRESS NUMBER OUT OF RANGE BY MORE THAN 4,2101 BERGEN AVE,11234
,,,,ADDRESS NUMBER OUT OF RANGE BY MORE THAN 4,125 SAINT NICHOLAS AVE,11385
,,,,NO STREETNAME,,11201
,,,,ADDRESS NUMBER OUT OF RANGE BY MORE THAN 4,1101 FORBELL ST,11208
,,,,SPELLCHECK BEACHCHANL--> BEACHCHANNEL;ADDRESS NUMBER OUT OF RANGE BY MORE THAN 4,29-25-25 BEACH CHANL DR,11691
,,,,NO STREETNAME,,11354
,,,,NO STREETNAME,,11201
,,,,ADDRESS NUMBER OUT OF RANGE BY MORE THAN 4,5625 FLUSHING AVE,11378
,,,,NO HOUSE NUMBER,JFK INTERNATIONAL AIRPORT,11430
,,,,NO HOUSE NUMBER,JFK INTERNATIONAL AIRPORT,11430
,,,,ADDRESS NUMBER OUT OF RANGE BY MORE THAN 4,48 1ST AVE # 57,11232
,,,,ADDRESS NUMBER OUT OF RANGE BY MORE THAN 4,15 26 AVE,11691
,,,,ADDRESS NUMBER OUT OF RANGE BY MORE THAN 4,5625 FLUSHING AVE,11378
,,,,ADDRESS NUMBER OUT OF RANGE BY MORE THAN 4,261 N BOUNDARY RD,11430
,,,,STREET(S) NOT FOUND; NOT ELIGIBLE FOR SPELLCHECK,2303 AVENUE Z # A,11235
,,,,NO STREETNAME,,11101
,,,,SPELLCHECKED WITH NO CHANGE - CREEDMORE,5816 CREEDMORE RD,11222
,,,,SPELLCHECKED WITH NO CHANGE - INTERNATLARPRT,23059 INTERNATL ARPRT CTR # 27,11413
,,,,ADDRESS NUMBER OUT OF RANGE BY MORE THAN 4,7050 112TH ST,11375
,,,,NO STREETNAME,,11235
,,,,NO STREETNAME,,11201
,,,,NO STREETNAME,,11201
,,,,NO HOUSE NUMBER,J F K AIRPORT,11430
,,,,ADDRESS NUMBER OUT OF RANGE BY MORE THAN 4,30 192ND ST,11434
,,,,ADDRESS NUMBER OUT OF RANGE BY MORE THAN 4,7200 DOUGLASTON PKWY,11362
,,,,ADDRESS NUMBER OUT OF RANGE BY MORE THAN 4,1 CROSS ISLAND PLZ,11422
,,,,ADDRESS NUMBER OUT OF RANGE BY MORE THAN 4,8638 AVENUE N # 15,11236
,,,,ADDRESS NUMBER OUT OF RANGE BY MORE THAN 4,7 NORTHERN BLVD,11201
,,,,NO HOUSE NUMBER,PO BOX 221195,11201
,,,,ADDRESS NUMBER OUT OF RANGE BY MORE THAN 4,3511 36TH,11105
,,,,SPELLCHECKED WITH NO CHANGE - CENTRALTERMINALAREAB,8 CENTRAL TERMINAL AREA # B,11430
,,,,ADDRESS NUMBER OUT OF RANGE BY MORE THAN 4,16725 ROCKAWAY BLVD,11434
,,,,NO STREETNAME,,11214
,,,,ADDRESS NUMBER OUT OF RANGE BY MORE THAN 4,2510 33RD ST,11102
,,,,NO HOUSE NUMBER,JFK INTERNATIONAL AIRPORT,11430
,,,,NO STREETNAME,,11355
,,,,ADDRESS NUMBER OUT OF RANGE BY MORE THAN 4,1 CROSS ISLAND PLZ # 220,11422
,,,,NO STREETNAME,,11361
,,,,NO STREETNAME,,11361
,,,,NO STREETNAME,,11106
,,,,NO STREETNAME,,11385
,,,,ADDRESS NUMBER OUT OF RANGE BY MORE THAN 4,2270 45TH ST,11105
,,,,ADDRESS NUMBER OUT OF RANGE BY MORE THAN 4,5109 GRAND AVE,11378
,,,,ADDRESS NUMBER OUT OF RANGE BY MORE THAN 4,16019 ROCKAWAY BLVD # E,11434
,,,,NO STREETNAME,,11101
,,,,ADDRESS NUMBER OUT OF RANGE BY MORE THAN 4,218 RANDOLPH ST,11385
,,,,NO STREETNAME,,11691
,,,,ADDRESS NUMBER OUT OF RANGE BY MORE THAN 4,15030 132ND AVE # 303,11434
,,,,ADDRESS NUMBER OUT OF RANGE BY MORE THAN 4,5625 FLUSHING AVE,11378
,,,,NO HOUSE NUMBER,JFK INTERNATIONAL AIRPORT,11430
,,,,SPELLCHECKED WITH NO CHANGE - CENTRALTERMINALAREA,2 CENTRAL TERMINAL AREA # 2,11430
,,,,SPELLCHECKED WITH NO CHANGE - INTERNATIONALAIRPORTCE,23059 INTERNATIONAL AIRPORT CE,11413
,,,,SPELLCHECKED WITH NO CHANGE - CENTRALTERMINALAREA,1 CENTRAL TERMINAL AREA,11430
,,,,NO HOUSE NUMBER,JFK INTERNATIONAL AIRPORT,11430
,,,,SPELLCHECKED WITH NO CHANGE - CENTRALTERMINALAREA,4 CENTRAL TERMINAL AREA,11430
,,,,ADDRESS NUMBER OUT OF RANGE BY MORE THAN 4,14720 181ST ST # 2H,11413
,,,,ADDRESS NUMBER OUT OF RANGE BY MORE THAN 4,5817 59TH DR,11378
,,,,NO HOUSE NUMBER,JFK INTERNATIONAL AIRPORT,11430
,,,,ADDRESS NUMBER OUT OF RANGE BY MORE THAN 4,16050 LEFFERTS BLVD,11430
,,,,NO STREETNAME,,11101
,,,,ADDRESS NUMBER OUT OF RANGE BY MORE THAN 4,7211 AUSTIN ST # 159,11375
,,,,ADDRESS NUMBER OUT OF RANGE BY MORE THAN 4,303 LOUISIANA AVE,11354
,,,,SPELLCHECKED WITH NO CHANGE - KISSENABOULEVARD,4344 KISSENA BLVD # LA,11355
,,,,ADDRESS NUMBER OUT OF RANGE BY MORE THAN 4,15018 132ND AVE,11434
,,,,ADDRESS NUMBER OUT OF RANGE BY MORE THAN 4,207 STARR ST # E,11237
,,,,ADDRESS NUMBER OUT OF RANGE BY MORE THAN 4,8050 PITKIN AVE,11417
,,,,ADDRESS NUMBER OUT OF RANGE BY MORE THAN 4,15016 132ND AVE,11434
,,,,ADDRESS NUMBER OUT OF RANGE BY MORE THAN 4,240 LUCILLE AVE,11222
,,,,ADDRESS NUMBER OUT OF RANGE BY MORE THAN 4,1515 35TH AVE,11106
,,,,STREET(S) NOT FOUND; NOT ELIGIBLE FOR SPELLCHECK,3514 AVENUE S # F,11234
,,,,ADDRESS NUMBER OUT OF RANGE BY MORE THAN 4,66 LONG ISLAND EXP,11378
,,,,STREET(S) NOT FOUND; NOT ELIGIBLE FOR SPELLCHECK,132 25A 14 AVE,11356
,,,,NO STREETNAME,,11208
,,,,ADDRESS NUMBER OUT OF RANGE BY MORE THAN 4,52 20TH ST,11232
,,,,NO STREETNAME,,11385
,,,,SPELLCHECKED WITH NO CHANGE - OLDROCKAWAY,350 OLD ROCKAWAY BLVD,11430
,,,,ADDRESS NUMBER OUT OF RANGE BY MORE THAN 4,4309 NORTHERN BLVD,11101
,,,,SPELLCHECKED WITH NO CHANGE - BROOKLYNTERMINALMARKET,34 BROOKLYN TERMINAL MARKET,11236
,,,,ADDRESS NUMBER OUT OF RANGE BY MORE THAN 4,34 LINDEN PL,11354
,,,,ADDRESS NUMBER OUT OF RANGE BY MORE THAN 4,5105 FLUSHING AVE,11378
,,,,ADDRESS NUMBER OUT OF RANGE BY MORE THAN 4,2637 CONEY ISLAND AVE,11363
,,,,NO STREETNAME,,11211
,,,,NO STREETNAME,,11215
,,,,STREET(S) NOT FOUND; NOT ELIGIBLE FOR SPELLCHECK,40 08 CAS,11369
,,,,SPELLCHECKED WITH NO CHANGE - MARKLY,600 MARKLY ST,11232
,,,,NO STREETNAME,,11385
,,,,SPELLCHECKED WITH NO CHANGE - CRESTCIRCLE,17 CRESTCIRCLE CIR,11234
,,,,NO HOUSE NUMBER,FAR ROCKAWAY SVCE CENTER,11691
,,,,ADDRESS NUMBER OUT OF RANGE BY MORE THAN 4,1131 HARRIS AVE,11691
,,,,ADDRESS NUMBER OUT OF RANGE BY MORE THAN 4,56 48TH ST,11232
,,,,STREET(S) NOT FOUND; NOT ELIGIBLE FOR SPELLCHECK,71 50A AUSTIN,11375
,,,,ADDRESS NUMBER OUT OF RANGE BY MORE THAN 4,7017 AUSTIN ST,11375
,,,,STREET(S) NOT FOUND; NOT ELIGIBLE FOR SPELLCHECK,148 36-B GUY R BREWER BLVD,11434
,,,,NO STREETNAME,,11692
,,,,NO HOUSE NUMBER,WEST WING 14-6,11430
,,,,NO HOUSE NUMBER,JFK INTERNATIONAL AIRPORT,11430
,,,,ADDRESS NUMBER OUT OF RANGE BY MORE THAN 4,7000 SHORE PKWY,11234
,,,,ADDRESS NUMBER OUT OF RANGE BY MORE THAN 4,784 JAMAICA AVE,11208
,,,,ADDRESS NUMBER OUT OF RANGE BY MORE THAN 4,13449 228TH ST,11413
,,,,ADDRESS NUMBER OUT OF RANGE BY MORE THAN 4,10371 99TH ST,11417
,,,,ADDRESS NUMBER OUT OF RANGE BY MORE THAN 4,1 CROSS ISLAND PLZ # 109,11422
,,,,NO STREETNAME,,11201
,,,,NO STREETNAME,,11211
,,,,ADDRESS NUMBER OUT OF RANGE BY MORE THAN 4,10322 ROCKAWAY BEACH BLVD,11694
,,,,ADDRESS NUMBER OUT OF RANGE BY MORE THAN 4,13 41ST ST,11232
,,,,ADDRESS NUMBER OUT OF RANGE BY MORE THAN 4,13 42ND ST # 2,11232
,,,,ADDRESS NUMBER OUT OF RANGE BY MORE THAN 4,14 S SERVICE RD # 1,11430
,,,,NO HOUSE NUMBER,W WING JFK AIRPORT BLDG 14,11430
,,,,ADDRESS NUMBER OUT OF RANGE BY MORE THAN 4,3169 COLLEGE POINT BLVD,11354
,,,,NO STREETNAME,,11354
,,,,NO STREETNAME,,11101
,,,,ADDRESS NUMBER OUT OF RANGE BY MORE THAN 4,575 MESEROLE ST,11237
,,,,STREET(S) NOT FOUND; NOT ELIGIBLE FOR SPELLCHECK,1213 AVENUE Z # A32,11235
,,,,STREET(S) NOT FOUND; NOT ELIGIBLE FOR SPELLCHECK,2213 AVENUE U # A,11229
,,,,STREET(S) NOT FOUND; NOT ELIGIBLE FOR SPELLCHECK,145 -31A 228,11422
,,,,NO STREETNAME,231 FRONT ST,11201
,,,,NO STREETNAME,,11361
,,,,SPELLCHECKED WITH NO CHANGE - INTERNATLARPRT,23059 INTERNATL ARPRT CTR #280,11413
,,,,SPELLCHECKED WITH NO CHANGE - CENTRALTERMINALAREAA,1 CENTRAL TERMINAL AREA # A,11430
,,,,SPELLCHECKED WITH NO CHANGE - HANGAR,75 N HANGAR RD # 205A,11430
,,,,ADDRESS NUMBER OUT OF RANGE BY MORE THAN 4,5710 PRESTON CT,11234
,,,,ADDRESS NUMBER OUT OF RANGE BY MORE THAN 4,5805 KINGSWAY PL,11234
,,,,ADDRESS NUMBER OUT OF RANGE BY MORE THAN 4,15615 146TH AVE # 213,11434
,,,,SPELLCHECKED WITH NO CHANGE - INTERNATIONALAIRPORT,230 59 INTERNATIONAL AIRPORT,11413
,,,,SPELLCHECKED WITH NO CHANGE - CENTRALTERMINALAREA,2 CENTRAL TERMINAL AREA # 22,11430
,,,,NO HOUSE NUMBER,JFK INTERNATIONAL AIRPORT,11430
,,,,NO HOUSE NUMBER,JFK INTERNATIONAL AIRPORT,11430
,,,,ADDRESS NUMBER OUT OF RANGE BY MORE THAN 4,15344 S CONDUIT AVE,11434
,,,,SPELLCHECKED WITH NO CHANGE - CENTRALTERMINALAREA,1 CENTRAL TERMINAL AREA,11430
,,,,ADDRESS NUMBER OUT OF RANGE BY MORE THAN 4,186 146TH AVE,11422
,,,,ADDRESS NUMBER OUT OF RANGE BY MORE THAN 4,22 N SERVICE RD,11430
,,,,NO STREETNAME,,11413
,,,,SPELLCHECKED WITH NO CHANGE - JFKINTLAIRPORT,9 JFK INTL AIRPORT # 278A,11430
,,,,STREET(S) NOT FOUND; NOT ELIGIBLE FOR SPELLCHECK,136 AVENUE U # A,11223
,,,,ADDRESS NUMBER OUT OF RANGE BY MORE THAN 4,1177 FLUSHING AVE,11385
,,,,ADDRESS NUMBER OUT OF RANGE BY MORE THAN 4,1486 DEKALB AVE,11378
,,,,NO STREETNAME,,11434
,,,,ADDRESS NUMBER OUT OF RANGE BY MORE THAN 4,11404 BEACH CHANNEL DR,11223
,,,,ADDRESS NUMBER OUT OF RANGE BY MORE THAN 4,1 GALASSO PL,11378
,,,,ADDRESS NUMBER OUT OF RANGE BY MORE THAN 4,5223 53RD ST,11234
,,,,NO HOUSE NUMBER,PO BOX 340112,11234
,,,,ADDRESS NUMBER OUT OF RANGE BY MORE THAN 4,245 CROTON LOOP,11239
,,,,ADDRESS NUMBER OUT OF RANGE BY MORE THAN 4,15953 101ST ST,11414
,,,,ADDRESS NUMBER OUT OF RANGE BY MORE THAN 4,43 WILSON AVE,11385
,,,,ADDRESS NUMBER OUT OF RANGE BY MORE THAN 4,7200 DOUGLASTON PKWY,11362
,,,,NO STREETNAME,,11434
,,,,SPELLCHECKED WITH NO CHANGE - CENTRALTERMINALAREA,1 CENTRAL TERMINAL AREA,11430
,,,,ADDRESS NUMBER OUT OF RANGE BY MORE THAN 4,1 CROSS ISLAND PLZ # 203E,11422
,,,,NO STREETNAME,,11354
,,,,ADDRESS NUMBER OUT OF RANGE BY MORE THAN 4,394 HUDSON WALK,11201
,,,,ADDRESS NUMBER OUT OF RANGE BY MORE THAN 4,220 INGRAHAM ST # 1,11237
,,,,ADDRESS NUMBER OUT OF RANGE BY MORE THAN 4,387 5TH,11215
,,,,ADDRESS NUMBER OUT OF RANGE BY MORE THAN 4,7200 DOUGLASTON PKWY,11362
,,,,ADDRESS NUMBER OUT OF RANGE BY MORE THAN 4,725 PENNSYLVANIA AVE,11207
,,,,NO STREETNAME,72 FRONT ST,11201
,,,,ADDRESS NUMBER OUT OF RANGE BY MORE THAN 4,1 METROTECH CTR N # 1,11201
,,,,ADDRESS NUMBER OUT OF RANGE BY MORE THAN 4,2236 HARMAN ST,11385
,,,,SPELLCHECKED WITH NO CHANGE - INTERNATIONALAIRPORTCE,23079 INTERNATIONAL AIRPORT CE,11413
,,,,STREET(S) NOT FOUND; NOT ELIGIBLE FOR SPELLCHECK,12 23-A 150,11357
,,,,NO STREETNAME,,11236
,,,,STREETS NOT LONG ENOUGH TO SPELLCHECK,172 1/2 LEE AVE,11211
,,,,NO STREETNAME,,11209
,,,,ADDRESS NUMBER OUT OF RANGE BY MORE THAN 4,3060 REVIEW AVE # 4,11101
,,,,ADDRESS NUMBER OUT OF RANGE BY MORE THAN 4,104 ROCKAWAY BEACH BLVD,11694
,,,,ADDRESS NUMBER OUT OF RANGE BY MORE THAN 4,7925 COOPER AVE,11385
,,,,NO STREETNAME,,11385
,,,,NO STREETNAME,,11201
,,,,NO STREETNAME,,11234
,,,,STREET(S) NOT FOUND; NOT ELIGIBLE FOR SPELLCHECK,245 13 24513 FRANCIS LEWIS BLV,11422
,,,,STREET(S) NOT FOUND; NOT ELIGIBLE FOR SPELLCHECK,195 AVENUE U # A,11223
,,,,ADDRESS NUMBER OUT OF RANGE BY MORE THAN 4,4601 BELL BLVD,11361
,,,,ADDRESS NUMBER OUT OF RANGE BY MORE THAN 4,3727 NORTHERN BLVD,11101
,,,,ADDRESS NUMBER OUT OF RANGE BY MORE THAN 4,3101 STARR AVE,11101
,,,,ADDRESS NUMBER OUT OF RANGE BY MORE THAN 4,4201 VAN DAM ST,11101
,,,,ADDRESS NUMBER OUT OF RANGE BY MORE THAN 4,65 MYRTLE AVE,11385
,,,,NO STREETNAME,,11360
,,,,ADDRESS NUMBER OUT OF RANGE BY MORE THAN 4,96 W BRIGHTON AVE # 11,11224
,,,,ADDRESS NUMBER OUT OF RANGE BY MORE THAN 4,48 WEST DR # 3,11363
,,,,ADDRESS NUMBER OUT OF RANGE BY MORE THAN 4,14469 NORTHERN BLVD,11354
,,,,ADDRESS NUMBER OUT OF RANGE BY MORE THAN 4,220 RANDOLPH,11385
,,,,ADDRESS NUMBER OUT OF RANGE BY MORE THAN 4,4251 MAIN ST,11355
,,,,NO STREETNAME,,11201
,,,,ADDRESS NUMBER OUT OF RANGE BY MORE THAN 4,234 STARR ST,11385
,,,,ADDRESS NUMBER OUT OF RANGE BY MORE THAN 4,23 N SERVICE RD,11430
,,,,ADDRESS NUMBER OUT OF RANGE BY MORE THAN 4,30 30TH AVE,11102
,,,,NO STREETNAME,,11354
,,,,NO STREETNAME,,11208
,,,,ADDRESS NUMBER OUT OF RANGE BY MORE THAN 4,14469 NORTHERN BLVD,11354
,,,,ADDRESS NUMBER OUT OF RANGE BY MORE THAN 4,17725 ROCKAWAY BLVD # 206,11434
,,,,ADDRESS NUMBER OUT OF RANGE BY MORE THAN 4,56 BOGART,11385
,,,,ADDRESS NUMBER OUT OF RANGE BY MORE THAN 4,3412 36TH,11106
,,,,SPELLCHECKED WITH NO CHANGE - MINEOLA,259 MINEOLA BLVD,11201
,,,,STREET(S) NOT FOUND; NOT ELIGIBLE FOR SPELLCHECK,72 AVENUE U # A,11223
,,,,STREET(S) NOT FOUND; NOT ELIGIBLE FOR SPELLCHECK,2001 AVENUE P # A4,11229
,,,,ADDRESS NUMBER OUT OF RANGE BY MORE THAN 4,5415 35TH ST,11101
,,,,SPELLCHECKED WITH NO CHANGE - CENTRALTERMINALAREA,1 CENTRAL TERMINAL AREA,11430
,,,,NO HOUSE NUMBER,JFK INTERNATIONAL AIRPORT,11430
,,,,ADDRESS NUMBER OUT OF RANGE BY MORE THAN 4,138 FEDERAL CIR,11430
,,,,NO STREETNAME,,11434
,,,,NO STREETNAME,,11101
,,,,ADDRESS NUMBER OUT OF RANGE BY MORE THAN 4,113 -10 39 AVE,11354
,,,,ADDRESS NUMBER OUT OF RANGE BY MORE THAN 4,4137 KISSENA BLVD,11355
,,,,ADDRESS NUMBER OUT OF RANGE BY MORE THAN 4,18 20TH ST,11232
,,,,NO HOUSE NUMBER,PO BOX 350187,11235
,,,,ADDRESS NUMBER OUT OF RANGE BY MORE THAN 4,13648 39TH AVE # 2,11354
,,,,NO STREETNAME,,11201
,,,,ADDRESS NUMBER OUT OF RANGE BY MORE THAN 4,15615 146TH AVE # 206,11434
,,,,ADDRESS NUMBER OUT OF RANGE BY MORE THAN 4,15615 146TH AVE # 15,11434
,,,,NO HOUSE NUMBER,JFK INTERNATIONAL AIRPORT,11430
,,,,NO HOUSE NUMBER,PO BOX 940152,11694
,,,,ADDRESS NUMBER OUT OF RANGE BY MORE THAN 4,138 78TH ST # 38,11414
,,,,NO STREETNAME,,11691
,,,,ADDRESS NUMBER OUT OF RANGE BY MORE THAN 4,3107 20TH RD,11105
,,,,ADDRESS NUMBER OUT OF RANGE BY MORE THAN 4,165 NORTHERN BLVD,11354
,,,,ADDRESS NUMBER OUT OF RANGE BY MORE THAN 4,5925 63RD ST,11378
,,,,ADDRESS NUMBER OUT OF RANGE BY MORE THAN 4,3101 STARR AVE,11101
,,,,ADDRESS NUMBER OUT OF RANGE BY MORE THAN 4,4804 13TH AVE,11375
,,,,ADDRESS NUMBER OUT OF RANGE BY MORE THAN 4,57 UNION AVE,11206
,,,,ADDRESS NUMBER OUT OF RANGE BY MORE THAN 4,3402 PARSONS BLVD,11354
,,,,ADDRESS NUMBER OUT OF RANGE BY MORE THAN 4,13 42ND ST,11232
,,,,ADDRESS NUMBER OUT OF RANGE BY MORE THAN 4,3912 UNION ST,11354
,,,,ADDRESS NUMBER OUT OF RANGE BY MORE THAN 4,1 CROSS ISLAND PLZ # 123,11422
,,,,ADDRESS NUMBER OUT OF RANGE BY MORE THAN 4,2665 COYLE ST,11235
,,,,ADDRESS NUMBER OUT OF RANGE BY MORE THAN 4,2665 COYLE ST,11235
,,,,ADDRESS NUMBER OUT OF RANGE BY MORE THAN 4,10200 SEAVIEW AVE,11236
,,,,ADDRESS NUMBER OUT OF RANGE BY MORE THAN 4,25 BUSHWICK PL,11385
,,,,ADDRESS NUMBER OUT OF RANGE BY MORE THAN 4,35 BUSHWICK PL,11385
,,,,NO STREETNAME,,11208
,,,,ADDRESS NUMBER OUT OF RANGE BY MORE THAN 4,47 COLDEN,11355
,,,,NO STREETNAME,,11417
,,,,ADDRESS NUMBER OUT OF RANGE BY MORE THAN 4,1402 34TH AVE,11354
,,,,NO HOUSE NUMBER,JFK INTERNATIONAL AIRPORT,11430
,,,,ADDRESS NUMBER OUT OF RANGE BY MORE THAN 4,2310 KNAPP ST,11229
,,,,ADDRESS NUMBER OUT OF RANGE BY MORE THAN 4,257 VARET,11385
,,,,NO STREETNAME,,11375
,,,,ADDRESS NUMBER OUT OF RANGE BY MORE THAN 4,469 HEWES ST,11211
,,,,STREET(S) NOT FOUND; NOT ELIGIBLE FOR SPELLCHECK,214 10A 42 AV,11361
,,,,NO HOUSE NUMBER,JFK INTERNATIONAL AIRPORT,11430
,,,,SPELLCHECKED WITH NO CHANGE - CENTRALTERMINALAREA,1 CENTRAL TERMINAL AREA # 4,11430
,,,,ADDRESS NUMBER OUT OF RANGE BY MORE THAN 4,210 NORTHERN BLVD,11361
,,,,ADDRESS NUMBER OUT OF RANGE BY MORE THAN 4,901 DRIGGS AVE,11354
,,,,ADDRESS NUMBER OUT OF RANGE BY MORE THAN 4,10118 72ND AVE,11375
,,,,STREETS NOT LONG ENOUGH TO SPELLCHECK,67 1/2 6TH AVE,11217
,,,,NO STREETNAME,,11422
,,,,NO HOUSE NUMBER,JFK INTERNATIONAL AIRPORT,11430
,,,,NO HOUSE NUMBER,PO BOX 570114,11357
,,,,ADDRESS NUMBER OUT OF RANGE BY MORE THAN 4,68 COMPASS RD,11430
,,,,ADDRESS NUMBER OUT OF RANGE BY MORE THAN 4,15615 146TH AVE,11434
,,,,ADDRESS NUMBER OUT OF RANGE BY MORE THAN 4,15615 146TH AVE,11434
,,,,ADDRESS NUMBER OUT OF RANGE BY MORE THAN 4,136 37TH AVE # 19,11354
,,,,SPELLCHECKED WITH NO CHANGE - CENTRALTERMINALAREA,4 CENTRAL TERMINAL AREA,11430
,,,,NO HOUSE NUMBER,JFK INTERNATIONAL AIRPORT,11430
,,,,SPELLCHECKED WITH NO CHANGE - CENTRALTERMINALAREA,4 CENTRAL TERMINAL AREA,11430
,,,,ADDRESS NUMBER OUT OF RANGE BY MORE THAN 4,3354 PENN ST,11354
,,,,ADDRESS NUMBER OUT OF RANGE BY MORE THAN 4,201 DIKEMAN ST,11231
,,,,SPELLCHECKED WITH NO CHANGE - BROOKLYNTERMINALMARKET,26 BROOKLYN TERMINAL MARKET,11236
,,,,NO STREETNAME,,11214
,,,,ADDRESS NUMBER OUT OF RANGE BY MORE THAN 4,220 INGRAHAM ST,11385
,,,,ADDRESS NUMBER OUT OF RANGE BY MORE THAN 4,230 49TH ST,11220
,,,,STREET(S) NOT FOUND; NOT ELIGIBLE FOR SPELLCHECK,10850 62ND DR # LA,11375
,,,,STREETS NOT LONG ENOUGH TO SPELLCHECK,263 1/2 PENN ST # A,11211
,,,,ADDRESS NUMBER OUT OF RANGE BY MORE THAN 4,15 150TH,11357
,,,,NO STREETNAME,,11215
,,,,NO STREETNAME,,11101
,,,,NO STREETNAME,,11237
,,,,ADDRESS NUMBER OUT OF RANGE BY MORE THAN 4,303 SEIGEL,11385
,,,,ADDRESS NUMBER OUT OF RANGE BY MORE THAN 4,265 GLEN COVE S,11201
,,,,ADDRESS NUMBER OUT OF RANGE BY MORE THAN 4,5100 FLATBUSH AVE,11234
,,,,ADDRESS NUMBER OUT OF RANGE BY MORE THAN 4,75 25TH ST,11232
,,,,ADDRESS NUMBER OUT OF RANGE BY MORE THAN 4,70 LESTER CT,11229
,,,,NO STREETNAME,,11361
,,,,NO STREETNAME,,11201
,,,,ADDRESS NUMBER OUT OF RANGE BY MORE THAN 4,23 N SERVICE RD,11430
,,,,SPELLCHECKED WITH NO CHANGE - CENTRALTERMINALAREA,4 CENTRAL TERMINAL AREA,11430
,,,,NO STREETNAME,,11220
,,,,ADDRESS NUMBER OUT OF RANGE BY MORE THAN 4,180 COMMERCIAL LN,11211
,,,,SPELLCHECKED WITH NO CHANGE - JFKAIRPORT,1 J F K AIRPORT,11430
,,,,STREET(S) NOT FOUND; NOT ELIGIBLE FOR SPELLCHECK,3311 AVENUE N # A,11234
,,,,NO HOUSE NUMBER,HUNTERSPOINT AVE,11101
,,,,NO STREETNAME,,11357
,,,,NO STREETNAME,,11234
,,,,STREET(S) NOT FOUND; NOT ELIGIBLE FOR SPELLCHECK,18 02A 131,11356
,,,,NO STREETNAME,,11211
,,,,ADDRESS NUMBER OUT OF RANGE BY MORE THAN 4,1 CROSS ISLAND PLZ # 126A,11422
,,,,ADDRESS NUMBER OUT OF RANGE BY MORE THAN 4,24823 BROOKVILLE BLVD,11422
,,,,ADDRESS NUMBER OUT OF RANGE BY MORE THAN 4,3225 BEACH CHANNEL DR,11691
,,,,ADDRESS NUMBER OUT OF RANGE BY MORE THAN 4,404 E 158TH,11239
,,,,ADDRESS NUMBER OUT OF RANGE BY MORE THAN 4,1 CROSS ISLAND PLZ # 13333,11422
,,,,ADDRESS NUMBER OUT OF RANGE BY MORE THAN 4,1 CROSS ISLAND PLZ,11422
,,,,ADDRESS NUMBER OUT OF RANGE BY MORE THAN 4,1 CROSS ISLAND PLZ,11422
,,,,ADDRESS NUMBER OUT OF RANGE BY MORE THAN 4,16868 9TH AVE,11357
,,,,ADDRESS NUMBER OUT OF RANGE BY MORE THAN 4,7214 CYPRESS HILLS ST,11385
,,,,ADDRESS NUMBER OUT OF RANGE BY MORE THAN 4,43 GLENWOOD,11361
,,,,ADDRESS NUMBER OUT OF RANGE BY MORE THAN 4,4423 NORTHERN BLVD,11101
,,,,NO STREETNAME,,11375
,,,,ADDRESS NUMBER OUT OF RANGE BY MORE THAN 4,16868 9TH AVE,11357
,,,,SPELLCHECKED WITH NO CHANGE - BROOKLYNTERMINALMARKET,5 BROOKLYN TERMINAL MARKET,11236
,,,,ADDRESS NUMBER OUT OF RANGE BY MORE THAN 4,3101 BAYVIEW AVE,11224
,,,,ADDRESS NUMBER OUT OF RANGE BY MORE THAN 4,8402 COOPER AVE,11385
,,,,ADDRESS NUMBER OUT OF RANGE BY MORE THAN 4,209-00 CROSS ISLAND PKWY,11360
,,,,ADDRESS NUMBER OUT OF RANGE BY MORE THAN 4,30 BROOKLYN AVE,11357
,,,,NO STREETNAME,,11207
,,,,ADDRESS NUMBER OUT OF RANGE BY MORE THAN 4,16401 91ST ST,11414
,,,,ADDRESS NUMBER OUT OF RANGE BY MORE THAN 4,1102 49TH AVE,11101
,,,,NO HOUSE NUMBER,PO BOX 750130,11375
,,,,ADDRESS NUMBER OUT OF RANGE BY MORE THAN 4,8311 S CONDUIT AVE,11414
,,,,ADDRESS NUMBER OUT OF RANGE BY MORE THAN 4,4303 MAIN ST,11355
,,,,NO HOUSE NUMBER,PO BOX 170702,11417
,,,,NO STREETNAME,,11106
,,,,NO HOUSE NUMBER,PO BOX 150320,11215
,,,,ADDRESS NUMBER OUT OF RANGE BY MORE THAN 4,2028 FRANCIS LEWIS BLVD,11222
,,,,NO STREETNAME,,11237
,,,,ADDRESS NUMBER OUT OF RANGE BY MORE THAN 4,6075 ELIOT AVE,11378
,,,,NO STREETNAME,,11354
,,,,ADDRESS NUMBER OUT OF RANGE BY MORE THAN 4,17949 144TH RD,11434
,,,,ADDRESS NUMBER OUT OF RANGE BY MORE THAN 4,220 INGRAHAM ST,11237
,,,,SPELLCHECKED WITH NO CHANGE - OLDCOUNTRY,976 OLD COUNTRY RD,11215
,,,,ADDRESS NUMBER OUT OF RANGE BY MORE THAN 4,13 42ND ST,11232
,,,,NO STREETNAME,,11357
,,,,NO STREETNAME,,11691
,,,,SPELLCHECKED WITH NO CHANGE - SUTTERSUTTER,986 SUTTER SUTTER,11208
,,,,STREETS DO NOT INTERSECT,E 60TH & MILL AVE,11234
,,,,NO STREETNAME,,11360
,,,,NO STREETNAME,,11201
,,,,NO HOUSE NUMBER,COURT STREET,11201
,,,,ADDRESS NUMBER OUT OF RANGE BY MORE THAN 4,540 54TH AVE,11101
,,,,ADDRESS NUMBER OUT OF RANGE BY MORE THAN 4,14401 SUTTER AVE,11436
,,,,ADDRESS NUMBER OUT OF RANGE BY MORE THAN 4,289 BOGART ST,11206
,,,,ADDRESS NUMBER OUT OF RANGE BY MORE THAN 4,23204 NORTHERN BLVD,11362
,,,,ADDRESS NUMBER OUT OF RANGE BY MORE THAN 4,42 UNION ST # 1F,11355
,,,,ADDRESS NUMBER OUT OF RANGE BY MORE THAN 4,561 BEACH 69TH ST,11234
,,,,ADDRESS NUMBER OUT OF RANGE BY MORE THAN 4,374 STOCKHOLM,11385
,,,,ADDRESS NUMBER OUT OF RANGE BY MORE THAN 4,8240 73RD AVE,11385
,,,,NO STREETNAME,,11201
,,,,NO STREETNAME,,11201
,,,,ADDRESS NUMBER OUT OF RANGE BY MORE THAN 4,9319 5TH AVE,11209
,,,,ADDRESS NUMBER OUT OF RANGE BY MORE THAN 4,1192 BAY RIDGE PKWY,11228
,,,,ADDRESS NUMBER OUT OF RANGE BY MORE THAN 4,9286 3RD AVE,11209
,,,,NO STREETNAME,,11201
,,,,NO STREETNAME,,11201
,,,,NO STREETNAME,,11201
,,,,NO STREETNAME,,11385
,,,,NO HOUSE NUMBER,JFK INTERNATIONAL AIRPORT,11430
,,,,NO HOUSE NUMBER,JFK INTERNATIONAL AIRPORT,11430
,,,,ADDRESS NUMBER OUT OF RANGE BY MORE THAN 4,2462 QUEENS PLZ S,11101
,,,,SPELLCHECKED WITH NO CHANGE - TORTHERMWD,252 10 TORTHERM WD,11362
,,,,ADDRESS NUMBER OUT OF RANGE BY MORE THAN 4,230 49TH ST,11220
,,,,ADDRESS NUMBER OUT OF RANGE BY MORE THAN 4,90 PORTER AVE,11385
,,,,ADDRESS NUMBER OUT OF RANGE BY MORE THAN 4,5105 FLUSHING AVE,11378
,,,,NO STREETNAME,,11101
,,,,ADDRESS NUMBER OUT OF RANGE BY MORE THAN 4,13 42ND ST,11232
,,,,NO HOUSE NUMBER,PO BOX 200086,11220
,,,,NO STREETNAME,,11101
,,,,ADDRESS NUMBER OUT OF RANGE BY MORE THAN 4,8400 72ND DR # 4,11385
,,,,NO STREETNAME,5 FRONT ST,11201
,,,,NO STREETNAME,,11375
,,,,NO STREETNAME,,11361
,,,,NO STREETNAME,,11234
,,,,NO STREETNAME,,11201
,,,,ADDRESS NUMBER OUT OF RANGE BY MORE THAN 4,13208 11TH AVE,11356
,,,,SPELLCHECKED WITH NO CHANGE - CENTRALTERMINALAREA,3 CENTRAL TERMINAL AREA # 4702,11430
,,,,ADDRESS NUMBER OUT OF RANGE BY MORE THAN 4,12 S SERVICE RD,11430
,,,,NO HOUSE NUMBER,KENNEDY INTL AIRPT BUILDING 1,11430
,,,,STREET(S) NOT FOUND; NOT ELIGIBLE FOR SPELLCHECK,150 55A 14 AV,11357
,,,,NO HOUSE NUMBER,PO BOX 140433,11214
,,,,NO STREETNAME,,11354
,,,,SPELLCHECKED WITH NO CHANGE - STEMMONS,1950 N STEMMONS FWY,11430
,,,,NO HOUSE NUMBER,JFK INTERNATIONAL AIRPORT,11430
,,,,NO HOUSE NUMBER,JFK INTERNATIONAL AIRPORT,11430
,,,,NO HOUSE NUMBER,JFK INTERNATIONAL AIRPORT,11430
,,,,SPELLCHECKED WITH NO CHANGE - CENTRALTERMINALAREA,1 CENTRAL TERMINAL AREA # 5,11430
,,,,NO HOUSE NUMBER,JFK INTERNATIONAL AIRPORT,11430
,,,,NO HOUSE NUMBER,BLDG 143,11430
,,,,NO HOUSE NUMBER,JFK INTERNATIONAL AIRPORT,11430
,,,,SPELLCHECKED WITH NO CHANGE - HANGAR,75 N HANGAR RD # 217,11430
,,,,STREET(S) NOT FOUND; NOT ELIGIBLE FOR SPELLCHECK,36 1-D COLLEGE POINT BLVD,11354
,,,,NO STREETNAME,,11434
,,,,NO STREETNAME,231 FRONT ST,11201
,,,,NO HOUSE NUMBER,JFK INTERNATIONAL AIRPORT,11430
,,,,ADDRESS NUMBER OUT OF RANGE BY MORE THAN 4,445 PARK AVE,11205
,,,,NO HOUSE NUMBER,JFK INTERNATIONAL AIRPORT,11430
,,,,SPELLCHECKED WITH NO CHANGE - INTERNATLARPRT,23079 INTERNATL ARPRT CTR #250,11413
,,,,STREET(S) NOT FOUND; NOT ELIGIBLE FOR SPELLCHECK,39 1 64 WOODSIDE,11214
,,,,ADDRESS NUMBER OUT OF RANGE BY MORE THAN 4,1 CROSS ISLAND PLZ # 213,11422
,,,,STREET(S) NOT FOUND; NOT ELIGIBLE FOR SPELLCHECK,9202 AVENUE M # C,11236
,,,,ADDRESS NUMBER OUT OF RANGE BY MORE THAN 4,5815 49TH PL,11378
,,,,ADDRESS NUMBER OUT OF RANGE BY MORE THAN 4,821 PARK AVE,11385
,,,,SPELLCHECK PIERMONT--> PIERPONT;ADDRESS NUMBER OUT OF RANGE BY MORE THAN 4,326 PIERMONT RD,11101
,,,,ADDRESS NUMBER OUT OF RANGE BY MORE THAN 4,445 PARK AVE,11205
,,,,ADDRESS NUMBER OUT OF RANGE BY MORE THAN 4,1930 TROUTMAN ST,11385
,,,,NO STREETNAME,,11201
,,,,ADDRESS NUMBER OUT OF RANGE BY MORE THAN 4,5936 COOPER AVE,11385
,,,,ADDRESS NUMBER OUT OF RANGE BY MORE THAN 4,2807 FLATBUSH AVE,11234
,,,,ADDRESS NUMBER OUT OF RANGE BY MORE THAN 4,18445 147TH AVE,11413
,,,,ADDRESS NUMBER OUT OF RANGE BY MORE THAN 4,1977 FLATBUSH AVE,11234
,,,,NO STREETNAME,,11201
,,,,SPELLCHECKED WITH NO CHANGE - SEACLIFF,10 SEA CLIFF AVE,11694
,,,,NO STREETNAME,,11434
,,,,ADDRESS NUMBER OUT OF RANGE BY MORE THAN 4,915 KNICKERBOCKER AVE,11378
,,,,NO STREETNAME,,11106
,,,,STREET(S) NOT FOUND; NOT ELIGIBLE FOR SPELLCHECK,46 22A QUEENS BLVD,11104
,,,,NO STREETNAME,,11201
,,,,SPELLCHECKED WITH NO CHANGE - OLDCOUNTRY,200 OLD COUNTRY RD,11206
,,,,NO STREETNAME,,11434
,,,,ADDRESS NUMBER OUT OF RANGE BY MORE THAN 4,203 32TH AVENUE 25,11359
,,,,NO STREETNAME,,11691
,,,,ADDRESS NUMBER OUT OF RANGE BY MORE THAN 4,8056 PRESTON CT,11236
,,,,NO STREETNAME,,11101
,,,,ADDRESS NUMBER OUT OF RANGE BY MORE THAN 4,268 MESEROLE ST,11101
,,,,STREET(S) NOT FOUND; NOT ELIGIBLE FOR SPELLCHECK,765 N ROUTE 83,11430
,,,,ADDRESS NUMBER OUT OF RANGE BY MORE THAN 4,10 BRIDGE ST,11201
,,,,NO STREETNAME,,11211
,,,,NO STREETNAME,,11201
,,,,ADDRESS NUMBER OUT OF RANGE BY MORE THAN 4,549 BORDEN AVE,11101
,,,,ADDRESS NUMBER OUT OF RANGE BY MORE THAN 4,4101 36TH AVE,11101
,,,,NO STREETNAME,,11205
,,,,ADDRESS NUMBER OUT OF RANGE BY MORE THAN 4,16725 ROCKAWAY BLVD,11434
,,,,ADDRESS NUMBER OUT OF RANGE BY MORE THAN 4,34 101 C APT 62,11106
,,,,NO STREETNAME,,11201
,,,,ADDRESS NUMBER OUT OF RANGE BY MORE THAN 4,4740 BELL BLVD,11361
,,,,NO STREETNAME,,11434
,,,,ADDRESS NUMBER OUT OF RANGE BY MORE THAN 4,13533 39TH AVE,11354
,,,,NO HOUSE NUMBER,PO BOX 230313,11223
,,,,NO STREETNAME,,11209
,,,,ADDRESS NUMBER OUT OF RANGE BY MORE THAN 4,9 44TH RD # 03,11101
,,,,STREET(S) NOT FOUND; NOT ELIGIBLE FOR SPELLCHECK,150 43-A 14 AV,11357
,,,,ADDRESS NUMBER OUT OF RANGE BY MORE THAN 4,30 30TH AVE # 15,11102
,,,,ADDRESS NUMBER OUT OF RANGE BY MORE THAN 4,261 BORDEN AVE,11101
,,,,NO STREETNAME,,11234
,,,,ADDRESS NUMBER OUT OF RANGE BY MORE THAN 4,143 SPRINGFIELD BLVD,11413
,,,,ADDRESS NUMBER OUT OF RANGE BY MORE THAN 4,3821 MAIN ST,11201
,,,,ADDRESS NUMBER OUT OF RANGE BY MORE THAN 4,1 CROSS ISLAND PLZ,11422
,,,,ADDRESS NUMBER OUT OF RANGE BY MORE THAN 4,220 INGRAHAM ST,11237
,,,,ADDRESS NUMBER OUT OF RANGE BY MORE THAN 4,7017 AUSTIN ST,11375
,,,,ADDRESS NUMBER OUT OF RANGE BY MORE THAN 4,13927 245TH ST,11422
,,,,ADDRESS NUMBER OUT OF RANGE BY MORE THAN 4,6859 FOREST AVE,11385
,,,,NO STREETNAME,,11229
,,,,ADDRESS NUMBER OUT OF RANGE BY MORE THAN 4,743 GRACE AVE,11211
,,,,STREET(S) NOT FOUND; NOT ELIGIBLE FOR SPELLCHECK,14 20A 129,11356
,,,,ADDRESS NUMBER OUT OF RANGE BY MORE THAN 4,2620 124TH ST,11354
,,,,NO HOUSE NUMBER,JFK INTERNATIONAL AIRPORT,11430
,,,,ADDRESS NUMBER OUT OF RANGE BY MORE THAN 4,1 PIERREPONT PLZ # 1,11201
,,,,ADDRESS NUMBER OUT OF RANGE BY MORE THAN 4,18216 149TH RD,11413
,,,,STREET(S) NOT FOUND; NOT ELIGIBLE FOR SPELLCHECK,76 AVENUE U # A,11223
,,,,NO STREETNAME,,11222
,,,,NO HOUSE NUMBER,JFK AIRPORT DELTA 51,11430
,,,,NO STREETNAMES,NORTHWEST/DELTA TERMINAL,11430
,,,,ADDRESS NUMBER OUT OF RANGE BY MORE THAN 4,16743 140TH AVE,11434
,,,,ADDRESS NUMBER OUT OF RANGE BY MORE THAN 4,808 QUEENS PLZ S,11101
,,,,STREET(S) NOT FOUND; NOT ELIGIBLE FOR SPELLCHECK,107 -10A 71 RD,11375
,,,,NO STREETNAME,,11236
,,,,NO HOUSE NUMBER,PO BOX 70744,11207
,,,,SPELLCHECKED WITH NO CHANGE - SPAGNOLI,136 SPAGNOLI RD,11222
,,,,ADDRESS NUMBER OUT OF RANGE BY MORE THAN 4,5743 43RD ST,11378
,,,,ADDRESS NUMBER OUT OF RANGE BY MORE THAN 4,5808 48TH ST,11378
,,,,NO STREETNAME,,11361
,,,,ADDRESS NUMBER OUT OF RANGE BY MORE THAN 4,17725 ROCKAWAY BLVD # 205,11434
,,,,ADDRESS NUMBER OUT OF RANGE BY MORE THAN 4,58 50TH ST,11232
,,,,ADDRESS NUMBER OUT OF RANGE BY MORE THAN 4,15433 BROOKVILLE BLVD,11422
,,,,NO HOUSE NUMBER,JFK INTERNATIONAL AIRPORT,11430
,,,,ADDRESS NUMBER OUT OF RANGE BY MORE THAN 4,16725 ROCKAWAY BLVD,11434
,,,,ADDRESS NUMBER OUT OF RANGE BY MORE THAN 4,6855 FOREST AVE,11385
,,,,NO STREETNAME,,11201
,,,,ADDRESS NUMBER OUT OF RANGE BY MORE THAN 4,220 INGRAHAM ST,11237
,,,,ADDRESS NUMBER OUT OF RANGE BY MORE THAN 4,6853 FOREST AVE,11385
,,,,ADDRESS NUMBER OUT OF RANGE BY MORE THAN 4,4101 36TH AVE,11101
,,,,NO HOUSE NUMBER,PO BOX 750867,11375
,,,,STREET(S) NOT FOUND; NOT ELIGIBLE FOR SPELLCHECK,8 ADAR CT,11211
,,,,ADDRESS NUMBER OUT OF RANGE BY MORE THAN 4,362 126TH ST,11356
,,,,ADDRESS NUMBER OUT OF RANGE BY MORE THAN 4,541 54TH AVE,11101
,,,,NO STREETNAME,,11434
,,,,ADDRESS NUMBER OUT OF RANGE BY MORE THAN 4,14720 181ST ST,11413
,,,,ADDRESS NUMBER OUT OF RANGE BY MORE THAN 4,359 STAGG ST,11378
,,,,NO STREETNAME,,11691
,,,,ADDRESS NUMBER OUT OF RANGE BY MORE THAN 4,4010 UNION ST,11354
,,,,SPELLCHECK JEROCHO--> JERICHO;ADDRESS NUMBER OUT OF RANGE BY MORE THAN 4,130 E JEROCHO TPKE,11235
,,,,ADDRESS NUMBER OUT OF RANGE BY MORE THAN 4,4139 MAIN ST,11355
,,,,NO STREETNAME,,11206
,,,,ADDRESS NUMBER OUT OF RANGE BY MORE THAN 4,20358 28TH AVE,11360
,,,,ADDRESS NUMBER OUT OF RANGE BY MORE THAN 4,203 IRVING AVE,11378
,,,,ADDRESS NUMBER OUT OF RANGE BY MORE THAN 4,9807 FOSTER AVE,11236
,,,,NO STREETNAME,,11235
,,,,SPELLCHECKED WITH NO CHANGE - CENTRALTERMINALAREAB,3 CENTRAL TERMINAL AREA # B,11430
,,,,ADDRESS NUMBER OUT OF RANGE BY MORE THAN 4,2453 W 6TH ST,11223
,,,,NO STREETNAME,,11201
,,,,NO STREETNAME,,11385
,,,,SPELLCHECKED WITH NO CHANGE - BROOKLYNTERMINALMARKET,24 BROOKLYN TERMINAL MARKET,11236
,,,,NO STREETNAME,,11201
,,,,ADDRESS NUMBER OUT OF RANGE BY MORE THAN 4,185 RANDOLPH,11385
,,,,NO STREETNAME,,11360
,,,,ADDRESS NUMBER OUT OF RANGE BY MORE THAN 4,14 S SERVICE RD # 3,11430
,,,,ADDRESS NUMBER OUT OF RANGE BY MORE THAN 4,14820 CROSS ISLAND PKWY,11357
,,,,STREET(S) NOT FOUND; NOT ELIGIBLE FOR SPELLCHECK,2217 AVENUE X # A,11235
,,,,ADDRESS NUMBER OUT OF RANGE BY MORE THAN 4,2639 JEROME AVE,11235
,,,,NO STREETNAME,,11360
,,,,NO STREETNAME,,11201
,,,,ADDRESS NUMBER OUT OF RANGE BY MORE THAN 4,1 NEWTON,11222
,,,,ADDRESS NUMBER OUT OF RANGE BY MORE THAN 4,16019 ROCKAWAY BLVD # E,11434
,,,,ADDRESS NUMBER OUT OF RANGE BY MORE THAN 4,14720 181ST ST # 7,11413
,,,,NO HOUSE NUMBER,PO BOX 90910,11209
,,,,NO STREETNAME,,11101
,,,,NO STREETNAME,,11201
,,,,ADDRESS NUMBER OUT OF RANGE BY MORE THAN 4,2364 38TH AVE,11101
,,,,ADDRESS NUMBER OUT OF RANGE BY MORE THAN 4,100 BUSHWICK AV,11385
,,,,ADDRESS NUMBER OUT OF RANGE BY MORE THAN 4,35 ONDERDONK AVE,11385
,,,,NO HOUSE NUMBER,JFK INTERNATIONAL AIRPORT,11430
,,,,NO STREETNAME,,11694
,,,,ADDRESS NUMBER OUT OF RANGE BY MORE THAN 4,17914 149TH AVE,11434
,,,,ADDRESS NUMBER OUT OF RANGE BY MORE THAN 4,125 KNICKERBOCKER AVE,11385
,,,,ADDRESS NUMBER OUT OF RANGE BY MORE THAN 4,1250 METROPOLITAN AVE,11378
,,,,ADDRESS NUMBER OUT OF RANGE BY MORE THAN 4,4124 39TH AVE,11104
,,,,NO STREETNAME,,11355
,,,,STREET(S) NOT FOUND; NOT ELIGIBLE FOR SPELLCHECK,57 17A MAIN,11354
,,,,NO HOUSE NUMBER,JFK INTERNATIONAL AIRPORT,11430
,,,,SPELLCHECKED WITH NO CHANGE - OLDCOUNTRY,1 OLD COUNTRY RD # 140,11414
,,,,ADDRESS NUMBER OUT OF RANGE BY MORE THAN 4,160 2ND ST,11231
,,,,NO HOUSE NUMBER,PO BOX 560082,11356
,,,,STREETS DO NOT INTERSECT,56TH AVE & SPRINGFIELD BLVD,11361
,,,,ADDRESS NUMBER OUT OF RANGE BY MORE THAN 4,7211 AUSTIN ST # 265,11375
,,,,ADDRESS NUMBER OUT OF RANGE BY MORE THAN 4,27 20TH ST,11232
,,,,SPELLCHECKED WITH NO CHANGE - TOWBIN,900 TOWBIN AVE,11106
,,,,NO STREETNAME,,11209
,,,,NO STREETNAME,,11361
,,,,NO HOUSE NUMBER,PO BOX 570084,11357
,,,,NO STREETNAME,,11201
,,,,NO STREETNAME,57 FRONT ST # 304,11201
,,,,ADDRESS NUMBER OUT OF RANGE BY MORE THAN 4,5423 FLATLANDS AVE,11234
,,,,NO STREETNAME,,11201
,,,,NO STREETNAME,,11201
,,,,SPELLCHECKED WITH NO CHANGE - MIDDLENECK,665 MIDDLE NECK ROAD,11363
,,,,NO HOUSE NUMBER,SEAVIEW AVE,11236
,,,,NO HOUSE NUMBER,FOOT OF SEAVIEW AVE,11236
,,,,NO STREETNAME,111 FRONT ST # 224,11201
,,,,ADDRESS NUMBER OUT OF RANGE BY MORE THAN 4,4420 AUSTIN BLVD,11201
,,,,NO STREETNAME,,11357
,,,,ADDRESS NUMBER OUT OF RANGE BY MORE THAN 4,1875 RALPH AVE,11234
,,,,NO STREETNAME,,11201
,,,,STREET(S) NOT FOUND; NOT ELIGIBLE FOR SPELLCHECK,141 14-A NORTHERN BLVD,11354
,,,,NO STREETNAME,,11211
,,,,ADDRESS NUMBER OUT OF RANGE BY MORE THAN 4,119 SURF AVE,11224
,,,,ADDRESS NUMBER OUT OF RANGE BY MORE THAN 4,15016 132ND AVE # 1,11434
,,,,ADDRESS NUMBER OUT OF RANGE BY MORE THAN 4,154 7 12 AVE,11357
,,,,ADDRESS NUMBER OUT OF RANGE BY MORE THAN 4,13417 GARRETT ST,11434
,,,,NO HOUSE NUMBER,PO BOX 1250,11101
,,,,ADDRESS NUMBER OUT OF RANGE BY MORE THAN 4,1 CROSS ISLAND PLZ # 207,11422
,,,,NO STREETNAME,,11375
,,,,ADDRESS NUMBER OUT OF RANGE BY MORE THAN 4,5809 16 AV,11434
,,,,ADDRESS NUMBER OUT OF RANGE BY MORE THAN 4,14934 183RD ST,11413
,,,,NO STREETNAME,,11235
,,,,NO STREETNAME,,11220
,,,,ADDRESS NUMBER OUT OF RANGE BY MORE THAN 4,66 LONG ISLAND EXP,11378
,,,,NO STREETNAME,,11355
,,,,ADDRESS NUMBER OUT OF RANGE BY MORE THAN 4,2264 GRAHAM AVE,11211
,,,,NO STREETNAME,,11375
,,,,ADDRESS NUMBER OUT OF RANGE BY MORE THAN 4,11325 14TH AVE,11356
,,,,STREET(S) NOT FOUND; NOT ELIGIBLE FOR SPELLCHECK,36 20 UN,11354
,,,,ADDRESS NUMBER OUT OF RANGE BY MORE THAN 4,13188 AVERY AVE,11355
,,,,ADDRESS NUMBER OUT OF RANGE BY MORE THAN 4,13 42ND ST # 2,11232
,,,,ADDRESS NUMBER OUT OF RANGE BY MORE THAN 4,18216 149TH RD # 2,11413
,,,,ADDRESS NUMBER OUT OF RANGE BY MORE THAN 4,66 LONG ISLAND EXP,11378
,,,,SPELLCHECKED WITH NO CHANGE - WILLETSPT,160 WILLETS PT BLVD # 20A,11357
,,,,ADDRESS NUMBER OUT OF RANGE BY MORE THAN 4,5672 49TH PL,11378
,,,,ADDRESS NUMBER OUT OF RANGE BY MORE THAN 4,2320 AVE U,11101
,,,,ADDRESS NUMBER OUT OF RANGE BY MORE THAN 4,7610 13TH AVE,11363
,,,,NO STREETNAME,,11413
,,,,ADDRESS NUMBER OUT OF RANGE BY MORE THAN 4,356 W MERRICK RD,11234
,,,,ADDRESS NUMBER OUT OF RANGE BY MORE THAN 4,2475 RIDGEWOOD RD,11385
,,,,NO STREETNAME,,11354
,,,,SPELLCHECKED WITH NO CHANGE - BROOKLYNTERMINALMARKET,69 BROOKLYN TERMINAL MARKET,11236
,,,,ADDRESS NUMBER OUT OF RANGE BY MORE THAN 4,15016 132ND AVE # 2,11434
,,,,ADDRESS NUMBER OUT OF RANGE BY MORE THAN 4,266 JERICHO TPKE,11414
,,,,ADDRESS NUMBER OUT OF RANGE BY MORE THAN 4,105 EVERGREEN AV,11385
,,,,ADDRESS NUMBER OUT OF RANGE BY MORE THAN 4,521 W 157TH ST,11236
,,,,ADDRESS NUMBER OUT OF RANGE BY MORE THAN 4,8400 72ND DR # 2,11385
,,,,ADDRESS NUMBER OUT OF RANGE BY MORE THAN 4,3064 REVIEW AVE,11101
,,,,ADDRESS NUMBER OUT OF RANGE BY MORE THAN 4,56 48TH ST,11232
,,,,STREET(S) NOT FOUND; NOT ELIGIBLE FOR SPELLCHECK,71 28A MAIN,11375
,,,,NO STREETNAME,,11234
,,,,NO STREETNAME,,11214
,1055747,221259,,,39TH RD & LITTLE NECK PKWY,11363
,,,,SPELLCHECKED WITH NO CHANGE - BROOKLYNTERMINALMARKET,44 BROOKLYN TERMINAL MARKET,11236
,,,,SPELLCHECKED WITH NO CHANGE - NEWBRIDGE,1847 NEWBRIDGE RD,11220
,,,,ADDRESS NUMBER OUT OF RANGE BY MORE THAN 4,7310 EDSALL AVE,11385
,,,,NO STREETNAME,,11236
,,,,NO STREETNAME,,11101
,,,,SPELLCHECK CARGO--> CORSO;ADDRESS NUMBER OUT OF RANGE BY MORE THAN 4,86 CARGO PLZ # 1,11430
,,,,ADDRESS NUMBER OUT OF RANGE BY MORE THAN 4,8114 CYPRESS AVE,11385
,,,,ADDRESS NUMBER OUT OF RANGE BY MORE THAN 4,8402 72ND DR,11385
,,,,ADDRESS NUMBER OUT OF RANGE BY MORE THAN 4,90 COLUMBIA,11385
,,,,ADDRESS NUMBER OUT OF RANGE BY MORE THAN 4,5580 47TH ST,11378
,,,,ADDRESS NUMBER OUT OF RANGE BY MORE THAN 4,5611 56TH DR,11378
,,,,ADDRESS NUMBER OUT OF RANGE BY MORE THAN 4,6191 5TH AVE,11220
,,,,ADDRESS NUMBER OUT OF RANGE BY MORE THAN 4,15615 146TH AVE,11434
,,,,NO STREETNAME,,11207
,,,,SPELLCHECK CROCHRN--> CROCHERON;ADDRESS NUMBER OUT OF RANGE BY MORE THAN 4,8905 CROCHRN AVE,11354
,,,,NO HOUSE NUMBER,QUEENS NY,11378
,,,,SPELLCHECKED WITH NO CHANGE - HORSESHOE,12 HORSESHOE,11223
,,,,ADDRESS NUMBER OUT OF RANGE BY MORE THAN 4,2800 W 5TH ST,11224
,,,,ADDRESS NUMBER OUT OF RANGE BY MORE THAN 4,366 UNION ST # E,11231
,,,,ADDRESS NUMBER OUT OF RANGE BY MORE THAN 4,250 MENAHAN,11385
,,,,ADDRESS NUMBER OUT OF RANGE BY MORE THAN 4,1513 MYRTLE AVE,11385
,,,,ADDRESS NUMBER OUT OF RANGE BY MORE THAN 4,150 MYRTLE AVE,11101
,,,,NO STREETNAME,,11205
,,,,NO HOUSE NUMBER,PO BOX 750941,11375
,,,,ADDRESS NUMBER OUT OF RANGE BY MORE THAN 4,84 LIBERTY AVE,11417
,,,,STREET(S) NOT FOUND; NOT ELIGIBLE FOR SPELLCHECK,78 AVENUE U # A,11223
,,,,NO STREETNAME,,11361
,,,,NO STREETNAME,,11228
,,,,NO STREETNAME,,11223
,,,,ADDRESS NUMBER OUT OF RANGE BY MORE THAN 4,15074 6TH AVE,11357
,,,,NO STREETNAME,,11375
,,,,ADDRESS NUMBER OUT OF RANGE BY MORE THAN 4,13188 AVERY AVE,11355
,,,,SPELLCHECKED WITH NO CHANGE - SPINEWAY,35-37 SPINEWAY ST,11101
,,,,NO STREETNAME,,11214
,,,,ADDRESS NUMBER OUT OF RANGE BY MORE THAN 4,1102 E TREMONT AVE,11235
,,,,NO STREETNAME,,11201
,,,,NO STREETNAME,,11201
,,,,ADDRESS NUMBER OUT OF RANGE BY MORE THAN 4,7778 50TH ST,11220
,,,,STREET(S) NOT FOUND; NOT ELIGIBLE FOR SPELLCHECK,197 AVENUE T # A,11223
,,,,NO STREETNAME,,11434
,,,,ADDRESS NUMBER OUT OF RANGE BY MORE THAN 4,140 ASH AV,11354
,,,,ADDRESS NUMBER OUT OF RANGE BY MORE THAN 4,14 S SERVICE RD # 16,11430
,,,,NO HOUSE NUMBER,JFK INTERNATIONAL AIRPORT,11430
,,,,ADDRESS NUMBER OUT OF RANGE BY MORE THAN 4,9608 72ND AVE,11375
,,,,NO STREETNAME,,11354
,,,,NO STREETNAME,,11354
,,,,NO STREETNAME,,11201
,,,,ADDRESS NUMBER OUT OF RANGE BY MORE THAN 4,605055 BAYSIDE,11360
,,,,ADDRESS NUMBER OUT OF RANGE BY MORE THAN 4,308 FEDERAL CIR,11430
,,,,NO STREETNAME,,11201
,,,,ADDRESS NUMBER OUT OF RANGE BY MORE THAN 4,50 20TH ST,11232
,,,,NO HOUSE NUMBER,JFK INTERNATIONAL AIRPORT,11430
,,,,ADDRESS NUMBER OUT OF RANGE BY MORE THAN 4,7211 AUSTIN ST,11375
,,,,SPELLCHECKED WITH NO CHANGE - JFKAIRPORT,1 J F K AIRPORT,11430
,,,,ADDRESS NUMBER OUT OF RANGE BY MORE THAN 4,18 NAVY WALK,11201
,,,,ADDRESS NUMBER OUT OF RANGE BY MORE THAN 4,1860 FLATBUSH AVE,11363
,,,,SPELLCHECKED WITH NO CHANGE - CENTRALTERMINALAREA,1 CENTRAL TERMINAL AREA,11430
,,,,ADDRESS NUMBER OUT OF RANGE BY MORE THAN 4,7TH AVE,11215
,,,,ADDRESS NUMBER OUT OF RANGE BY MORE THAN 4,3615 VERNON BLVD,11106
,,,,ADDRESS NUMBER OUT OF RANGE BY MORE THAN 4,1457 NEPONSIT AVE,11694
,,,,ADDRESS NUMBER OUT OF RANGE BY MORE THAN 4,2127 NEPTUNE AVE,11224
,,,,ADDRESS NUMBER OUT OF RANGE BY MORE THAN 4,2910 120TH ST,11354
,,,,NO HOUSE NUMBER,JFK INTERNATIONAL AIRPORT,11430
,,,,NO STREETNAME,,11220
,,,,ADDRESS NUMBER OUT OF RANGE BY MORE THAN 4,241 KEAP ST,11354
,,,,ADDRESS NUMBER OUT OF RANGE BY MORE THAN 4,4737 VAN DAM ST,11101
,,,,NO HOUSE NUMBER,PO BOX 280066,11228
,,,,ADDRESS NUMBER OUT OF RANGE BY MORE THAN 4,10371 99TH ST,11417
,,,,NO STREETNAME,,11356
,,,,ADDRESS NUMBER OUT OF RANGE BY MORE THAN 4,14436 NORTHERN BLVD,11354
,,,,NO STREETNAME,,11361
,,,,ADDRESS NUMBER OUT OF RANGE BY MORE THAN 4,13338 32ND AVE,11354
,,,,ADDRESS NUMBER OUT OF RANGE BY MORE THAN 4,172 1 BAISLEY BLVD,11434
,,,,ADDRESS NUMBER OUT OF RANGE BY MORE THAN 4,14436 NORTHERN BLVD # A,11354
,,,,ADDRESS NUMBER OUT OF RANGE BY MORE THAN 4,15671 CROSSBAY BLVD,11414
,,,,ADDRESS NUMBER OUT OF RANGE BY MORE THAN 4,5563 59TH ST,11378
,,,,ADDRESS NUMBER OUT OF RANGE BY MORE THAN 4,3125 COLLEGE POINT BLVD,11354
,,,,ADDRESS NUMBER OUT OF RANGE BY MORE THAN 4,21422 42ND AVE,11361
,,,,NO STREETNAME,,11223
,,,,ADDRESS NUMBER OUT OF RANGE BY MORE THAN 4,680 FAIRVIEW AV,11237
,,,,ADDRESS NUMBER OUT OF RANGE BY MORE THAN 4,62 HENDERSON WALK,11224
,,,,ADDRESS NUMBER OUT OF RANGE BY MORE THAN 4,14 S SERVICE RD # 17,11430
,,,,STREETS DO NOT INTERSECT,BOARDWALK & W 8TH,11214
,,,,ADDRESS NUMBER OUT OF RANGE BY MORE THAN 4,602 SURF AVE,11224
,,,,ADDRESS NUMBER OUT OF RANGE BY MORE THAN 4,1 CROSS ISLAND PLZ # 306,11422
,,,,NO HOUSE NUMBER,PO BOX 610467,11361
,,,,ADDRESS NUMBER OUT OF RANGE BY MORE THAN 4,2245 41ST AVE,11101
,,,,ADDRESS NUMBER OUT OF RANGE BY MORE THAN 4,95 WYCKOFF AV,11385
,,,,ADDRESS NUMBER OUT OF RANGE BY MORE THAN 4,58 47TH ST,11378
,,,,ADDRESS NUMBER OUT OF RANGE BY MORE THAN 4,3070 REVIEW AVE,11101
,,,,STREET(S) NOT FOUND; NOT ELIGIBLE FOR SPELLCHECK,43 27 215 PI,11361
,,,,NO STREETNAME,,11354
,,,,SPELLCHECK PORTWASHINGTON--> PRWASHINGTON;ADDRESS NUMBER OUT OF RANGE BY MORE THAN 4,1230 PORT WASHINGTON BLVD,11206
,,,,NO STREETNAME,,11359
,,,,ADDRESS NUMBER OUT OF RANGE BY MORE THAN 4,5415 35TH ST,11101
,,,,NO STREETNAME,,11354
,,,,STREETS DO NOT INTERSECT,6TH ST & 7 AVE,11215
,,,,ADDRESS NUMBER OUT OF RANGE BY MORE THAN 4,3718 RAILROAD AVE,11101
,,,,NO HOUSE NUMBER,BROOKLYN PIER J 58 2A 400,11205
,,,,NO STREETNAME,,11234
,,,,ADDRESS NUMBER OUT OF RANGE BY MORE THAN 4,5850 57TH RD,11378
,,,,ADDRESS NUMBER OUT OF RANGE BY MORE THAN 4,5200 2ND ST,11101
,,,,SPELLCHECKED WITH NO CHANGE - CENTRALTERMINALAREA,8 CENTRAL TERMINAL AREA # 3,11430
,,,,NO STREETNAME,,11237
,,,,ADDRESS NUMBER OUT OF RANGE BY MORE THAN 4,2777 FLATBUSH AVE,11234
,,,,ADDRESS NUMBER OUT OF RANGE BY MORE THAN 4,2777 FLATBUSH AVE,11234
,,,,ADDRESS NUMBER OUT OF RANGE BY MORE THAN 4,451 47TH RD,11101
,,,,ADDRESS NUMBER OUT OF RANGE BY MORE THAN 4,880 8TH AVE,11215
,,,,NO HOUSE NUMBER,MILFORD ST,11208
,,,,ADDRESS NUMBER OUT OF RANGE BY MORE THAN 4,12020 MERRICK BLVD # E,11434
,,,,SPELLCHECKED WITH NO CHANGE - CARGOSERVICE,66 CARGO SERVICE RD,11430
,,,,ADDRESS NUMBER OUT OF RANGE BY MORE THAN 4,8820 ASTORIA BLVD,11369
,,,,NO STREETNAME,,11361
,,,,NO HOUSE NUMBER,BROOKLYN NAVY YARD,11201
,,,,NO HOUSE NUMBER,PO BOX 570662,11357
,,,,STREET(S) NOT FOUND; NOT ELIGIBLE FOR SPELLCHECK,136 85 13685 41ST AVE AV,11354
,,,,SPELLCHECK CARGO--> CORSO;ADDRESS NUMBER OUT OF RANGE BY MORE THAN 4,87 CARGO PLZ # C,11430
,,,,SPELLCHECKED WITH NO CHANGE - JFKAIRPORT,11430 J F K AIRPORT,11430
,,,,ADDRESS NUMBER OUT OF RANGE BY MORE THAN 4,141 FEDERAL CIR,11430
,,,,ADDRESS NUMBER OUT OF RANGE BY MORE THAN 4,141 1 32 AVE,11354
,,,,STREET(S) NOT FOUND; NOT ELIGIBLE FOR SPELLCHECK,12 40C CLINTONVILLE,11357
,,,,ADDRESS NUMBER OUT OF RANGE BY MORE THAN 4,4815 NORTHERN BLVD,11101
,,,,NO HOUSE NUMBER,JFK INTERNATIONAL AIRPORT,11430
,,,,ADDRESS NUMBER OUT OF RANGE BY MORE THAN 4,14614 NORTHERN BLVD,11354
,,,,ADDRESS NUMBER OUT OF RANGE BY MORE THAN 4,5025 NORTHERN BLVD,11101
,,,,ADDRESS NUMBER OUT OF RANGE BY MORE THAN 4,1609 REDFERN AVE,11691
,,,,NO STREETNAME,,11361
,,,,ADDRESS NUMBER OUT OF RANGE BY MORE THAN 4,50 TAAFFE PL,11104
,,,,ADDRESS NUMBER OUT OF RANGE BY MORE THAN 4,2236 HARMAN ST,11385
,,,,ADDRESS NUMBER OUT OF RANGE BY MORE THAN 4,50 20TH ST,11232
,,,,ADDRESS NUMBER OUT OF RANGE BY MORE THAN 4,4 48TH AVE,11101
,,,,STREET(S) NOT FOUND; NOT ELIGIBLE FOR SPELLCHECK,150 43-A 14 AV,11357
,,,,NO STREETNAME,,11101
,,,,ADDRESS NUMBER OUT OF RANGE BY MORE THAN 4,35 DITMARS,11105
,,,,ADDRESS NUMBER OUT OF RANGE BY MORE THAN 4,103 SKILLMAN,11201
,,,,NO STREETNAME,,11357
,,,,ADDRESS NUMBER OUT OF RANGE BY MORE THAN 4,4008 UNION ST,11354
,,,,NO HOUSE NUMBER,PO BOX 140116,11414
,,,,ADDRESS NUMBER OUT OF RANGE BY MORE THAN 4,154 MORGAN AVE,11385
,,,,ADDRESS NUMBER OUT OF RANGE BY MORE THAN 4,20487 31ST ST,11102
,,,,ADDRESS NUMBER OUT OF RANGE BY MORE THAN 4,14 BEACH CHANNEL DR # 18,11691
,,,,ADDRESS NUMBER OUT OF RANGE BY MORE THAN 4,13188 AVERY AVE,11355
,,,,NO STREETNAME,,11235
,,,,ADDRESS NUMBER OUT OF RANGE BY MORE THAN 4,4139 KISSENA BLVD,11355
,,,,NO HOUSE NUMBER,SCHERMERHORN ST,11201
,,,,ADDRESS NUMBER OUT OF RANGE BY MORE THAN 4,48 1 58 RD,11378
,,,,ADDRESS NUMBER OUT OF RANGE BY MORE THAN 4,2350 COYLE ST,11229
,,,,NO STREETNAME,,11201
,,,,ADDRESS NUMBER OUT OF RANGE BY MORE THAN 4,1 CROSS ISLAND PLZ # 216,11422
,,,,NO HOUSE NUMBER,FORT TOTT,11361
,,,,NO HOUSE NUMBER,BLDG 610,11359
,,,,ADDRESS NUMBER OUT OF RANGE BY MORE THAN 4,13 42ND ST # 5,11232
,,,,ADDRESS NUMBER OUT OF RANGE BY MORE THAN 4,5725 SHORE FRONT PKWY,11692
,,,,NO STREETNAME,,11231
,,,,ADDRESS NUMBER OUT OF RANGE BY MORE THAN 4,7200 DOUGLASTON PKWY,11362
,,,,STREETS DO NOT INTERSECT,FLATLANDS AV & SHEFFIELD AVE,11236
,,,,ADDRESS NUMBER OUT OF RANGE BY MORE THAN 4,351 126TH ST,11356
,,,,NO STREETNAME,,11422
,,,,ADDRESS NUMBER OUT OF RANGE BY MORE THAN 4,16801 ROCKAWAY BLVD # 204,11434
,,,,NO STREETNAME,,11223
,,,,ADDRESS NUMBER OUT OF RANGE BY MORE THAN 4,1 CROSS ISLAND PLZ # 306,11422
,,,,NO STREETNAME,,11375
,,,,NO HOUSE NUMBER,JFK INTERNATIONAL AIRPORT,11430
,,,,NO HOUSE NUMBER,JFK INTERNATIONAL AIRPORT,11430
,,,,NO STREETNAME,,11208
,,,,ADDRESS NUMBER OUT OF RANGE BY MORE THAN 4,131 AVERY AVE # 68,11355
,,,,NO STREETNAME,,11224
,,,,NO STREETNAME,,11355
,,,,ADDRESS NUMBER OUT OF RANGE BY MORE THAN 4,220 INGRAHAM ST,11237
,,,,SPELLCHECKED WITH NO CHANGE - STREET,114TH ST,11356
,,,,ADDRESS NUMBER OUT OF RANGE BY MORE THAN 4,5951 QUEENS MIDTOWN EXPY,11378
,,,,NO STREETNAME,,11234
,,,,ADDRESS NUMBER OUT OF RANGE BY MORE THAN 4,5951 QUEENS MIDTOWN EXPY,11378
,,,,ADDRESS NUMBER OUT OF RANGE BY MORE THAN 4,300 UNION AVE,11378
,,,,NO HOUSE NUMBER,JFK INTERNATIONAL AIRPORT,11430
,,,,NO STREETNAME,,11215
,,,,ADDRESS NUMBER OUT OF RANGE BY MORE THAN 4,2916 120TH ST,11354
,,,,ADDRESS NUMBER OUT OF RANGE BY MORE THAN 4,2916 120TH ST,11354
,,,,NO STREETNAME,,11215
,,,,ADDRESS NUMBER OUT OF RANGE BY MORE THAN 4,80 MCGUINNESS BLVD S,11222
,,,,NO HOUSE NUMBER,PO BOX 541354,11354
,,,,ADDRESS NUMBER OUT OF RANGE BY MORE THAN 4,549 BORDEN AVE,11101
,,,,NO HOUSE NUMBER,JFK INTERNATIONAL AIRPORT,11430
,,,,NO STREETNAME,,11201
,,,,ADDRESS NUMBER OUT OF RANGE BY MORE THAN 4,10522 GLENWOOD RD,11236
,,,,NO HOUSE NUMBER,PO BOX 170573,11217
,,,,NO HOUSE NUMBER,PO BOX 5264,11105
,,,,ADDRESS NUMBER OUT OF RANGE BY MORE THAN 4,11290 70TH AVE,11375
,,,,NO STREETNAME,,11370
,,,,ADDRESS NUMBER OUT OF RANGE BY MORE THAN 4,5415 35TH ST,11101
,,,,NO STREETNAME,,11362
,,,,ADDRESS NUMBER OUT OF RANGE BY MORE THAN 4,155 ASHLAND PL,11201
,,,,ADDRESS NUMBER OUT OF RANGE BY MORE THAN 4,1781 HAZEN ST,11370
,,,,NO STREETNAME,,11354
,,,,NO STREETNAME,,11101
,,,,NO STREETNAME,,11357
,,,,ADDRESS NUMBER OUT OF RANGE BY MORE THAN 4,1 CROSS ISLAND PLZ,11422
,,,,NO STREETNAME,,11201
,,,,ADDRESS NUMBER OUT OF RANGE BY MORE THAN 4,2555 MCDONALD AVE,11223
,,,,NO STREETNAME,,11214
,,,,ADDRESS NUMBER OUT OF RANGE BY MORE THAN 4,120 PARK AVE,11205
,,,,SPELLCHECKED WITH NO CHANGE - INTERNATLARPRT,23079 INTERNATL ARPRT CTR #245,11413
,,,,NO HOUSE NUMBER,PO BOX 610052,11361
,,,,NO HOUSE NUMBER,JFK INTERNATIONAL AIRPORT,11430
,,,,ADDRESS NUMBER OUT OF RANGE BY MORE THAN 4,1514 E 72ND ST,11234
,,,,NO STREETNAME,,11385
,,,,ADDRESS NUMBER OUT OF RANGE BY MORE THAN 4,445 PARK AVE # 2,11205
,,,,NO HOUSE NUMBER,PO BOX 5121,11105
,,,,NO HOUSE NUMBER,JFK INTERNATIONAL AIRPORT,11430
,,,,SPELLCHECKED WITH NO CHANGE - BROOKLYNTERMINALMARKET,17 BROOKLYN TERMINAL MARKET,11236
,,,,ADDRESS NUMBER OUT OF RANGE BY MORE THAN 4,48 1ST AVE,11232
,,,,ADDRESS NUMBER OUT OF RANGE BY MORE THAN 4,4255 MAIN ST,11355
,,,,STREET(S) NOT FOUND; NOT ELIGIBLE FOR SPELLCHECK,36 3C COLLEGE POINT BLVD,11354
,,,,NO HOUSE NUMBER,PO BOX 80124,11208
,,,,STREET(S) NOT FOUND; NOT ELIGIBLE FOR SPELLCHECK,36 22-A FRANCIS LEWIS BLVD,11354
,,,,NO STREETNAME,76 FRONT ST,11201
,,,,NO STREETNAME,,11205
,,,,ADDRESS NUMBER OUT OF RANGE BY MORE THAN 4,1510 PAERDEGAT AVE N,11236
,,,,ADDRESS NUMBER OUT OF RANGE BY MORE THAN 4,1330 PAERDEGAT AVE N,11236
,,,,SPELLCHECKED WITH NO CHANGE - BROOKLYNTERMINALMARKET,59 BROOKLYN TERMINAL MARKET,11236
,,,,ADDRESS NUMBER OUT OF RANGE BY MORE THAN 4,77 N BOUNDARY RD,11430
,,,,ADDRESS NUMBER OUT OF RANGE BY MORE THAN 4,43 VERNON BLVD # 9,11101
,,,,NO STREETNAME,,11201
,,,,ADDRESS NUMBER OUT OF RANGE BY MORE THAN 4,3670 COLLEGE POINT BLVD,11354
,,,,ADDRESS NUMBER OUT OF RANGE BY MORE THAN 4,983 KNICKERBOCKER AVE,11207
,,,,ADDRESS NUMBER OUT OF RANGE BY MORE THAN 4,141 FEDERAL CIR,11430
,,,,NO STREETNAME,,11385
,,,,NO STREETNAME,,11220
,,,,ADDRESS NUMBER OUT OF RANGE BY MORE THAN 4,530 CONDUIT BLVD,11208
,,,,SPELLCHECKED WITH NO CHANGE - NEWBRIDGE,2004 NEWBRIDGE RD,11201
,,,,NO STREETNAME,,11413
,,,,SPELLCHECKED WITH NO CHANGE - CENTRALTERMINALAREA,5 CENTRAL TERMINAL AREA,11430
,,,,NO HOUSE NUMBER,JFK INTERNATIONAL AIRPORT,11430
,,,,NO STREETNAME,,11414
,,,,NO HOUSE NUMBER,JFK INTERNATIONAL AIRPORT,11430
,,,,NO HOUSE NUMBER,JFK INTERNATIONAL AIRPORT,11430
,,,,ADDRESS NUMBER OUT OF RANGE BY MORE THAN 4,4035 21ST AVE # A,11105
,,,,ADDRESS NUMBER OUT OF RANGE BY MORE THAN 4,4255 MAIN ST,11355
,,,,ADDRESS NUMBER OUT OF RANGE BY MORE THAN 4,3200 FLATBUSH AVE,11234
,,,,NO STREETNAME,21 FRONT ST,11201
,,,,ADDRESS NUMBER OUT OF RANGE BY MORE THAN 4,1 METROTECH CTR N # 1000,11201
,,,,NO HOUSE NUMBER,PO BOX 150429,11215
,,,,ADDRESS NUMBER OUT OF RANGE BY MORE THAN 4,10 -44 CENTRAL AVE,11691
,,,,NO STREETNAME,,11214
,,,,ADDRESS NUMBER OUT OF RANGE BY MORE THAN 4,13024 S CONDUIT AVE,11430
,,,,SPELLCHECK UNIONHILL--> UNIONHALL;ADDRESS NUMBER OUT OF RANGE BY MORE THAN 4,209 UNION HILL RD,11215
,,,,STREET(S) NOT FOUND; NOT ELIGIBLE FOR SPELLCHECK,45-28 S1,11101
,,,,ADDRESS NUMBER OUT OF RANGE BY MORE THAN 4,854 E 65TH ST,11234
,,,,ADDRESS NUMBER OUT OF RANGE BY MORE THAN 4,2510 14TH ST,11102
,,,,NO HOUSE NUMBER,JFK INTERNATIONAL AIRPORT,11430
,,,,NO STREETNAME,,11211
,,,,ADDRESS NUMBER OUT OF RANGE BY MORE THAN 4,369 KNICKERBOCKER AV,11385
,,,,NO STREETNAME,,11201
,,,,NO STREETNAME,,11211
,,,,NO HOUSE NUMBER,JFK INTERNATIONAL AIRPORT,11430
,,,,NO HOUSE NUMBER,JFK INTERNATIONAL AIRPORT,11430
,,,,ADDRESS NUMBER OUT OF RANGE BY MORE THAN 4,4 BROOKLYN AV,11361
,,,,ADDRESS NUMBER OUT OF RANGE BY MORE THAN 4,132 SAINT NICHOLAS AV,11378
,,,,ADDRESS NUMBER OUT OF RANGE BY MORE THAN 4,13336 WHITESTONE EXPY,11354
,,,,NO STREETNAME,,11208
,,,,ADDRESS NUMBER OUT OF RANGE BY MORE THAN 4,420 NEVINS ST,11217
,,,,NO STREETNAME,,11354
,,,,ADDRESS NUMBER OUT OF RANGE BY MORE THAN 4,22216 S CONDUIT AVE,11413
,,,,NO STREETNAME,,11354
,,,,NO HOUSE NUMBER,JFK INTERNATIONAL AIRPORT,11430
,,,,ADDRESS NUMBER OUT OF RANGE BY MORE THAN 4,201 STATE RD,11691
,,,,NO STREETNAME,,11414
,,,,STREETS DO NOT INTERSECT,VERNON BLVD & 30TH,11106
,,,,STREET(S) NOT FOUND; NOT ELIGIBLE FOR SPELLCHECK,11701 PARK LINE S,11235
,,,,ADDRESS NUMBER OUT OF RANGE BY MORE THAN 4,519 KNICKERBOCKER AV,11385
,,,,NO STREETNAME,,11201
,,,,ADDRESS NUMBER OUT OF RANGE BY MORE THAN 4,808 QUEENS PLZ S,11101
,,,,STREET(S) NOT FOUND; NOT ELIGIBLE FOR SPELLCHECK,41 9 UN,11354
,,,,SPELLCHECK JAFFREY--> JEFFREY;ADDRESS NUMBER OUT OF RANGE BY MORE THAN 4,140 JAFFREY ST,11235
,,,,NO STREETNAME,,11207
,,,,NO STREETNAME,,11105
,,,,NO STREETNAME,,11361
,,,,ADDRESS NUMBER OUT OF RANGE BY MORE THAN 4,61 GRACE COURT ALY,11201
,,,,ADDRESS NUMBER OUT OF RANGE BY MORE THAN 4,21293 26TH AVE,11360
,,,,NO HOUSE NUMBER,JFK INTERNATIONAL AIRPORT,11430
,,,,NO STREETNAME,,11434
,,,,NO STREETNAME,,11436
,,,,SPELLCHECK ROCKFORD--> ROCKPORT;ADDRESS NUMBER OUT OF RANGE BY MORE THAN 4,148 12 ROCKFORD BLVD,11436
,,,,ADDRESS NUMBER OUT OF RANGE BY MORE THAN 4,6034 ELIOT AVE,11378
,,,,ADDRESS NUMBER OUT OF RANGE BY MORE THAN 4,13320 WHITESTONE EXPY,11354
,,,,ADDRESS NUMBER OUT OF RANGE BY MORE THAN 4,14935 177TH ST # 101,11434
,,,,ADDRESS NUMBER OUT OF RANGE BY MORE THAN 4,5640 43RD ST,11378
,,,,NO HOUSE NUMBER,PO BOX 605046,11360
,,,,NO HOUSE NUMBER,PIER 1,11201
,,,,ADDRESS NUMBER OUT OF RANGE BY MORE THAN 4,341 KNICKERBOCKER AV,11385
,,,,ADDRESS NUMBER OUT OF RANGE BY MORE THAN 4,647 HICKS ST,11231
,,,,ADDRESS NUMBER OUT OF RANGE BY MORE THAN 4,1242 SHORE PKWY,11214
,,,,ADDRESS NUMBER OUT OF RANGE BY MORE THAN 4,1244 SHORE PKWY,11214
,,,,ADDRESS NUMBER OUT OF RANGE BY MORE THAN 4,21 NIGHTINGALE AVE,11201
,,,,NO HOUSE NUMBER,JFK INTERNATIONAL AIRPORT,11430
,,,,ADDRESS NUMBER OUT OF RANGE BY MORE THAN 4,2460 QUEENS PLZ S # 502,11101
,,,,NO STREETNAME,,11357
,,,,ADDRESS NUMBER OUT OF RANGE BY MORE THAN 4,586 CONDUIT BLVD,11208
,,,,NO STREETNAME,,11237
,,,,ADDRESS NUMBER OUT OF RANGE BY MORE THAN 4,3727 NORTHERN BLVD,11101
,,,,NO HOUSE NUMBER,PO BOX 630294,11363
,,,,ADDRESS NUMBER OUT OF RANGE BY MORE THAN 4,261 N BOUNDARY RD # 75,11430
,,,,NO STREETNAME,,11201
,,,,ADDRESS NUMBER OUT OF RANGE BY MORE THAN 4,3500 48TH ST,11101
,,,,ADDRESS NUMBER OUT OF RANGE BY MORE THAN 4,1 CROSS ISLAND PLZ # 216,11422
,,,,ADDRESS NUMBER OUT OF RANGE BY MORE THAN 4,1223 E 96TH ST,11236
,,,,NO STREETNAME,,11413
,,,,NO HOUSE NUMBER,JFK INTERNATIONAL AIRPORT,11430
,,,,ADDRESS NUMBER OUT OF RANGE BY MORE THAN 4,3213 BEACH CHANNEL DR,11691
,,,,ADDRESS NUMBER OUT OF RANGE BY MORE THAN 4,160 OAK ST,11222
,,,,NO STREETNAME,,11354
,,,,NO HOUSE NUMBER,JFK INTERNATIONAL AIRPORT,11430
,,,,ADDRESS NUMBER OUT OF RANGE BY MORE THAN 4,269 N SERVICE RD,11430
,,,,NO HOUSE NUMBER,JFK INTERNATIONAL AIRPORT,11430
,,,,STREETS DO NOT INTERSECT,50TH & 1ST AVE,11215
,,,,NO STREETNAME,,11201
,,,,ADDRESS NUMBER OUT OF RANGE BY MORE THAN 4,13136 20TH AVE,11356
,,,,ADDRESS NUMBER OUT OF RANGE BY MORE THAN 4,2244 MILL AVE,11234
,,,,STREET(S) NOT FOUND; NOT ELIGIBLE FOR SPELLCHECK,12 RD,11357
,,,,ADDRESS NUMBER OUT OF RANGE BY MORE THAN 4,172 BOGART,11385
,,,,ADDRESS NUMBER OUT OF RANGE BY MORE THAN 4,1558 127TH ST,11356
,,,,ADDRESS NUMBER OUT OF RANGE BY MORE THAN 4,6502 OTTO RD,11385
,,,,NO HOUSE NUMBER,JFK INTERNATIONAL AIRPORT,11430
,,,,ADDRESS NUMBER OUT OF RANGE BY MORE THAN 4,3079 48TH AVE,11101
,,,,NO STREETNAME,,11222
,,,,ADDRESS NUMBER OUT OF RANGE BY MORE THAN 4,8006 115TH AVENUE APARTMENT 4,11414
,,,,ADDRESS NUMBER OUT OF RANGE BY MORE THAN 4,12 150TH ST,11357
,,,,SPELLCHECKED WITH NO CHANGE - HANGAR,141 W HANGAR RD,11430
,,,,NO HOUSE NUMBER,PO BOX 920334,11692
,,,,ADDRESS NUMBER OUT OF RANGE BY MORE THAN 4,1188 METROPOLITAN AVE,11378
,,,,ADDRESS NUMBER OUT OF RANGE BY MORE THAN 4,575 MESEROLE ST,11237
,,,,ADDRESS NUMBER OUT OF RANGE BY MORE THAN 4,3 GALASSO PL,11378
,,,,ADDRESS NUMBER OUT OF RANGE BY MORE THAN 4,93 ROSS ST,11434
,,,,NO STREETNAME,,11354
,,,,STREET(S) NOT FOUND; NOT ELIGIBLE FOR SPELLCHECK,5902 AVENUE N # A,11234
,,,,NO STREETNAME,,11215
,,,,ADDRESS NUMBER OUT OF RANGE BY MORE THAN 4,30 BORDEN AVE,11101
,,,,SPELLCHECKED WITH NO CHANGE - CENTRALTERMINALAREA,1 CENTRAL TERMINAL AREA,11430
,,,,ADDRESS NUMBER OUT OF RANGE BY MORE THAN 4,445 PARK AVE,11205
,,,,ADDRESS NUMBER OUT OF RANGE BY MORE THAN 4,1 CROSS ISLAND PLZ # LL1,11422
,,,,ADDRESS NUMBER OUT OF RANGE BY MORE THAN 4,1 PIERREPONT PLZ # 10,11201
,,,,NO STREETNAME,,11201
,,,,STREETS NOT LONG ENOUGH TO SPELLCHECK,27 5TH & 6TH AVENUE,11436
,,,,ADDRESS NUMBER OUT OF RANGE BY MORE THAN 4,2829 OCEAN PKWY,11363
,,,,NO HOUSE NUMBER,FOOT OF 49,11220
,,,,STREET(S) NOT FOUND; NOT ELIGIBLE FOR SPELLCHECK,370 AVENUE U # A,11223
,,,,SPELLCHECKED WITH NO CHANGE - APARKLANE,39 A PARK LANE PL,11354
,,,,ADDRESS NUMBER OUT OF RANGE BY MORE THAN 4,3790 RAILROAD AVE,11101
,,,,NO STREETNAME,,11236
,,,,NO STREETNAME,,11357
,,,,ADDRESS NUMBER OUT OF RANGE BY MORE THAN 4,538 JOHNSON AV,11385
,,,,NO STREETNAME,,11201
,,,,NO STREETNAME,,11362
,,,,STREET(S) NOT FOUND; NOT ELIGIBLE FOR SPELLCHECK,198 8B 33 AVE,11354
,,,,NO STREETNAME,,11223
,,,,NO HOUSE NUMBER,PO BOX 140560,11414
,,,,STREET(S) NOT FOUND; NOT ELIGIBLE FOR SPELLCHECK,149 DUST 28,11357
,,,,ADDRESS NUMBER OUT OF RANGE BY MORE THAN 4,6341 77TH,11385
,,,,ADDRESS NUMBER OUT OF RANGE BY MORE THAN 4,77 N BOUNDARY RD,11430
,,,,NO STREETNAME,151 FRONT ST,11201
,,,,NO STREETNAME,,11201
,,,,ADDRESS NUMBER OUT OF RANGE BY MORE THAN 4,247 PROSPECT AVE,11357
,,,,NO HOUSE NUMBER,PO BOX 604529,11360
,,,,SPELLCHECKED WITH NO CHANGE - CENTRALTERMAREA,4 CENTRAL TERM AREA # 4610-0,11430
,,,,STREETS DO NOT INTERSECT,143 & 85 RD,11434
,,,,NO STREETNAME,,11201
,,,,STREET(S) NOT FOUND; NOT ELIGIBLE FOR SPELLCHECK,190 AVENUE U # A,11223
,,,,ADDRESS NUMBER OUT OF RANGE BY MORE THAN 4,2561 49TH AVE,11101
,,,,NO STREETNAME,,11101
,,,,SPELLCHECKED WITH NO CHANGE - INTERNATIONALAIRPORTCE,23059 INTERNATIONAL AIRPORT CE,11413
,,,,ADDRESS NUMBER OUT OF RANGE BY MORE THAN 4,4257 MAIN ST,11355
,,,,ADDRESS NUMBER OUT OF RANGE BY MORE THAN 4,220 INGRAHAM ST,11237
,,,,ADDRESS NUMBER OUT OF RANGE BY MORE THAN 4,2305 STEINWAY ST,11235
,,,,NO STREETNAME,,11201
,,,,ADDRESS NUMBER OUT OF RANGE BY MORE THAN 4,1031 1ST AVE,11236
,,,,NO STREETNAME,,11207
,,,,ADDRESS NUMBER OUT OF RANGE BY MORE THAN 4,1300 FLUSHING AVE,11385
,,,,ADDRESS NUMBER OUT OF RANGE BY MORE THAN 4,80 N BOUNDARY RD # 1,11430
,,,,ADDRESS NUMBER OUT OF RANGE BY MORE THAN 4,3380 QUEENS BLVD,11101
,,,,ADDRESS NUMBER OUT OF RANGE BY MORE THAN 4,1ST AVE,11215
,,,,NO STREETNAME,,11105
,,,,ADDRESS NUMBER OUT OF RANGE BY MORE THAN 4,61ST AVE,11361
,,,,NO STREETNAME,,11101
,,,,STREETS NOT LONG ENOUGH TO SPELLCHECK,44TH DR & EAST RIV,11101
,1050651,216870,,,NORTHERN BLVD & 221ST ST,11361
,,,,ADDRESS NUMBER OUT OF RANGE BY MORE THAN 4,445 47TH RD,11101
,,,,ADDRESS NUMBER OUT OF RANGE BY MORE THAN 4,39 47 AV,11104
,,,,NO STREETNAME,,11208
,,,,ADDRESS NUMBER OUT OF RANGE BY MORE THAN 4,14 PAERDEGAT,11236
,,,,SPELLCHECK PRICE--> PRINCE;ADDRESS NUMBER OUT OF RANGE BY MORE THAN 4,33575 PRICE ST,11354
,,,,ADDRESS NUMBER OUT OF RANGE BY MORE THAN 4,4540 CENTER BLVD,11109
,,,,ADDRESS NUMBER OUT OF RANGE BY MORE THAN 4,4540 CENTER BLVD,11109
,,,,ADDRESS NUMBER OUT OF RANGE BY MORE THAN 4,4540 CENTER BLVD,11109
,,,,ADDRESS NUMBER OUT OF RANGE BY MORE THAN 4,4540 CENTER BLVD,11109
,,,,ADDRESS NUMBER OUT OF RANGE BY MORE THAN 4,1830 132ND ST,11356
,,,,SPELLCHECKED WITH NO CHANGE - BROOKLYNNAVYYARD,275 BROOKLYN NAVY YARD # 406,11205
,,,,NO STREETNAME,,11694
,,,,ADDRESS NUMBER OUT OF RANGE BY MORE THAN 4,45B CLINTON AVE,11430
,,,,NO STREETNAME,,11201
,,,,ADDRESS NUMBER OUT OF RANGE BY MORE THAN 4,14935 177TH ST # 102,11434
,,,,NO STREETNAME,,11214
,,,,NO STREETNAME,,11359
,,,,NO STREETNAME,,11201
,,,,ADDRESS NUMBER OUT OF RANGE BY MORE THAN 4,162 POWELLS COVE BLVD,11357
,,,,NO STREETNAME,,11223
,,,,STREET(S) NOT FOUND; NOT ELIGIBLE FOR SPELLCHECK,13 56 145 WTSTN,11361
,,,,ADDRESS NUMBER OUT OF RANGE BY MORE THAN 4,15167 N CONDUIT AVE,11434
,,,,STREET(S) NOT FOUND; NOT ELIGIBLE FOR SPELLCHECK,150 51C 14 AV,11357
,,,,ADDRESS NUMBER OUT OF RANGE BY MORE THAN 4,2048 129TH ST # 1,11356
,,,,ADDRESS NUMBER OUT OF RANGE BY MORE THAN 4,3227 BEACH CHANNEL DR,11691
,,,,ADDRESS NUMBER OUT OF RANGE BY MORE THAN 4,220 INGRAHAM ST # 3,11237
,,,,NO HOUSE NUMBER,BKLYN NAVY YARD,11201
,,,,NO HOUSE NUMBER,PO BOX 4308,11104
,,,,SPELLCHECKED WITH NO CHANGE - BROOKLYNTERMINALMARKET,38 BROOKLYN TERMINAL MARKET,11236
,,,,NO STREETNAME,,11105
,,,,STREET(S) NOT FOUND; NOT ELIGIBLE FOR SPELLCHECK,150 55-B 14 AV,11357
,,,,ADDRESS NUMBER OUT OF RANGE BY MORE THAN 4,1 CROSS ISLAND PLZ # 127,11422
,,,,ADDRESS NUMBER OUT OF RANGE BY MORE THAN 4,15104 14TH AVE,11357
,,,,NO HOUSE NUMBER,PO BOX 570095,11357
,,,,ADDRESS NUMBER OUT OF RANGE BY MORE THAN 4,1101 FORBELL ST # 1O,11208
,,,,NO STREETNAME,,11214
,,,,NO HOUSE NUMBER,PO BOX 140548,11214
,,,,ADDRESS NUMBER OUT OF RANGE BY MORE THAN 4,808 QUEENS PLZ S,11101
,,,,NO STREETNAME,,11354
,,,,SPELLCHECKED WITH NO CHANGE - ROUTE,109-23 71 ROUTE,11375
,,,,ADDRESS NUMBER OUT OF RANGE BY MORE THAN 4,16801 ROCKAWAY BLVD # 200,11434
,,,,ADDRESS NUMBER OUT OF RANGE BY MORE THAN 4,107 LIBERTY AVE # 31,11417
,,,,ADDRESS NUMBER OUT OF RANGE BY MORE THAN 4,249 NORTHERN BLVD # 2E,11362
,,,,ADDRESS NUMBER OUT OF RANGE BY MORE THAN 4,241 140TH AVE # 30,11422
,,,,ADDRESS NUMBER OUT OF RANGE BY MORE THAN 4,218 NORTHERN BLVD # 14,11361
,,,,NO STREETNAME,,11354
,,,,NO STREETNAME,,11235
,,,,SPELLCHECKED WITH NO CHANGE - OYSTERBAY,400 S OYSTER BAY RD,11228
,,,,NO HOUSE NUMBER,PO BOX 110552,11211
,,,,ADDRESS NUMBER OUT OF RANGE BY MORE THAN 4,10 46 AVE,11101
,,,,ADDRESS NUMBER OUT OF RANGE BY MORE THAN 4,5602 MASPETH AVE,11378
,,,,ADDRESS NUMBER OUT OF RANGE BY MORE THAN 4,3060 REVIEW AVE,11101
,,,,STREET(S) NOT FOUND; NOT ELIGIBLE FOR SPELLCHECK,38 9 UN,11354
,,,,ADDRESS NUMBER OUT OF RANGE BY MORE THAN 4,70 HAMILTON AVE,11231
,,,,ADDRESS NUMBER OUT OF RANGE BY MORE THAN 4,6103 STRICKLAND AVE,11234
,,,,NO HOUSE NUMBER,PO BOX 297083,11229
,,,,SPELLCHECKED WITH NO CHANGE - JFKINTLAIRPORT,53 JFK INTL AIRPORT # 1,11430
,,,,ADDRESS NUMBER OUT OF RANGE BY MORE THAN 4,2320 AVE U,11101
,,,,NO STREETNAME,,11385
,,,,ADDRESS NUMBER OUT OF RANGE BY MORE THAN 4,12614 MERRICK BLVD # E,11434
,,,,NO STREETNAME,,11205
,,,,ADDRESS NUMBER OUT OF RANGE BY MORE THAN 4,5904 13TH AVE,11354
,,,,ADDRESS NUMBER OUT OF RANGE BY MORE THAN 4,7200 DOUGLASTON PKWY,11362
,,,,ADDRESS NUMBER OUT OF RANGE BY MORE THAN 4,3570 43RD ST,11101
,,,,ADDRESS NUMBER OUT OF RANGE BY MORE THAN 4,3110 WHITESTONE EXPY,11354
,,,,NO STREETNAME,,11201
,,,,NO STREETNAME,,11223
,,,,ADDRESS NUMBER OUT OF RANGE BY MORE THAN 4,174 BOGART,11385
,,,,NO STREETNAME,,11217
,,,,NO STREETNAME,,11224
,,,,NO STREETNAME,,11357
,,,,NO STREETNAME,,11235
,,,,ADDRESS NUMBER OUT OF RANGE BY MORE THAN 4,857 HART,11385
,,,,ADDRESS NUMBER OUT OF RANGE BY MORE THAN 4,217 WYCKOFF AVE,11385
,,,,NO STREETNAME,,11201
,,,,NO STREETNAME,,11361
,,,,ADDRESS NUMBER OUT OF RANGE BY MORE THAN 4,5602 ARNOLD AVE,11378
,,,,NO STREETNAMES,155TH ST & THE BOARDWALK,11694
,,,,NO HOUSE NUMBER,HAZEN ST,11370
,,,,ADDRESS NUMBER OUT OF RANGE BY MORE THAN 4,4309 MAIN ST,11355
,,,,ADDRESS NUMBER OUT OF RANGE BY MORE THAN 4,80 SKILLMAN,11201
,,,,NO HOUSE NUMBER,PO BOX 350070,11235
,,,,ADDRESS NUMBER OUT OF RANGE BY MORE THAN 4,1510 PAERDEGAT AVE N,11236
,,,,ADDRESS NUMBER OUT OF RANGE BY MORE THAN 4,923 KINGS HWY,11223
,,,,ADDRESS NUMBER OUT OF RANGE BY MORE THAN 4,570 SUNRISE HWY,11414
,,,,SPELLCHECKED WITH NO CHANGE - OLDBROOK,17 OLD BROOK RD,11201
,,,,ADDRESS NUMBER OUT OF RANGE BY MORE THAN 4,16554 BAISLEY BLVD,11434
,,,,NO STREETNAME,,11385
,,,,NO STREETNAME,,11694
,,,,ADDRESS NUMBER OUT OF RANGE BY MORE THAN 4,25301 ROCKAWAY BLVD,11422
,,,,ADDRESS NUMBER OUT OF RANGE BY MORE THAN 4,10322 ROCKAWAY BEACH BLVD,11694
,,,,NO STREETNAME,,11101
,,,,SPELLCHECKED WITH NO CHANGE - HANGAR,75 N HANGAR RD # 216,11430
,,,,ADDRESS NUMBER OUT OF RANGE BY MORE THAN 4,890 WYCKOFF AVE,11385
,,,,ADDRESS NUMBER OUT OF RANGE BY MORE THAN 4,102 SUYDAM ST,11385
,,,,ADDRESS NUMBER OUT OF RANGE BY MORE THAN 4,48 1ST AVE,11232
,,,,NO STREETNAME,,11201
,,,,NO STREETNAME,,11354
,,,,NO HOUSE NUMBER,PO BOX 1322,11101
,,,,NO STREETNAME,,11361
,,,,NO STREETNAME,,11361
,,,,NO HOUSE NUMBER,PO BOX 340017,11234
,,,,ADDRESS NUMBER OUT OF RANGE BY MORE THAN 4,3080 REVIEW AVE,11101
,,,,ADDRESS NUMBER OUT OF RANGE BY MORE THAN 4,1919 HAZEN ST,11370
,,,,SPELLCHECKED WITH NO CHANGE - GREATNECK,185 GREAT NECK RD,11414
,,,,NO HOUSE NUMBER,PO BOX 610239,11361
,,,,NO STREETNAME,,11201
,,,,NO STREETNAME,,11361
,,,,NO STREETNAME,,11209
,,,,ADDRESS NUMBER OUT OF RANGE BY MORE THAN 4,36 38TH RD,11363
,,,,ADDRESS NUMBER OUT OF RANGE BY MORE THAN 4,12 20TH ST,11232
,,,,ADDRESS NUMBER OUT OF RANGE BY MORE THAN 4,56 48TH ST,11232
,,,,ADDRESS NUMBER OUT OF RANGE BY MORE THAN 4,3708 37TH ST,11101
,,,,ADDRESS NUMBER OUT OF RANGE BY MORE THAN 4,55 6 MYRTLE AVE,11385
,,,,ADDRESS NUMBER OUT OF RANGE BY MORE THAN 4,602 JOHNSON AV,11385
,,,,NO STREETNAME,,11357
,,,,ADDRESS NUMBER OUT OF RANGE BY MORE THAN 4,1828 42ND ST,11105
,,,,ADDRESS NUMBER OUT OF RANGE BY MORE THAN 4,1552 VAN SICLEN AVE,11239
,,,,ADDRESS NUMBER OUT OF RANGE BY MORE THAN 4,658 MESEROLE AVE,11222
,,,,NO STREETNAME,,11235
,,,,NO STREETNAME,,11201
,,,,ADDRESS NUMBER OUT OF RANGE BY MORE THAN 4,9607 72ND AVE,11375
,,,,NO STREETNAME,,11209
,,,,NO HOUSE NUMBER,FOOT OF 49,11232
,,,,NO STREETNAME,,11236
,,,,ADDRESS NUMBER OUT OF RANGE BY MORE THAN 4,3830 150TH ST,11354
,,,,NO HOUSE NUMBER,FLUSHING MEADOW PARK,11354
,,,,ADDRESS NUMBER OUT OF RANGE BY MORE THAN 4,1 CROSS ISLAND PLZ # 208A,11422
,,,,NO STREETNAME,,11357
,,,,NO STREETNAME,,11357
,,,,NO STREETNAME,,11211
,,,,NO HOUSE NUMBER,ROCKAWAY BLVD,11434
,,,,ADDRESS NUMBER OUT OF RANGE BY MORE THAN 4,16977 137TH AVE,11434
,,,,NO HOUSE NUMBER,JFK INTERNATIONAL AIRPORT,11430
,,,,ADDRESS NUMBER OUT OF RANGE BY MORE THAN 4,2115 38TH AVE,11101
,,,,ADDRESS NUMBER OUT OF RANGE BY MORE THAN 4,201 DIKEMAN ST,11231
,,,,NO STREETNAME,,11355
,,,,NO STREETNAME,,11362
,,,,ADDRESS NUMBER OUT OF RANGE BY MORE THAN 4,1728 JEROME AVE,11105
,,,,SPELLCHECKED WITH NO CHANGE - BROOKLYNTERMINALMARKET,99 BROOKLYN TERMINAL MARKET,11236
,,,,ADDRESS NUMBER OUT OF RANGE BY MORE THAN 4,2910 120TH ST,11354
,,,,SPELLCHECK BRIGHTONONE--> BRIGHTONBE;ADDRESS NUMBER OUT OF RANGE BY MORE THAN 4,3096 BRIGHTON ONE PL,11235
,,,,ADDRESS NUMBER OUT OF RANGE BY MORE THAN 4,1 CROSS ISLAND PLZ # 126,11422
,,,,ADDRESS NUMBER OUT OF RANGE BY MORE THAN 4,1300 209TH ST,11360
,,,,STREET(S) NOT FOUND; NOT ELIGIBLE FOR SPELLCHECK,135 3-A ROOSEVELT AVE,11354
,,,,ADDRESS NUMBER OUT OF RANGE BY MORE THAN 4,2105 FLATBUSH AVE,11234
,,,,NO STREETNAME,,11201
,,,,ADDRESS NUMBER OUT OF RANGE BY MORE THAN 4,53-2235 35TH ST,11101
,,,,ADDRESS NUMBER OUT OF RANGE BY MORE THAN 4,78 N BOUNDARY RD,11430
,,,,NO HOUSE NUMBER,JFK INTERNATIONAL AIRPORT,11430
,,,,NO HOUSE NUMBER,JFK INTERNATIONAL AIRPORT,11430
,,,,NO STREETNAME,,11228
,,,,ADDRESS NUMBER OUT OF RANGE BY MORE THAN 4,1 CROSS ISLAND PLZ # 1,11422
,,,,ADDRESS NUMBER OUT OF RANGE BY MORE THAN 4,6080 60TH LN,11378
,,,,NO STREETNAME,,11206
,,,,NO STREETNAME,,11375
,,,,NO STREETNAME,,11229
,,,,SPELLCHECKED WITH NO CHANGE - INTERNATLARPRT,23059 INTERNATL ARPRT CTR #120,11413
,,,,SPELLCHECKED WITH NO CHANGE - AMERICAN,1 AMERICAN WAY,11236
,,,,ADDRESS NUMBER OUT OF RANGE BY MORE THAN 4,13761 NORTHERN BLVD,11354
,,,,STREET(S) NOT FOUND; NOT ELIGIBLE FOR SPELLCHECK,5902 AVENUE N # A,11234
,,,,ADDRESS NUMBER OUT OF RANGE BY MORE THAN 4,1400 PAERDEGAT AVE N,11236
,,,,STREET(S) NOT FOUND; NOT ELIGIBLE FOR SPELLCHECK,86ST LIC 2444 86,11214
,,,,SPELLCHECKED WITH NO CHANGE - HANGAR,79 N HANGAR RD # 209,11430
,,,,SPELLCHECKED WITH NO CHANGE - JFKAIRPORT,1 J F K AIRPORT,11430
,,,,NO STREETNAME,,11361
,,,,ADDRESS NUMBER OUT OF RANGE BY MORE THAN 4,1494 SHEEPSHEAD BAY RD,11235
,,,,ADDRESS NUMBER OUT OF RANGE BY MORE THAN 4,530 CONDUIT BLVD,11208
,,,,SPELLCHECKED WITH NO CHANGE - CENTRALTERMINALAREA,4 CENTRAL TERMINAL AREA,11430
,,,,NO STREETNAME,,11375
,,,,NO STREETNAME,,11201
,,,,ADDRESS NUMBER OUT OF RANGE BY MORE THAN 4,8416 ASTORIA BLVD # E,11370
,,,,STREET(S) NOT FOUND; NOT ELIGIBLE FOR SPELLCHECK,126 14E MERRICK BLVD,11434
,,,,NO STREETNAME,,11220
,,,,NO STREETNAME,,11691
,,,,NO STREETNAME,,11201
,,,,ADDRESS NUMBER OUT OF RANGE BY MORE THAN 4,131-37 B 41ST AVE,11355
,,,,NO STREETNAME,,11691
,,,,ADDRESS NUMBER OUT OF RANGE BY MORE THAN 4,3615 VERNON BLVD,11106
,,,,NO STREETNAME,,11206
,,,,STREET(S) NOT FOUND; NOT ELIGIBLE FOR SPELLCHECK,218 AVENUE T # A,11223
,,,,NO HOUSE NUMBER,PO BOX 230692,11223
,,,,NO HOUSE NUMBER,PO BOX 110551,11211
,,,,ADDRESS NUMBER OUT OF RANGE BY MORE THAN 4,6020 59TH PL # 6,11378
,,,,NO HOUSE NUMBER,JFK INTERNATIONAL AIRPORT,11430
,,,,ADDRESS NUMBER OUT OF RANGE BY MORE THAN 4,1588 GROVE ST,11385
,,,,ADDRESS NUMBER OUT OF RANGE BY MORE THAN 4,4221 DOUGLASTON PKWY,11363
,,,,NO STREETNAME,,11413
,,,,ADDRESS NUMBER OUT OF RANGE BY MORE THAN 4,133 41 AVE,11355
,,,,ADDRESS NUMBER OUT OF RANGE BY MORE THAN 4,710 E 61ST ST,11234
,,,,ADDRESS NUMBER OUT OF RANGE BY MORE THAN 4,4101 WEST ST,11101
,,,,SPELLCHECKED WITH NO CHANGE - CENTRALTERMINALAREA,1 CENTRAL TERMINAL AREA,11430
,,,,ADDRESS NUMBER OUT OF RANGE BY MORE THAN 4,6864 YELLOWSTONE BLVD,11234
,,,,ADDRESS NUMBER OUT OF RANGE BY MORE THAN 4,3060 REVIEW AVE # A,11101
,,,,NO STREETNAME,57 FRONT ST # 303,11201
,,,,NO HOUSE NUMBER,JFK INTERNATIONAL AIRPORT,11430
,,,,ADDRESS NUMBER OUT OF RANGE BY MORE THAN 4,276 KNICKERBOCKER AVE,11385
,,,,ADDRESS NUMBER OUT OF RANGE BY MORE THAN 4,261 N BOUNDARY RD # 2,11430
,,,,ADDRESS NUMBER OUT OF RANGE BY MORE THAN 4,904 MAIN AVE,11102
,,,,ADDRESS NUMBER OUT OF RANGE BY MORE THAN 4,160 7TH ST,11354
,,,,ADDRESS NUMBER OUT OF RANGE BY MORE THAN 4,3770 RAILROAD AVE,11101
,,,,NO STREETNAME,,11413
,,,,SPELLCHECKED WITH NO CHANGE - STREET,243RD ST,11362
,,,,ADDRESS NUMBER OUT OF RANGE BY MORE THAN 4,2724 21ST AVE,11105
,,,,NO HOUSE NUMBER,FLUSHING AVE,11378
,,,,ADDRESS NUMBER OUT OF RANGE BY MORE THAN 4,14926 15TH ST,11357
,,,,ADDRESS NUMBER OUT OF RANGE BY MORE THAN 4,21B N SERVICE RD,11430
,,,,STREETS NOT LONG ENOUGH TO SPELLCHECK,44TH DRIVE & EAST RIV,11101
,,,,NO HOUSE NUMBER,JFK INTERNATIONAL AIRPORT,11430
,,,,ADDRESS NUMBER OUT OF RANGE BY MORE THAN 4,60 GRATTAN ST,11385
,,,,NO STREETNAME,,11201
,,,,ADDRESS NUMBER OUT OF RANGE BY MORE THAN 4,150 51ST AVE,11101
,,,,ADDRESS NUMBER OUT OF RANGE BY MORE THAN 4,344 STAGG,11385
,,,,ADDRESS NUMBER OUT OF RANGE BY MORE THAN 4,129 ROEBLING,11385
,,,,NO STREETNAME,,11201
,,,,ADDRESS NUMBER OUT OF RANGE BY MORE THAN 4,220 INGRAHAM # 1B,11356
,,,,ADDRESS NUMBER OUT OF RANGE BY MORE THAN 4,220 INGRAHAM ST # H1,11237
,,,,ADDRESS NUMBER OUT OF RANGE BY MORE THAN 4,51 4TH,11220
,,,,NO STREETNAME,,11101
,,,,ADDRESS NUMBER OUT OF RANGE BY MORE THAN 4,14720 184TH ST,11413
,,,,ADDRESS NUMBER OUT OF RANGE BY MORE THAN 4,16801 ROCKAWAY BLVD,11434
,,,,ADDRESS NUMBER OUT OF RANGE BY MORE THAN 4,1 CROSS ISLAND PLZ # 102A,11422
,,,,NO STREETNAME,,11211
,,,,NO HOUSE NUMBER,PO BOX 110539,11211
,,,,ADDRESS NUMBER OUT OF RANGE BY MORE THAN 4,14720 184TH ST,11413
,,,,NO STREETNAME,,11236
,,,,NO STREETNAME,,11214
,,,,ADDRESS NUMBER OUT OF RANGE BY MORE THAN 4,3217 BEACH CHANNEL DR # A,11691
,,,,ADDRESS NUMBER OUT OF RANGE BY MORE THAN 4,3217 BEACH CHANNEL DR # A,11691
,,,,ADDRESS NUMBER OUT OF RANGE BY MORE THAN 4,14 S SERVICE RD # 15,11430
,,,,NO STREETNAME,,11201
,,,,ADDRESS NUMBER OUT OF RANGE BY MORE THAN 4,247 W 134TH ST,11235
,,,,ADDRESS NUMBER OUT OF RANGE BY MORE THAN 4,1 CROSS ISLAND PLZ # LL5,11422
,,,,ADDRESS NUMBER OUT OF RANGE BY MORE THAN 4,2088 MOTT AVE,11691
,,,,ADDRESS NUMBER OUT OF RANGE BY MORE THAN 4,1964 MYRTLE AVE,11385
,,,,NO HOUSE NUMBER,JFK INTERNATIONAL AIRPORT,11430
,,,,NO STREETNAME,,11209
,,,,ADDRESS NUMBER OUT OF RANGE BY MORE THAN 4,1 PIERREPONT PLZ # 15,11201
,,,,NO STREETNAME,,11211
,,,,ADDRESS NUMBER OUT OF RANGE BY MORE THAN 4,1 PIERREPONT PLZ # 1,11201
,,,,NO STREETNAME,,11101
,,,,ADDRESS NUMBER OUT OF RANGE BY MORE THAN 4,4441 149TH PL,11357
,,,,ADDRESS NUMBER OUT OF RANGE BY MORE THAN 4,15030 132ND AVE # 205,11434
,,,,ADDRESS NUMBER OUT OF RANGE BY MORE THAN 4,3467 214TH PL,11361
,,,,ADDRESS NUMBER OUT OF RANGE BY MORE THAN 4,3125 COLLEGE POINT BLVD,11354
,,,,STREET(S) NOT FOUND; NOT ELIGIBLE FOR SPELLCHECK,36 12 UN,11354
,,,,NO STREETNAME,,11354
,,,,NO STREETNAME,23059 INT ARP CN BLVD # 281,11413
,,,,ADDRESS NUMBER OUT OF RANGE BY MORE THAN 4,36 137 AVE,11101
,,,,ADDRESS NUMBER OUT OF RANGE BY MORE THAN 4,104 ALLEN BLVD,11101
,,,,ADDRESS NUMBER OUT OF RANGE BY MORE THAN 4,151 S SERVICE RD # 304,11430
,,,,SPELLCHECK UNIONK--> UNION;ADDRESS NUMBER OUT OF RANGE BY MORE THAN 4,534 UNION K,11201
,,,,ADDRESS NUMBER OUT OF RANGE BY MORE THAN 4,18217 150TH DR,11413
,,,,SPELLCHECKED WITH NO CHANGE - MOUNTVERNON,49 MOUNT VERNON AVE,11101
,,,,NO HOUSE NUMBER,JFK INTERNATIONAL AIRPORT,11430
,,,,ADDRESS NUMBER OUT OF RANGE BY MORE THAN 4,17725 ROCKAWAY BLVD,11434
,,,,NO HOUSE NUMBER,PO BOX 570079,11357
,,,,ADDRESS NUMBER OUT OF RANGE BY MORE THAN 4,15615 146TH AVE # 101,11434
,,,,ADDRESS NUMBER OUT OF RANGE BY MORE THAN 4,2121 30TH DR,11102
,,,,NO STREETNAME,,11201
,,,,STREET(S) NOT FOUND; NOT ELIGIBLE FOR SPELLCHECK,194 AVENUE U # A,11223
,,,,ADDRESS NUMBER OUT OF RANGE BY MORE THAN 4,33 THAMES ST,11385
,,,,ADDRESS NUMBER OUT OF RANGE BY MORE THAN 4,13847 HORACE HARDING EXPY # 2,11355
,,,,ADDRESS NUMBER OUT OF RANGE BY MORE THAN 4,17725 ROCKAWAY BLVD # 204A,11434
,,,,ADDRESS NUMBER OUT OF RANGE BY MORE THAN 4,17725 ROCKAWAY BLVD,11434
,,,,ADDRESS NUMBER OUT OF RANGE BY MORE THAN 4,58 CUMBERLAND WALK,11205
,,,,NO STREETNAME,77 FRONT ST,11201
,,,,ADDRESS NUMBER OUT OF RANGE BY MORE THAN 4,2381 38TH AVE,11101
,,,,ADDRESS NUMBER OUT OF RANGE BY MORE THAN 4,52-01 BORDEN AVE,11101
,,,,ADDRESS NUMBER OUT OF RANGE BY MORE THAN 4,13 42ND ST,11232
,,,,ADDRESS NUMBER OUT OF RANGE BY MORE THAN 4,121 SPRINGFIELD BLVD,11413
,,,,STREET(S) NOT FOUND; NOT ELIGIBLE FOR SPELLCHECK,218 28-A MERRICK BLVD,11413
,,,,ADDRESS NUMBER OUT OF RANGE BY MORE THAN 4,1 CROSS ISLAND PLZ # 201,11422
,,,,ADDRESS NUMBER OUT OF RANGE BY MORE THAN 4,1558 127TH ST,11356
,,,,STREETS NOT LONG ENOUGH TO SPELLCHECK,694 1/2 5TH AVE,11215
,,,,NO HOUSE NUMBER,PO BOX 220093,11422
,,,,ADDRESS NUMBER OUT OF RANGE BY MORE THAN 4,1 CROSS ISLAND PLZ,11422
,,,,SPELLCHECKED WITH NO CHANGE - CATALPARDGWD,58 15 CATALPA RDGWD,11385
,,,,NO HOUSE NUMBER,PO BOX 90147,11209
,,,,STREET(S) NOT FOUND; NOT ELIGIBLE FOR SPELLCHECK,31 0047 AV,11101
,,,,NO STREETNAME,,11201
,,,,ADDRESS NUMBER OUT OF RANGE BY MORE THAN 4,1102 49TH AVE,11101
,,,,ADDRESS NUMBER OUT OF RANGE BY MORE THAN 4,14935 177TH ST # 201,11434
,,,,SPELLCHECKED WITH NO CHANGE - QUEENSSOUTH,24 16 QUEENS S PLZ,11101
,,,,SPELLCHECKED WITH NO CHANGE - HANGAR,141 W HANGAR RD,11430
,,,,ADDRESS NUMBER OUT OF RANGE BY MORE THAN 4,20602 NORTHERN BLVD,11361
,,,,ADDRESS NUMBER OUT OF RANGE BY MORE THAN 4,2914 122ND ST,11354
,,,,STREET(S) NOT FOUND; NOT ELIGIBLE FOR SPELLCHECK,2106 AVENUE U # A,11229
,,,,ADDRESS NUMBER OUT OF RANGE BY MORE THAN 4,1115 FLUSHING AV,11385
,,,,ADDRESS NUMBER OUT OF RANGE BY MORE THAN 4,1506 HORNELL LOOP,11239
,,,,NO HOUSE NUMBER,ELMIRA LOOP,11239
,,,,ADDRESS NUMBER OUT OF RANGE BY MORE THAN 4,167 GRATTAN ST,11237
,,,,NO HOUSE NUMBER,PO BOX 245004,11224
,,,,NO STREETNAME,,11201
,,,,ADDRESS NUMBER OUT OF RANGE BY MORE THAN 4,8102 NEW UTRECHT AVE,11214
,,,,NO STREETNAME,,11201
,,,,ADDRESS NUMBER OUT OF RANGE BY MORE THAN 4,144 NASSAU ST,11201
,,,,ADDRESS NUMBER OUT OF RANGE BY MORE THAN 4,133 STERLING DR,11209
,,,,NO STREETNAME,,11361
,,,,ADDRESS NUMBER OUT OF RANGE BY MORE THAN 4,1 PIERREPONT PLZ # 1,11201
,,,,NO STREETNAME,141 FRONT ST # A,11201
,,,,NO STREETNAME,,11101
,,,,ADDRESS NUMBER OUT OF RANGE BY MORE THAN 4,6103 STRICKLAND AVE,11234
,,,,ADDRESS NUMBER OUT OF RANGE BY MORE THAN 4,26 20TH ST,11232
,,,,NO STREETNAME,,11201
,,,,ADDRESS NUMBER OUT OF RANGE BY MORE THAN 4,5415 35TH ST,11101
,,,,ADDRESS NUMBER OUT OF RANGE BY MORE THAN 4,3140 WHITESTONE EXPY,11354
,,,,ADDRESS NUMBER OUT OF RANGE BY MORE THAN 4,215 N STADIUM BLVD,11201
,,,,NO HOUSE NUMBER,SURF AVE,11214
,,,,ADDRESS NUMBER OUT OF RANGE BY MORE THAN 4,1 CROSS ISLAND PLZ # 203G,11422
,,,,NO STREETNAME,,11691
,,,,NO HOUSE NUMBER,JFK INTERNATIONAL AIRPORT,11430
,,,,ADDRESS NUMBER OUT OF RANGE BY MORE THAN 4,6611 OTTO RD,11385
,,,,ADDRESS NUMBER OUT OF RANGE BY MORE THAN 4,6020 59TH PL,11378
,,,,ADDRESS NUMBER OUT OF RANGE BY MORE THAN 4,13 42ND ST # 4A,11232
,,,,NO STREETNAME,,11206
,,,,NO STREETNAME,,11236
,,,,NO HOUSE NUMBER,PO BOX 350181,11235
,,,,NO STREETNAME,,11211
,,,,STREETS NOT LONG ENOUGH TO SPELLCHECK,INTERSTATE 678 & EXIT 2,11436
,,,,ADDRESS NUMBER OUT OF RANGE BY MORE THAN 4,3066 REVIEW AVE,11101
,,,,NO STREETNAME,,11201
,,,,ADDRESS NUMBER OUT OF RANGE BY MORE THAN 4,17725 ROCKAWAY BLVD # 207,11434
,,,,SPELLCHECKED WITH NO CHANGE - CENTRALTERMINALAREA,1 CENTRAL TERMINAL AREA # 15,11430
,,,,SPELLCHECKED WITH NO CHANGE - JFKAIRPORT,1 J F K AIRPORT,11434
,,,,ADDRESS NUMBER OUT OF RANGE BY MORE THAN 4,14720 181ST ST # 2,11413
,,,,ADDRESS NUMBER OUT OF RANGE BY MORE THAN 4,4522 43RD AVE,11104
,,,,NO HOUSE NUMBER,PO BOX 170192,11217
,,,,ADDRESS NUMBER OUT OF RANGE BY MORE THAN 4,45 26 43 AV,11434
,,,,STREET(S) NOT FOUND; NOT ELIGIBLE FOR SPELLCHECK,75 5 150 FLUS,11375
,,,,ADDRESS NUMBER OUT OF RANGE BY MORE THAN 4,50 20TH ST # 1,11232
,,,,,60 & 3 AVE,11220
,,,,ADDRESS NUMBER OUT OF RANGE BY MORE THAN 4,42 RALPH AVE,11101
,,,,ADDRESS NUMBER OUT OF RANGE BY MORE THAN 4,258 SCHAEFER,11385
,,,,NO STREETNAME,,11201
,,,,NO STREETNAME,,11208
,,,,SPELLCHECK MERYLL--> MERRILL;ADDRESS NUMBER OUT OF RANGE BY MORE THAN 4,6 MERYLL PL,11201
,,,,ADDRESS NUMBER OUT OF RANGE BY MORE THAN 4,3660 37TH AVE,11354
,,,,STREET(S) NOT FOUND; NOT ELIGIBLE FOR SPELLCHECK,9401 AVENUE L # A,11236
,,,,NO STREETNAME,,11237
,,,,ADDRESS NUMBER OUT OF RANGE BY MORE THAN 4,25301 ROCKAWAY BLVD # 9,11422
,,,,NO STREETNAME,,11223
,,,,NO HOUSE NUMBER,JFK INTERNATIONAL AIRPORT,11430
,,,,ADDRESS NUMBER OUT OF RANGE BY MORE THAN 4,42 COLDEN,11354
,,,,NO STREETNAME,126 FRONT ST,11201
,,,,NO STREETNAME,,11101
,,,,ADDRESS NUMBER OUT OF RANGE BY MORE THAN 4,520 54TH AVE,11101
,,,,NO STREETNAME,,11101
,,,,SPELLCHECKED WITH NO CHANGE - INTERNATLAIRPORTCENTER,23039 INTERNATL AIRPORT CTR BL,11413
,,,,NO STREETNAME,,11201
,,,,ADDRESS NUMBER OUT OF RANGE BY MORE THAN 4,1015 METROPOLITAN AVE,11385
,,,,STREETS NOT LONG ENOUGH TO SPELLCHECK,351 5TH AVE BTWN 4 & 5 ST,11215
,,,,ADDRESS NUMBER OUT OF RANGE BY MORE THAN 4,470 VANDERBILT AVE,11357
,,,,ADDRESS NUMBER OUT OF RANGE BY MORE THAN 4,22 QUEEN VILLAGE,11201
,,,,NO STREETNAME,,11201
,,,,ADDRESS NUMBER OUT OF RANGE BY MORE THAN 4,425 SCHENCK AVE # 1,11207
,,,,NO STREETNAME,,11101
,,,,ADDRESS NUMBER OUT OF RANGE BY MORE THAN 4,743 SUTTER AVE,11207
,,,,SPELLCHECKED WITH NO CHANGE - CENTRALTERMINALAREA,1 CENTRAL TERMINAL AREA,11430
,,,,SPELLCHECKED WITH NO CHANGE - CENTRALTERMINALAREA,1 CENTRAL TERMINAL AREA,11430
,,,,SPELLCHECKED WITH NO CHANGE - CTRLTERMAREA,1 CTRL TERM AREA # 151-300,11430
,,,,SPELLCHECKED WITH NO CHANGE - BENHOUTEN,862 BEN HOUTEN AVE,11220
,,,,ADDRESS NUMBER OUT OF RANGE BY MORE THAN 4,1175 FISCHER BLVD,11223
,,,,ADDRESS NUMBER OUT OF RANGE BY MORE THAN 4,2647 STILLWELL AVE,11223
,,,,STREET(S) NOT FOUND; NOT ELIGIBLE FOR SPELLCHECK,36 07-A COLLEGE POINT BLVD,11354
,,,,ADDRESS NUMBER OUT OF RANGE BY MORE THAN 4,575 MESEROLE ST,11237
,,,,ADDRESS NUMBER OUT OF RANGE BY MORE THAN 4,1444 31ST ST,11106
,,,,ADDRESS NUMBER OUT OF RANGE BY MORE THAN 4,15030 132ND AVE # 205,11434
,,,,ADDRESS NUMBER OUT OF RANGE BY MORE THAN 4,276 GREENPOINT AVE,11101
,,,,STREETS DO NOT INTERSECT,FILLMORE AV & MARINE PKWY,11229
,,,,NO STREETNAME,265 FRONT ST,11201
,,,,ADDRESS NUMBER OUT OF RANGE BY MORE THAN 4,1 CROSS ISLAND PLZ # 120,11422
,,,,ADDRESS NUMBER OUT OF RANGE BY MORE THAN 4,17725 ROCKAWAY BLVD # 210,11434
,,,,ADDRESS NUMBER OUT OF RANGE BY MORE THAN 4,77 N BOUNDARY RD,11430
,,,,NO HOUSE NUMBER,PO BOX 300929,11430
,,,,NO HOUSE NUMBER,PO BOX 5751,11105
,,,,NO STREETNAME,,11201
,,,,SPELLCHECKED WITH NO CHANGE - BROOKLYNTERMINALMARKET,97 BROOKLYN TERMINAL MARKET,11236
,,,,ADDRESS NUMBER OUT OF RANGE BY MORE THAN 4,3233 QUENTIN RD,11234
,,,,ADDRESS NUMBER OUT OF RANGE BY MORE THAN 4,7017 AUSTIN ST # 1,11375
,,,,ADDRESS NUMBER OUT OF RANGE BY MORE THAN 4,17725 ROCKAWAY BLVD # 213,11434
,,,,ADDRESS NUMBER OUT OF RANGE BY MORE THAN 4,6031 60TH CT,11378
,,,,ADDRESS NUMBER OUT OF RANGE BY MORE THAN 4,14720 181ST ST # 2,11413
,,,,NO STREETNAME,,11201
,,,,STREET(S) NOT FOUND; NOT ELIGIBLE FOR SPELLCHECK,155 40 81 HWD BCH,11229
,,,,NO STREETNAME,,11201
,,,,NO STREETNAME,,11236
,,,,NO STREETNAME,3949 FL 48,11104
,,,,ADDRESS NUMBER OUT OF RANGE BY MORE THAN 4,3333 CRESCENT ST,11106
,,,,ADDRESS NUMBER OUT OF RANGE BY MORE THAN 4,3140 COLLEGE POINT BLVD,11354
,,,,SPELLCHECKED WITH NO CHANGE - CENTRALTERMINALAREA,1 CENTRAL TERMINAL AREA,11430
,,,,NO STREETNAME,,11430
,,,,SPELLCHECKED WITH NO CHANGE - CENTRALTERMINALAREA,1 CENTRAL TERMINAL AREA # 6,11430
,,,,SPELLCHECKED WITH NO CHANGE - BROOKLYNTERMINALMARKET,4 BROOKLYN TERMINAL MARKET,11236
,,,,ADDRESS NUMBER OUT OF RANGE BY MORE THAN 4,21297 26TH AVE,11360
,,,,ADDRESS NUMBER OUT OF RANGE BY MORE THAN 4,1 CROSS ISLAND PLZ # 124,11422
,,,,ADDRESS NUMBER OUT OF RANGE BY MORE THAN 4,1 CROSS ISLAND PLZ # 203D,11422
,,,,ADDRESS NUMBER OUT OF RANGE BY MORE THAN 4,915 ADAMS ST # 15H,11201
,,,,ADDRESS NUMBER OUT OF RANGE BY MORE THAN 4,18216 149TH RD # 238,11413
,,,,SPELLCHECKED WITH NO CHANGE - QUEENSBLVDAP,112 1 QUEENS BLVDAP,11375
,,,,ADDRESS NUMBER OUT OF RANGE BY MORE THAN 4,7015 AUSTIN ST,11375
,,,,ADDRESS NUMBER OUT OF RANGE BY MORE THAN 4,151 5TH ST,11215
,,,,STREET(S) NOT FOUND; NOT ELIGIBLE FOR SPELLCHECK,3088 STATE ROUTE 27,11106
,,,,ADDRESS NUMBER OUT OF RANGE BY MORE THAN 4,3352 GREENPOINT AVE,11101
,,,,ADDRESS NUMBER OUT OF RANGE BY MORE THAN 4,2700 CHURCH LN,11236
,,,,NO STREETNAME,,11223
,,,,NO STREETNAME,,11235
,,,,ADDRESS NUMBER OUT OF RANGE BY MORE THAN 4,3830 WOODSIDE AVE,11104
,,,,ADDRESS NUMBER OUT OF RANGE BY MORE THAN 4,5202 GRAND AVE # 14,11378
,,,,SPELLCHECKED WITH NO CHANGE - NEWBRIDGE,1842 NEW BRIDGE RD,11694
,,,,NO HOUSE NUMBER,PO BOX 1358,11101
,,,,NO STREETNAMES,JFK INTL AIRPORT # A/B6,11430
,,,,ADDRESS NUMBER OUT OF RANGE BY MORE THAN 4,5609 56TH DR,11378
,,,,ADDRESS NUMBER OUT OF RANGE BY MORE THAN 4,11-2 49TH AVE,11101
,,,,ADDRESS NUMBER OUT OF RANGE BY MORE THAN 4,222 VARICK AV,11385
,,,,NO HOUSE NUMBER,PO BOX 570174,11357
,,,,SPELLCHECK CARGO--> CORSO;ADDRESS NUMBER OUT OF RANGE BY MORE THAN 4,87 CARGO PLZ,11430
,,,,ADDRESS NUMBER OUT OF RANGE BY MORE THAN 4,1117 GRAND,11385
,,,,NO STREETNAME,,11436
,,,,NO STREETNAME,,11201
,,,,ADDRESS NUMBER OUT OF RANGE BY MORE THAN 4,58 50TH ST,11232
,,,,ADDRESS NUMBER OUT OF RANGE BY MORE THAN 4,77 N BOUNDARY RD,11430
,,,,NO STREETNAME,,11201
,,,,ADDRESS NUMBER OUT OF RANGE BY MORE THAN 4,6407 46TH ST,11378
,,,,NO STREETNAME,,11214
,,,,NO STREETNAME,,11223
,,,,ADDRESS NUMBER OUT OF RANGE BY MORE THAN 4,99B FLUSHING AV,11385
,,,,NO STREETNAME,,11201
,,,,ADDRESS NUMBER OUT OF RANGE BY MORE THAN 4,3501 23RD AVE,11105
,,,,ADDRESS NUMBER OUT OF RANGE BY MORE THAN 4,3500 48TH ST,11101
,,,,ADDRESS NUMBER OUT OF RANGE BY MORE THAN 4,15040 183RD ST # 220,11413
,,,,ADDRESS NUMBER OUT OF RANGE BY MORE THAN 4,543 54TH AVE,11101
,,,,ADDRESS NUMBER OUT OF RANGE BY MORE THAN 4,601 W 26TH ST,11234
,,,,ADDRESS NUMBER OUT OF RANGE BY MORE THAN 4,6020 59TH PL,11378
,,,,ADDRESS NUMBER OUT OF RANGE BY MORE THAN 4,16801 ROCKAWAY BLVD,11434
,,,,ADDRESS NUMBER OUT OF RANGE BY MORE THAN 4,16801 ROCKAWAY BLVD,11434
,,,,NO STREETNAME,1 FRONT ST,11201
,,,,NO STREETNAME,,11354
,,,,SPELLCHECKED WITH NO CHANGE - BROOKLYNTERMINALMARKET,24 BROOKLYN TERMINAL MARKET,11236
,,,,ADDRESS NUMBER OUT OF RANGE BY MORE THAN 4,1173 63RD,11434
,,,,ADDRESS NUMBER OUT OF RANGE BY MORE THAN 4,58 50TH ST,11232
,,,,ADDRESS NUMBER OUT OF RANGE BY MORE THAN 4,17725 ROCKAWAY BLVD # 203,11434
,,,,NO HOUSE NUMBER,JFK INTERNATIONAL AIRPORT,11430
,,,,ADDRESS NUMBER OUT OF RANGE BY MORE THAN 4,27142 GRAND CENTRAL PKWY,11361
,,,,ADDRESS NUMBER OUT OF RANGE BY MORE THAN 4,6000 SHORE PKWY # 20,11236
,,,,ADDRESS NUMBER OUT OF RANGE BY MORE THAN 4,57 THAMES,11385
,,,,NO STREETNAME,,11201
,,,,SPELLCHECKED WITH NO CHANGE - BROOKLYNTERMINALMARKET,62 BROOKLYN TERMINAL MARKET,11236
,,,,ADDRESS NUMBER OUT OF RANGE BY MORE THAN 4,1051 44TH RD,11101
,,,,ADDRESS NUMBER OUT OF RANGE BY MORE THAN 4,2919 AVE K,11357
,,,,ADDRESS NUMBER OUT OF RANGE BY MORE THAN 4,45 COURT SQ,11101
,,,,ADDRESS NUMBER OUT OF RANGE BY MORE THAN 4,1 CROSS ISLAND PLZ # 229C,11422
,,,,SPELLCHECK CARGO--> CORSO;ADDRESS NUMBER OUT OF RANGE BY MORE THAN 4,86 CARGO PLZ,11430
,,,,ADDRESS NUMBER OUT OF RANGE BY MORE THAN 4,108 VARICK AV,11385
,,,,ADDRESS NUMBER OUT OF RANGE BY MORE THAN 4,1 CROSS ISLAND PLZ # 120,11422
,,,,ADDRESS NUMBER OUT OF RANGE BY MORE THAN 4,21311 39TH AVE,11361
,,,,ADDRESS NUMBER OUT OF RANGE BY MORE THAN 4,7815 GRAND CENTRAL PKWY,11375
,,,,ADDRESS NUMBER OUT OF RANGE BY MORE THAN 4,49 PAERDEGAT AVE N,11236
,,,,NO STREETNAME,,11430
,,,,SPELLCHECKED WITH NO CHANGE - CENTRALTERMINALAREA,4 CENTRAL TERMINAL AREA,11430
,,,,NO HOUSE NUMBER,JFK INTERNATIONAL AIRPORT,11430
,,,,SPELLCHECKED WITH NO CHANGE - JFKAIRPORT,1 J F K AIRPORT,11434
,,,,SPELLCHECKED WITH NO CHANGE - CENTRALTERMINALAREA,1 CENTRAL TERMINAL AREA # 3,11430
,,,,SPELLCHECKED WITH NO CHANGE - JFKINTLAIRPORT,53 JFK INTL AIRPORT # 3,11430
,,,,NO HOUSE NUMBER,PO BOX 690397,11369
,,,,ADDRESS NUMBER OUT OF RANGE BY MORE THAN 4,3864 43RD ST,11101
,,,,ADDRESS NUMBER OUT OF RANGE BY MORE THAN 4,14554 157TH ST,11434
,,,,ADDRESS NUMBER OUT OF RANGE BY MORE THAN 4,6020 59TH PL # 3,11378
,,,,ADDRESS NUMBER OUT OF RANGE BY MORE THAN 4,2855 ULMER ST,11354
,,,,NO HOUSE NUMBER,JFK INTERNATIONAL AIRPORT,11430
,,,,SPELLCHECKED WITH NO CHANGE - CENTRALTERMINALAREA,1 CENTRAL TERMINAL AREA,11430
,,,,NO STREETNAME,,11209
,,,,ADDRESS NUMBER OUT OF RANGE BY MORE THAN 4,14935 177TH ST,11434
,,,,NO STREETNAME,,11354
,,,,ADDRESS NUMBER OUT OF RANGE BY MORE THAN 4,129 FIRST AVE # 3,11356
,,,,NO STREETNAME,,11201
,,,,STREET(S) NOT FOUND; NOT ELIGIBLE FOR SPELLCHECK,42 19 19AV,11105
,,,,ADDRESS NUMBER OUT OF RANGE BY MORE THAN 4,1 CROSS ISLAND PLZ,11422
,,,,ADDRESS NUMBER OUT OF RANGE BY MORE THAN 4,1 CROSS ISLAND PLZ # 118,11422
,,,,ADDRESS NUMBER OUT OF RANGE BY MORE THAN 4,10544 FLATLANDS AVE,11235
,,,,ADDRESS NUMBER OUT OF RANGE BY MORE THAN 4,3830 WOODSIDE AVE,11104
,,,,ADDRESS NUMBER OUT OF RANGE BY MORE THAN 4,5105 FLUSHING AVE,11378
,,,,NO STREETNAME,,11375
,,,,ADDRESS NUMBER OUT OF RANGE BY MORE THAN 4,77 N BOUNDARY RD # D,11430
,,,,NO HOUSE NUMBER,JFK INTERNATIONAL AIRPORT,11430
,,,,SPELLCHECKED WITH NO CHANGE - CENTRALTERMINALAREA,1 CENTRAL TERMINAL AREA # 3,11430
,,,,ADDRESS NUMBER OUT OF RANGE BY MORE THAN 4,1 CROSS ISLAND PLZ # 11,11422
,,,,STREET(S) NOT FOUND; NOT ELIGIBLE FOR SPELLCHECK,59 11 56 AU,11378
,,,,ADDRESS NUMBER OUT OF RANGE BY MORE THAN 4,280 KNICKERBOCKER AVE,11385
,,,,ADDRESS NUMBER OUT OF RANGE BY MORE THAN 4,2002 31ST RD,11106
,,,,ADDRESS NUMBER OUT OF RANGE BY MORE THAN 4,167 146TH RD,11434
,,,,ADDRESS NUMBER OUT OF RANGE BY MORE THAN 4,3326 COLLEGE POINT BLVD,11354
,,,,ADDRESS NUMBER OUT OF RANGE BY MORE THAN 4,16019 ROCKAWAY BLVD # E,11434
,,,,NO STREETNAME,,11354
,,,,NO HOUSE NUMBER,TERMINAL 4,11430
,,,,NO STREETNAME,,11201
,,,,NO STREETNAME,,11205
,,,,ADDRESS NUMBER OUT OF RANGE BY MORE THAN 4,15030 132ND AVE # 308,11434
,,,,ADDRESS NUMBER OUT OF RANGE BY MORE THAN 4,56 48TH ST,11232
,,,,ADDRESS NUMBER OUT OF RANGE BY MORE THAN 4,3528 151ST ST,11354
,,,,ADDRESS NUMBER OUT OF RANGE BY MORE THAN 4,8211 CYPRESS AVE,11385
,,,,NO STREETNAME,,11354
,,,,STREET(S) NOT FOUND; NOT ELIGIBLE FOR SPELLCHECK,28 20 UN,11354
,,,,STREET(S) NOT FOUND; NOT ELIGIBLE FOR SPELLCHECK,40 10 UN,11354
,,,,NO HOUSE NUMBER,PO BOX 140261,11214
,,,,ADDRESS NUMBER OUT OF RANGE BY MORE THAN 4,18748 182ND ST,11413
,,,,ADDRESS NUMBER OUT OF RANGE BY MORE THAN 4,1063 BEACH 21ST ST,11691
,,,,NO STREETNAME,,11201
,,,,NO HOUSE NUMBER,JFK INTERNATIONAL AIRPORT,11430
,,,,ADDRESS NUMBER OUT OF RANGE BY MORE THAN 4,18445 147TH AVE # 103,11413
,,,,ADDRESS NUMBER OUT OF RANGE BY MORE THAN 4,287 VANDERVOORT AVE,11211
,,,,NO HOUSE NUMBER,JFK INTERNATIONAL AIRPORT,11430
,,,,ADDRESS NUMBER OUT OF RANGE BY MORE THAN 4,10401 99TH ST,11417
,,,,NO STREETNAME,,11201
,,,,ADDRESS NUMBER OUT OF RANGE BY MORE THAN 4,34290 1ST AVE,11232
,,,,ADDRESS NUMBER OUT OF RANGE BY MORE THAN 4,3500 48TH ST,11101
,,,,NO HOUSE NUMBER,JFK INTERNATIONAL AIRPORT,11430
,,,,ADDRESS NUMBER OUT OF RANGE BY MORE THAN 4,58 50TH ST # R17,11232
,,,,ADDRESS NUMBER OUT OF RANGE BY MORE THAN 4,1 CROSS ISLAND PLZ # 100,11422
,,,,ADDRESS NUMBER OUT OF RANGE BY MORE THAN 4,796 DREW ST # E,11208
,,,,NO STREETNAME,,11201
,,,,NO STREETNAME,,11101
,,,,ADDRESS NUMBER OUT OF RANGE BY MORE THAN 4,4307 214TH PL # B,11361
,,,,ADDRESS NUMBER OUT OF RANGE BY MORE THAN 4,1 METROTECH CTR N # 11,11201
,,,,NO HOUSE NUMBER,PO BOX 300012,11430
,,,,SPELLCHECKED WITH NO CHANGE - DUTCHBROADWAY,1596 DUTCH BROADWAY,11208
,,,,NO STREETNAME,,11201
,,,,NO STREETNAME,,11106
,,,,ADDRESS NUMBER OUT OF RANGE BY MORE THAN 4,80 MCGUINNESS BLVD S # E26,11222
,,,,NO STREETNAME,,11101
,,,,ADDRESS NUMBER OUT OF RANGE BY MORE THAN 4,950 FOUNTAIN AVE,11208
,,,,ADDRESS NUMBER OUT OF RANGE BY MORE THAN 4,530 CONDUIT BLVD,11208
,,,,NO STREETNAME,,11356
,,,,NO STREETNAME,,11201
,,,,NO HOUSE NUMBER,FORT TILDEN,11694
,,,,ADDRESS NUMBER OUT OF RANGE BY MORE THAN 4,1 CROSS ISLAND PLZ,11422
,,,,ADDRESS NUMBER OUT OF RANGE BY MORE THAN 4,1 CROSS ISLAND PLZ # 62,11422
,,,,NO HOUSE NUMBER,FORT TOTTEN,11360
,,,,ADDRESS NUMBER OUT OF RANGE BY MORE THAN 4,1 CROSS ISLAND PLZ,11422
,,,,ADDRESS NUMBER OUT OF RANGE BY MORE THAN 4,1 CROSS ISLAND PLZ,11422
,,,,SPELLCHECKED WITH NO CHANGE - INTERNATIONALAIRPORT,23019 INTERNATIONAL AIRPORT,11413
,,,,NO HOUSE NUMBER,FLOYD BENNETT FLD,11234
,,,,ADDRESS NUMBER OUT OF RANGE BY MORE THAN 4,56 48TH ST # R6,11232
,,,,NO HOUSE NUMBER,NMCRCR FLOYD BENNETT FLD,11234
,,,,ADDRESS NUMBER OUT OF RANGE BY MORE THAN 4,18216 149TH RD # 9,11413
,,,,SPELLCHECKED WITH NO CHANGE - CENTRALTERMINALAREA,4 CENTRAL TERMINAL AREA,11430
,,,,NO HOUSE NUMBER,PO BOX 230762,11223
,,,,NO STREETNAME,,11201
,,,,ADDRESS NUMBER OUT OF RANGE BY MORE THAN 4,7618 30TH AVE,11370
,,,,STREET(S) NOT FOUND; NOT ELIGIBLE FOR SPELLCHECK,214 AVENUE S # B,11223
,,,,ADDRESS NUMBER OUT OF RANGE BY MORE THAN 4,5601 NURGE AVE,11378
,,,,NO HOUSE NUMBER,JFK INTERNATIONAL AIRPORT,11430
,,,,NO STREETNAME,23039 INT ARP CN BLVD # 1000,11413
,,,,NO STREETNAME,,11201
,,,,ADDRESS NUMBER OUT OF RANGE BY MORE THAN 4,2679 E 15TH ST,11235
,,,,NO HOUSE NUMBER,JFK INTERNATIONAL AIRPORT,11430
,,,,ADDRESS NUMBER OUT OF RANGE BY MORE THAN 4,6126 MAURICE AVE,11378
,,,,ADDRESS NUMBER OUT OF RANGE BY MORE THAN 4,6020 59TH PL # 7,11378
,,,,STREET(S) NOT FOUND; NOT ELIGIBLE FOR SPELLCHECK,14 20A 129,11356
,,,,NO STREETNAME,,11434
,,,,ADDRESS NUMBER OUT OF RANGE BY MORE THAN 4,1107 FLUSHING AV,11385
,,,,NO STREETNAME,23019 INT ARP CN BLVD # 250,11413
,,,,SPELLCHECKED WITH NO CHANGE - CENTRALTERMINALAREA,1 CENTRAL TERMINAL AREA,11430
,,,,ADDRESS NUMBER OUT OF RANGE BY MORE THAN 4,5602 ARNOLD AVE,11378
,,,,ADDRESS NUMBER OUT OF RANGE BY MORE THAN 4,5440 LITTLE NECK PKWY,11208
,,,,NO STREETNAME,,11235
,,,,NO STREETNAME,,11354
,,,,ADDRESS NUMBER OUT OF RANGE BY MORE THAN 4,2520 SKILLMAN AVE,11101
,,,,NO STREETNAME,,11229
,,,,NO STREETNAME,,11357
,,,,ADDRESS NUMBER OUT OF RANGE BY MORE THAN 4,1413 E 38TH ST,11234
,,,,NO HOUSE NUMBER,JFK INTERNATIONAL AIRPORT,11430
,,,,ADDRESS NUMBER OUT OF RANGE BY MORE THAN 4,23714 MERRICK BLVD,11434
,,,,ADDRESS NUMBER OUT OF RANGE BY MORE THAN 4,2539 BORDEN AVE,11101
,,,,ADDRESS NUMBER OUT OF RANGE BY MORE THAN 4,189 N SERVICE CT # C189,11430
,,,,NO HOUSE NUMBER,PO BOX 110290,11211
,,,,NO HOUSE NUMBER,JFK INTERNATIONAL AIRPORT,11430
,,,,ADDRESS NUMBER OUT OF RANGE BY MORE THAN 4,400 WEAVER AVE # 333,11359
,,,,ADDRESS NUMBER OUT OF RANGE BY MORE THAN 4,15030 132ND AVE # 206,11434
,,,,ADDRESS NUMBER OUT OF RANGE BY MORE THAN 4,15030 132ND AVE # 206,11434
,,,,ADDRESS NUMBER OUT OF RANGE BY MORE THAN 4,7200 DOUGLASTON PKWY,11362
,,,,NO STREETNAME,,11101
,,,,NO STREETNAME,,11357
,,,,NO STREETNAME,,11201
,,,,NO HOUSE NUMBER,FORT TILDEN,11691
,,,,ADDRESS NUMBER OUT OF RANGE BY MORE THAN 4,7925 COOPER AVE,11385
,,,,NO STREETNAME,,11209
,,,,ADDRESS NUMBER OUT OF RANGE BY MORE THAN 4,154 27TH AVE # 14,11354
,,,,NO STREETNAME,57 FRONT ST,11201
,,,,SPELLCHECKED WITH NO CHANGE - CENTRALTERMINALAREA,9 CENTRAL TERMINAL AREA # 8,11430
,,,,NO HOUSE NUMBER,PO BOX 8120,11101
,,,,ADDRESS NUMBER OUT OF RANGE BY MORE THAN 4,78 N BOUNDARY RD,11430
,,,,STREET(S) NOT FOUND; NOT ELIGIBLE FOR SPELLCHECK,1 PIER 12,11231
,,,,ADDRESS NUMBER OUT OF RANGE BY MORE THAN 4,50 20TH ST # 2,11232
,,,,NO STREETNAME,,11363
,,,,ADDRESS NUMBER OUT OF RANGE BY MORE THAN 4,3412 36TH,11106
,,,,NO STREETNAME,,11235
,,,,STREET(S) NOT FOUND; NOT ELIGIBLE FOR SPELLCHECK,68 JAU ST # 210,11201
,,,,STREET(S) NOT FOUND; NOT ELIGIBLE FOR SPELLCHECK,1916 AVENUE U # A,11229
,,,,SPELLCHECKED WITH NO CHANGE - ERBENG,249 ERBENG AVE,11237
,,,,NO STREETNAME,,11354
,,,,ADDRESS NUMBER OUT OF RANGE BY MORE THAN 4,2556 MCDONALD AVE,11223
,,,,NO HOUSE NUMBER,JFK INTERNATIONAL AIRPORT,11430
,,,,NO HOUSE NUMBER,JFK INTERNATIONAL AIRPORT,11430
,,,,NO STREETNAME,,11201
,,,,STREET(S) NOT FOUND; NOT ELIGIBLE FOR SPELLCHECK,245 7-A FRANCIS LEWIS BLVD,11422
,,,,STREET(S) NOT FOUND; NOT ELIGIBLE FOR SPELLCHECK,28 30 UN,11354
,,,,NO STREETNAME,,11354
,,,,ADDRESS NUMBER OUT OF RANGE BY MORE THAN 4,1 CROSS ISLAND PLZ # 121,11422
,,,,NO HOUSE NUMBER,PO BOX 130201,11413
,,,,ADDRESS NUMBER OUT OF RANGE BY MORE THAN 4,515 54TH AVE,11101
,,,,ADDRESS NUMBER OUT OF RANGE BY MORE THAN 4,131 CUMBERLAND ST,11205
,,,,NO HOUSE NUMBER,PARK SLOPE,11215
,,,,NO STREETNAME,,11434
,,,,NO STREETNAME,,11205
,,,,NO STREETNAME,,11224
,,,,ADDRESS NUMBER OUT OF RANGE BY MORE THAN 4,25301 ROCKAWAY BLVD # 2,11422
,,,,SPELLCHECKED WITH NO CHANGE - CARGOSERVICE,67 CARGO SERVICE RD # 212,11430
,,,,STREET(S) NOT FOUND; NOT ELIGIBLE FOR SPELLCHECK,197 AVENUE U # A,11223
,,,,ADDRESS NUMBER OUT OF RANGE BY MORE THAN 4,14 128TH ST,11356
,,,,STREET(S) NOT FOUND; NOT ELIGIBLE FOR SPELLCHECK,14 -19B 128,11354
,,,,ADDRESS NUMBER OUT OF RANGE BY MORE THAN 4,14 JULIUS RD,11356
,,,,ADDRESS NUMBER OUT OF RANGE BY MORE THAN 4,13333 BROOKFIELD BLVD # 310,11422
,,,,ADDRESS NUMBER OUT OF RANGE BY MORE THAN 4,15030 132ND AVE # 308,11434
,,,,ADDRESS NUMBER OUT OF RANGE BY MORE THAN 4,135 7 38 AV,11354
,,,,ADDRESS NUMBER OUT OF RANGE BY MORE THAN 4,1010 BORDEN AVE,11101
,,,,ADDRESS NUMBER OUT OF RANGE BY MORE THAN 4,220 INGRAHAM ST # 5,11237
,,,,NO HOUSE NUMBER,JFK INTERNATIONAL AIRPORT,11430
,,,,NO HOUSE NUMBER,PO BOX 6074,11106
,,,,ADDRESS NUMBER OUT OF RANGE BY MORE THAN 4,416 BEACH 116TH ST,11694
,,,,ADDRESS NUMBER OUT OF RANGE BY MORE THAN 4,149 14 AV,11357
,,,,SPELLCHECKED WITH NO CHANGE - BROOKLYNTERMINALMARKET,46 BROOKLYN TERMINAL MARKET,11236
,,,,ADDRESS NUMBER OUT OF RANGE BY MORE THAN 4,150 14 AV,11357
,,,,STREETS NOT LONG ENOUGH TO SPELLCHECK,216 1/2 GREEN ST,11222
,,,,ADDRESS NUMBER OUT OF RANGE BY MORE THAN 4,56 MARATHON PKWY,11362
,,,,ADDRESS NUMBER OUT OF RANGE BY MORE THAN 4,1 CROSS ISLAND PLZ # 108A,11422
,,,,STREET(S) NOT FOUND; NOT ELIGIBLE FOR SPELLCHECK,135 -25A 40 RD,11354
,,,,NO STREETNAME,,11201
,,,,NO STREETNAME,,11201
,,,,NO STREETNAME,,11234
,,,,NO STREETNAME,,11101
,,,,ADDRESS NUMBER OUT OF RANGE BY MORE THAN 4,445 PARK AVE,11205
,,,,NO STREETNAME,,11434
,,,,ADDRESS NUMBER OUT OF RANGE BY MORE THAN 4,8104 162ND ST,11375
,,,,ADDRESS NUMBER OUT OF RANGE BY MORE THAN 4,1 CROSS ISLAND PLZ # LL1,11422
,,,,STREET(S) NOT FOUND; NOT ELIGIBLE FOR SPELLCHECK,214 11A 73 AVE,11360
,,,,ADDRESS NUMBER OUT OF RANGE BY MORE THAN 4,3140 COLLEGE POINT BLVD,11354
,,,,NO STREETNAME,,11209
,,,,NO STREETNAME,,11209
,,,,NO HOUSE NUMBER,PO BOX 200279,11220
,,,,NO STREETNAME,,11362
,,,,NO HOUSE NUMBER,PO BOX 110264,11211
,,,,NO STREETNAME,,11217
,,,,NO HOUSE NUMBER,PO BOX 570128,11357
,,,,NO STREETNAME,,11354
,,,,ADDRESS NUMBER OUT OF RANGE BY MORE THAN 4,17725 ROCKAWAY BLVD # 1,11434
,,,,ADDRESS NUMBER OUT OF RANGE BY MORE THAN 4,1 CROSS ISLAND PLZ # LL1A,11422
,,,,ADDRESS NUMBER OUT OF RANGE BY MORE THAN 4,36 20TH ST,11232
,,,,ADDRESS NUMBER OUT OF RANGE BY MORE THAN 4,16725 ROCKAWAY BLVD,11434
,,,,SPELLCHECKED WITH NO CHANGE - STREET,184TH ST,11413
,,,,ADDRESS NUMBER OUT OF RANGE BY MORE THAN 4,5601 NURGE AVE,11378
,,,,NO HOUSE NUMBER,JFK INTERNATIONAL AIRPORT,11430
,,,,SPELLCHECK CARGO--> CORSO;ADDRESS NUMBER OUT OF RANGE BY MORE THAN 4,86 CARGO PLZ # 1,11430
,,,,NO STREETNAME,,11211
,,,,STREET(S) NOT FOUND; NOT ELIGIBLE FOR SPELLCHECK,150 50 15050 NORTHERN BLVD BLV,11354
,,,,STREET(S) NOT FOUND; NOT ELIGIBLE FOR SPELLCHECK,418 AVENUE U # A,11223
,,,,NO HOUSE NUMBER,GUY R BREWER,11434
,,,,NO HOUSE NUMBER,PO BOX 340592,11434
,,,,ADDRESS NUMBER OUT OF RANGE BY MORE THAN 4,541 E 5,11354
,,,,ADDRESS NUMBER OUT OF RANGE BY MORE THAN 4,1627 E 103RD ST,11223
,,,,NO STREETNAME,,11232
,,,,ADDRESS NUMBER OUT OF RANGE BY MORE THAN 4,4004 UNION ST,11354
,,,,NO STREETNAME,,11224
,,,,NO STREETNAME,,11223
,,,,ADDRESS NUMBER OUT OF RANGE BY MORE THAN 4,17725 ROCKAWAY BLVD # 2,11434
,,,,ADDRESS NUMBER OUT OF RANGE BY MORE THAN 4,14151 7TH AVE,11375
,,,,ADDRESS NUMBER OUT OF RANGE BY MORE THAN 4,7019 AUSTIN ST # 3,11375
,,,,NO STREETNAME,,11235
,,,,ADDRESS NUMBER OUT OF RANGE BY MORE THAN 4,545 8TH AVE,11101
,,,,ADDRESS NUMBER OUT OF RANGE BY MORE THAN 4,2444 FRANCIS LEWIS BLVD # 2,11357
,,,,ADDRESS NUMBER OUT OF RANGE BY MORE THAN 4,25301 ROCKAWAY BLVD,11207
,,,,STREET(S) NOT FOUND; NOT ELIGIBLE FOR SPELLCHECK,136 86-A ROOSEVELT AV,11354
,,,,ADDRESS NUMBER OUT OF RANGE BY MORE THAN 4,13579 ROOSEVELT AVE # 304,11354
,,,,NO STREETNAME,,11201
,,,,NO STREETNAME,,11201
,,,,STREET(S) NOT FOUND; NOT ELIGIBLE FOR SPELLCHECK,861 AVENUE Z # A,11235
,,,,NO HOUSE NUMBER,UNION AVE,11211
,,,,NO STREETNAME,,11206
,,,,ADDRESS NUMBER OUT OF RANGE BY MORE THAN 4,5300 KINGS HWY,11234
,,,,STREET(S) NOT FOUND; NOT ELIGIBLE FOR SPELLCHECK,129 20-A 18 AV,11356
,,,,NO STREETNAME,,11101
,,,,ADDRESS NUMBER OUT OF RANGE BY MORE THAN 4,14 PAERDEGAT AVE N,11236
,,,,STREET(S) NOT FOUND; NOT ELIGIBLE FOR SPELLCHECK,918 AVE 0,11223
,,,,ADDRESS NUMBER OUT OF RANGE BY MORE THAN 4,575 MESEROLE ST,11237
,,,,ADDRESS NUMBER OUT OF RANGE BY MORE THAN 4,220 INGRAHAM ST,11237
,,,,ADDRESS NUMBER OUT OF RANGE BY MORE THAN 4,190 MCGUINNESS BLVD,11222
